{"type":"FeatureCollection","coordinateSystem":{"type":"image-pixel","origin":"top-left","x":"right","y":"down","georeferenced":false},"features":[{"type":"Feature","id":"road_001","properties":{"class":"road"},"geometry":{"type":"MultiLineString","coordinates":[[[79.872,0.0],[100.096,14.08]],[[100.096,14.08],[199.936,44.032]],[[100.096,14.08],[76.032,98.048],[64.0,130.048],[49.92,182.016],[54.016,174.08],[24.064,164.096],[0.0,147.968]],[[0.0,145.92],[100.096,140.032],[253.952,125.952]],[[24.064,164.096],[0.0,197.888]],[[100.096,140.032],[187.904,123.904],[253.952,108.032]],[[0.0,176.128],[27.904,172.032],[79.872,169.984],[160.0,162.048],[211.968,160.0],[253.952,155.904]],[[49.92,182.016],[83.968,204.032],[147.968,250.112],[155.904,253.952]],[[211.968,0.0],[199.936,44.032],[177.92,125.952],[167.936,172.032],[147.968,250.112],[145.92,253.952]]]},"junctions":[[17.408,173.568],[24.064,164.096],[45.824,171.264],[49.92,182.016],[52.992,171.008],[60.672,142.336],[100.096,14.08],[100.096,140.032],[147.968,250.112],[170.24,161.536],[176.384,133.12],[177.92,125.696],[199.936,44.032]]}]}