{"type":"FeatureCollection","coordinateSystem":{"type":"image-pixel","origin":"top-left","x":"right","y":"down","georeferenced":false},"features":[{"type":"Feature","id":"road_001","properties":{"class":"road"},"geometry":{"type":"MultiLineString","coordinates":[[[68.096,0.0],[100.096,14.08],[177.92,39.936],[211.968,37.888]],[[100.096,14.08],[79.872,88.064],[64.0,128.0]],[[0.0,137.984],[64.0,128.0],[100.096,125.952],[179.968,118.016],[253.952,108.032]],[[0.0,150.016],[7.936,150.016],[49.92,143.872],[137.984,135.936],[179.968,130.048],[253.952,120.064]],[[7.936,150.016],[51.968,176.128],[86.016,196.096],[135.936,229.888],[155.904,248.064],[164.096,253.952]],[[0.0,177.92],[49.92,174.08],[137.984,165.888],[253.952,154.112]],[[218.112,0.0],[211.968,37.888],[179.968,130.048],[164.096,167.936],[135.936,229.888],[130.048,253.952]]]},"junctions":[[7.936,150.016],[12.8,150.272],[36.096,145.152],[64.0,128.0],[70.912,173.824],[80.384,141.056],[86.272,126.72],[87.552,140.544],[88.32,168.96],[100.096,14.08],[135.936,229.888],[137.984,165.888],[179.968,130.048],[211.968,37.888]]}]}