{"type":"FeatureCollection","coordinateSystem":{"type":"image-pixel","origin":"top-left","x":"right","y":"down","georeferenced":false},"features":[{"type":"Feature","id":"water_023036","properties":{"class":"water"},"geometry":{"type":"Polygon","coordinates":[[[493.991,491.006],[500.997,511.013],[511.008,511.013],[511.008,483.986],[493.991,491.006]]]},"junctions":[]},{"type":"Feature","id":"water_023037","properties":{"class":"water"},"geometry":{"type":"Polygon","coordinates":[[[414.005,340.041],[374.932,478.023],[389.96,511.091],[458.028,511.091],[455.022,415.932],[482.073,464.939],[511.068,455.899],[497.985,355.029],[482.073,335.997],[429.917,327.909],[414.005,340.041]]]},"junctions":[]},{"type":"Feature","id":"water_023038","properties":{"class":"water"},"geometry":{"type":"Polygon","coordinates":[[[-0.204,-0.143],[-0.204,287.143],[357.816,181.929],[380.093,162.901],[408.204,92.012],[381.154,55.822],[356.755,46.121],[384.866,-0.143],[-0.204,-0.143]]]},"junctions":[]}]}