{"type":"FeatureCollection","coordinateSystem":{"type":"image-pixel","origin":"top-left","x":"right","y":"down","georeferenced":false},"features":[{"type":"Feature","id":"building_112028","properties":{"class":"building"},"geometry":{"type":"Polygon","coordinates":[[[418.08,496.422],[399.305,511.508],[430.195,511.508],[418.08,496.422]]]},"junctions":[]},{"type":"Feature","id":"building_112029","properties":{"class":"building"},"geometry":{"type":"Polygon","coordinates":[[[181.36,490.67],[165.309,511.51],[207.491,511.51],[181.36,490.67]]]},"junctions":[]},{"type":"Feature","id":"building_112030","properties":{"class":"building"},"geometry":{"type":"Polygon","coordinates":[[[475.139,486.117],[452.098,505.642],[457.06,511.513],[495.099,511.513],[496.012,510.721],[475.139,486.117]]]},"junctions":[]},{"type":"Feature","id":"building_112031","properties":{"class":"building"},"geometry":{"type":"Polygon","coordinates":[[[302.931,483.086],[279.602,501.841],[287.394,511.514],[299.665,511.514],[315.528,498.777],[302.931,483.086]]]},"junctions":[]},{"type":"Feature","id":"building_112032","properties":{"class":"building"},"geometry":{"type":"Polygon","coordinates":[[[431.749,481.53],[444.355,497.681],[453.611,490.454],[441.402,474.779],[431.749,481.53]]]},"junctions":[]},{"type":"Feature","id":"building_112033","properties":{"class":"building"},"geometry":{"type":"Polygon","coordinates":[[[-0.014,454.144],[-0.014,484.83],[27.927,485.316],[28.444,454.63],[-0.014,454.144]]]},"junctions":[]},{"type":"Feature","id":"building_112034","properties":{"class":"building"},"geometry":{"type":"Polygon","coordinates":[[[109.514,450.119],[90.463,487.524],[98.135,491.432],[88.567,510.175],[91.153,511.531],[135.116,511.531],[139.771,502.04],[141.668,503.156],[145.633,495.899],[143.392,494.623],[154.943,471.095],[117.79,452.911],[117.272,453.948],[109.514,450.119]]]},"junctions":[]},{"type":"Feature","id":"building_112035","properties":{"class":"building"},"geometry":{"type":"Polygon","coordinates":[[[358.764,457.482],[376.781,484.905],[409.956,463.108],[391.939,435.685],[358.764,457.482]]]},"junctions":[]},{"type":"Feature","id":"building_112036","properties":{"class":"building"},"geometry":{"type":"Polygon","coordinates":[[[234.145,443.201],[242.529,485.087],[303.555,472.949],[295.262,431.063],[234.145,443.201]]]},"junctions":[]},{"type":"Feature","id":"building_112037","properties":{"class":"building"},"geometry":{"type":"Polygon","coordinates":[[[129.406,420.159],[129.204,442.645],[160.114,442.941],[160.316,420.454],[129.406,420.159]]]},"junctions":[]},{"type":"Feature","id":"building_112038","properties":{"class":"building"},"geometry":{"type":"Polygon","coordinates":[[[399.27,384.848],[403.047,404.841],[418.66,401.892],[414.883,381.899],[399.27,384.848]]]},"junctions":[]},{"type":"Feature","id":"building_112039","properties":{"class":"building"},"geometry":{"type":"Polygon","coordinates":[[[466.107,418.088],[489.602,448.143],[512.023,430.59],[512.023,382.211],[466.107,418.088]]]},"junctions":[]},{"type":"Feature","id":"building_112040","properties":{"class":"building"},"geometry":{"type":"Polygon","coordinates":[[[2.722,371.144],[2.014,402.144],[33.378,402.886],[34.086,372.752],[2.722,371.144]]]},"junctions":[]},{"type":"Feature","id":"building_112041","properties":{"class":"building"},"geometry":{"type":"Polygon","coordinates":[[[333.948,383.919],[345.998,440.855],[398.832,429.706],[386.277,370.485],[348.273,378.527],[348.863,381.177],[333.948,383.919]]]},"junctions":[]},{"type":"Feature","id":"building_112042","properties":{"class":"building"},"geometry":{"type":"Polygon","coordinates":[[[198.342,376.06],[199.608,382.63],[192.693,384.082],[195.03,395.425],[201.848,394.041],[206.328,417.487],[267.687,405.66],[259.701,364.233],[198.342,376.06]]]},"junctions":[]},{"type":"Feature","id":"building_112043","properties":{"class":"building"},"geometry":{"type":"Polygon","coordinates":[[[107.17,369.306],[106.047,410.584],[134.731,411.286],[134.645,414.936],[144.839,415.217],[144.926,411.567],[171.45,412.269],[172.573,371.061],[170.5,370.991],[170.672,361.795],[147.518,361.163],[147.345,370.851],[107.17,369.306]]]},"junctions":[]},{"type":"Feature","id":"building_112044","properties":{"class":"building"},"geometry":{"type":"Polygon","coordinates":[[[75.901,341.827],[75.619,356.089],[74.77,356.029],[72.169,385.919],[91.34,387.583],[93.941,357.693],[92.499,357.515],[92.98,341.946],[75.901,341.827]]]},"junctions":[]},{"type":"Feature","id":"building_112045","properties":{"class":"building"},"geometry":{"type":"Polygon","coordinates":[[[285.468,341.008],[291.513,371.927],[309.462,368.437],[303.417,337.473],[285.468,341.008]]]},"junctions":[]},{"type":"Feature","id":"building_112046","properties":{"class":"building"},"geometry":{"type":"Polygon","coordinates":[[[424.534,336.131],[432.293,377.387],[462.29,371.713],[462.858,374.235],[471.847,372.204],[471.279,370.032],[497.396,365.129],[489.542,323.453],[424.534,336.131]]]},"junctions":[]},{"type":"Feature","id":"building_112047","properties":{"class":"building"},"geometry":{"type":"Polygon","coordinates":[[[114.009,310.914],[114.009,343.316],[155.961,343.316],[155.961,310.914],[114.009,310.914]]]},"junctions":[]},{"type":"Feature","id":"building_112048","properties":{"class":"building"},"geometry":{"type":"Polygon","coordinates":[[[336.994,306.467],[340.637,325.852],[369.236,320.451],[365.593,301.098],[336.994,306.467]]]},"junctions":[]},{"type":"Feature","id":"building_112049","properties":{"class":"building"},"geometry":{"type":"Polygon","coordinates":[[[-0.016,283.74],[-0.016,343.288],[24.631,344.39],[26.449,302.959],[32.24,303.038],[32.536,284.212],[-0.016,283.74]]]},"junctions":[]},{"type":"Feature","id":"building_112050","properties":{"class":"building"},"geometry":{"type":"Polygon","coordinates":[[[35.369,276.324],[34.824,307.441],[66.581,307.976],[67.126,276.859],[35.369,276.324]]]},"junctions":[]},{"type":"Feature","id":"building_112051","properties":{"class":"building"},"geometry":{"type":"Polygon","coordinates":[[[187.23,259.518],[186.157,323.001],[230.98,323.752],[232.053,260.269],[187.23,259.518]]]},"junctions":[]},{"type":"Feature","id":"building_112052","properties":{"class":"building"},"geometry":{"type":"Polygon","coordinates":[[[306.286,242.164],[305.965,272.903],[336.544,273.226],[336.865,242.487],[306.286,242.164]]]},"junctions":[]},{"type":"Feature","id":"building_112053","properties":{"class":"building"},"geometry":{"type":"Polygon","coordinates":[[[360.801,252.466],[371.481,303.555],[458.699,285.354],[448.655,234.175],[360.801,252.466]]]},"junctions":[]},{"type":"Feature","id":"building_112054","properties":{"class":"building"},"geometry":{"type":"Polygon","coordinates":[[[101.521,228.013],[99.785,261.333],[111.873,261.997],[111.037,300.252],[147.687,301.107],[149.295,229.058],[101.521,228.013]]]},"junctions":[]},{"type":"Feature","id":"building_112055","properties":{"class":"building"},"geometry":{"type":"Polygon","coordinates":[[[50.153,221.364],[49.708,252.697],[73.757,253.026],[74.202,221.693],[50.153,221.364]]]},"junctions":[]},{"type":"Feature","id":"building_112056","properties":{"class":"building"},"geometry":{"type":"Polygon","coordinates":[[[467.408,218.561],[468.567,252.711],[480.039,252.344],[480.271,258.42],[512.022,257.32],[512.022,221.18],[481.487,222.175],[481.314,218.09],[467.408,218.561]]]},"junctions":[]},{"type":"Feature","id":"building_112057","properties":{"class":"building"},"geometry":{"type":"Polygon","coordinates":[[[240.614,210.306],[239.659,237.097],[255.179,237.559],[255.019,241.6],[247.22,241.369],[246.106,274.627],[262.58,275.205],[261.705,297.954],[298.155,299.224],[300.941,239.522],[268.47,238.944],[269.345,211.114],[240.614,210.306]]]},"junctions":[]},{"type":"Feature","id":"building_112058","properties":{"class":"building"},"geometry":{"type":"Polygon","coordinates":[[[163.824,190.647],[162.473,235.295],[194.686,236.303],[196.037,191.655],[163.824,190.647]]]},"junctions":[]},{"type":"Feature","id":"building_112059","properties":{"class":"building"},"geometry":{"type":"Polygon","coordinates":[[[18.544,156.108],[3.224,182.812],[11.638,187.588],[-0.031,206.91],[-0.031,223.843],[24.735,239.692],[40.135,213.531],[42.278,214.725],[47.438,206.258],[45.215,204.956],[61.091,177.927],[29.736,158.822],[27.99,161.536],[18.544,156.108]]]},"junctions":[]},{"type":"Feature","id":"building_112060","properties":{"class":"building"},"geometry":{"type":"Polygon","coordinates":[[[439.076,151.628],[438.692,162.033],[428.155,161.905],[427.963,176.036],[438.213,176.1],[437.83,188.562],[500.865,189.975],[501.727,153.426],[499.14,153.362],[499.236,140.708],[479.789,140.515],[479.694,152.784],[439.076,151.628]]]},"junctions":[]},{"type":"Feature","id":"building_112061","properties":{"class":"building"},"geometry":{"type":"Polygon","coordinates":[[[349.214,130.093],[348.468,162.73],[371.646,163.247],[372.392,130.61],[349.214,130.093]]]},"junctions":[]},{"type":"Feature","id":"building_112062","properties":{"class":"building"},"geometry":{"type":"Polygon","coordinates":[[[259.508,126.964],[258.39,157.553],[278.282,158.286],[279.4,127.697],[259.508,126.964]]]},"junctions":[]},{"type":"Feature","id":"building_112063","properties":{"class":"building"},"geometry":{"type":"Polygon","coordinates":[[[390.268,115.173],[389.161,147.04],[426.802,148.377],[427.909,116.51],[390.268,115.173]]]},"junctions":[]},{"type":"Feature","id":"building_112064","properties":{"class":"building"},"geometry":{"type":"Polygon","coordinates":[[[102.513,139.883],[121.684,176.883],[177.447,149.368],[158.081,111.087],[102.513,139.883]]]},"junctions":[]},{"type":"Feature","id":"building_112065","properties":{"class":"building"},"geometry":{"type":"Polygon","coordinates":[[[302.265,109.627],[300.748,173.777],[344.165,174.793],[345.682,110.643],[302.265,109.627]]]},"junctions":[]},{"type":"Feature","id":"building_112066","properties":{"class":"building"},"geometry":{"type":"Polygon","coordinates":[[[209.111,107.908],[206.867,170.313],[250.089,171.892],[252.333,109.487],[209.111,107.908]]]},"junctions":[]},{"type":"Feature","id":"building_112067","properties":{"class":"building"},"geometry":{"type":"Polygon","coordinates":[[[150.854,86.891],[150.854,105.449],[183.236,105.449],[183.236,86.891],[150.854,86.891]]]},"junctions":[]},{"type":"Feature","id":"building_112068","properties":{"class":"building"},"geometry":{"type":"Polygon","coordinates":[[[430.039,71.706],[430.039,85.334],[443.032,85.334],[442.499,109.998],[512.041,111.519],[512.041,69.172],[443.351,68.158],[443.245,71.706],[430.039,71.706]]]},"junctions":[]},{"type":"Feature","id":"building_112069","properties":{"class":"building"},"geometry":{"type":"Polygon","coordinates":[[[-0.01,47.131],[-0.01,90.583],[19.38,87.933],[13.764,45.247],[-0.01,47.131]]]},"junctions":[]},{"type":"Feature","id":"building_112070","properties":{"class":"building"},"geometry":{"type":"Polygon","coordinates":[[[147.438,54.242],[164.6,82.502],[191.782,65.988],[174.62,37.728],[147.438,54.242]]]},"junctions":[]},{"type":"Feature","id":"building_112071","properties":{"class":"building"},"geometry":{"type":"Polygon","coordinates":[[[424.424,31.173],[423.894,43.768],[454.766,45.047],[455.296,32.452],[424.424,31.173]]]},"junctions":[]},{"type":"Feature","id":"building_112072","properties":{"class":"building"},"geometry":{"type":"Polygon","coordinates":[[[375.167,29.812],[374.352,64.537],[410.473,65.368],[411.288,31.475],[375.167,29.812]]]},"junctions":[]},{"type":"Feature","id":"building_112073","properties":{"class":"building"},"geometry":{"type":"Polygon","coordinates":[[[66.392,-0.014],[59.589,18.05],[79.226,25.427],[100.135,27.694],[102.181,8.586],[83.485,6.283],[66.503,-0.014],[66.392,-0.014]]]},"junctions":[]},{"type":"Feature","id":"building_112074","properties":{"class":"building"},"geometry":{"type":"Polygon","coordinates":[[[255.324,-0.02],[248.645,35.475],[270.428,39.59],[277.866,-0.02],[255.324,-0.02]]]},"junctions":[]},{"type":"Feature","id":"building_112076","properties":{"class":"building"},"geometry":{"type":"Polygon","coordinates":[[[463.239,-0.012],[462.855,23.637],[512.025,24.365],[512.025,-0.012],[463.239,-0.012]]]},"junctions":[]},{"type":"Feature","id":"building_112077","properties":{"class":"building"},"geometry":{"type":"Polygon","coordinates":[[[174.171,-0.021],[173.929,4.669],[192.983,5.705],[191.288,40.226],[225.844,41.971],[227.055,18.685],[234.886,19.175],[236.098,-0.021],[174.171,-0.021]]]},"junctions":[]},{"type":"Feature","id":"building_112078","properties":{"class":"building"},"geometry":{"type":"Polygon","coordinates":[[[312.704,-0.027],[311.459,52.101],[351.827,53.067],[353.126,-0.027],[312.704,-0.027]]]},"junctions":[]},{"type":"Feature","id":"building_112079","properties":{"class":"building"},"geometry":{"type":"Polygon","coordinates":[[[-0.009,-0.009],[-0.009,17.521],[16.827,18.109],[17.439,-0.009],[-0.009,-0.009]]]},"junctions":[]}]}