{"type":"FeatureCollection","coordinateSystem":{"type":"image-pixel","origin":"top-left","x":"right","y":"down","georeferenced":false},"features":[{"type":"Feature","id":"building_112028","properties":{"class":"building"},"geometry":{"type":"Polygon","coordinates":[[[418.24,496.422],[399.305,511.508],[430.195,511.508],[418.24,496.422]]]},"junctions":[]},{"type":"Feature","id":"building_112029","properties":{"class":"building"},"geometry":{"type":"Polygon","coordinates":[[[181.305,490.67],[165.309,511.51],[207.491,511.51],[181.305,490.67]]]},"junctions":[]},{"type":"Feature","id":"building_112030","properties":{"class":"building"},"geometry":{"type":"Polygon","coordinates":[[[476.393,486.117],[452.098,505.774],[457.231,511.513],[496.012,511.513],[476.393,486.117]]]},"junctions":[]},{"type":"Feature","id":"building_112031","properties":{"class":"building"},"geometry":{"type":"Polygon","coordinates":[[[303.024,483.086],[279.602,502.616],[287.954,511.514],[301.111,511.514],[315.528,498.777],[303.024,483.086]]]},"junctions":[]},{"type":"Feature","id":"building_112032","properties":{"class":"building"},"geometry":{"type":"Polygon","coordinates":[[[431.749,481.828],[444.128,497.681],[453.611,490.632],[441.232,474.779],[431.749,481.828]]]},"junctions":[]},{"type":"Feature","id":"building_112033","properties":{"class":"building"},"geometry":{"type":"Polygon","coordinates":[[[-0.014,454.144],[-0.014,484.546],[26.042,485.316],[28.444,454.995],[-0.014,454.144]]]},"junctions":[]},{"type":"Feature","id":"building_112034","properties":{"class":"building"},"geometry":{"type":"Polygon","coordinates":[[[109.428,450.119],[90.722,487.764],[98.653,491.512],[88.567,511.531],[135.116,511.531],[139.254,503.156],[142.616,504.672],[146.409,496.856],[143.133,495.261],[154.943,471.573],[109.428,450.119]]]},"junctions":[]},{"type":"Feature","id":"building_112035","properties":{"class":"building"},"geometry":{"type":"Polygon","coordinates":[[[358.764,458.505],[376.382,484.905],[409.956,462.085],[392.338,435.685],[358.764,458.505]]]},"junctions":[]},{"type":"Feature","id":"building_112036","properties":{"class":"building"},"geometry":{"type":"Polygon","coordinates":[[[234.145,443.411],[242.348,485.087],[303.555,473.37],[296.163,431.063],[234.145,443.411]]]},"junctions":[]},{"type":"Feature","id":"building_112037","properties":{"class":"building"},"geometry":{"type":"Polygon","coordinates":[[[129.204,420.159],[129.204,442.941],[160.316,442.941],[160.316,420.159],[129.204,420.159]]]},"junctions":[]},{"type":"Feature","id":"building_112038","properties":{"class":"building"},"geometry":{"type":"Polygon","coordinates":[[[399.27,384.968],[403.601,404.841],[418.66,401.772],[414.329,381.899],[399.27,384.968]]]},"junctions":[]},{"type":"Feature","id":"building_112039","properties":{"class":"building"},"geometry":{"type":"Polygon","coordinates":[[[466.107,418.003],[489.721,448.143],[512.023,431.189],[512.023,382.982],[511.009,382.211],[466.107,418.003]]]},"junctions":[]},{"type":"Feature","id":"building_112040","properties":{"class":"building"},"geometry":{"type":"Polygon","coordinates":[[[3.097,371.144],[2.014,401.897],[33.003,402.886],[34.086,372.133],[3.097,371.144]]]},"junctions":[]},{"type":"Feature","id":"building_112041","properties":{"class":"building"},"geometry":{"type":"Polygon","coordinates":[[[333.948,383.919],[346.25,440.855],[398.832,429.34],[386.445,370.485],[333.948,383.919]]]},"junctions":[]},{"type":"Feature","id":"building_112042","properties":{"class":"building"},"geometry":{"type":"Polygon","coordinates":[[[198.049,375.437],[199.121,380.763],[192.693,382.077],[195.42,395.978],[203.017,394.456],[207.789,417.487],[267.687,404.899],[258.824,364.233],[198.049,375.437]]]},"junctions":[]},{"type":"Feature","id":"building_112043","properties":{"class":"building"},"geometry":{"type":"Polygon","coordinates":[[[107.602,368.745],[106.047,410.443],[134.645,411.426],[134.558,414.796],[144.667,415.217],[144.753,411.988],[171.018,412.9],[172.573,371.553],[170.327,371.482],[170.672,361.795],[146.308,361.163],[145.963,370.219],[107.602,368.745]]]},"junctions":[]},{"type":"Feature","id":"building_112044","properties":{"class":"building"},"geometry":{"type":"Polygon","coordinates":[[[75.901,341.827],[72.169,385.622],[90.209,387.583],[93.941,343.788],[75.901,341.827]]]},"junctions":[]},{"type":"Feature","id":"building_112045","properties":{"class":"building"},"geometry":{"type":"Polygon","coordinates":[[[285.468,341.41],[291.108,371.927],[309.462,367.99],[303.822,337.473],[285.468,341.41]]]},"junctions":[]},{"type":"Feature","id":"building_112046","properties":{"class":"building"},"geometry":{"type":"Polygon","coordinates":[[[424.534,336.481],[432.861,377.387],[461.722,371.783],[462.195,374.025],[471.279,372.344],[470.712,369.122],[497.396,364.079],[489.258,323.453],[424.534,336.481]]]},"junctions":[]},{"type":"Feature","id":"building_112047","properties":{"class":"building"},"geometry":{"type":"Polygon","coordinates":[[[114.663,310.914],[114.009,342.475],[155.307,343.316],[155.961,311.755],[114.663,310.914]]]},"junctions":[]},{"type":"Feature","id":"building_112048","properties":{"class":"building"},"geometry":{"type":"Polygon","coordinates":[[[336.994,304.313],[339.758,325.852],[369.236,322.637],[366.472,301.098],[336.994,304.313]]]},"junctions":[]},{"type":"Feature","id":"building_112049","properties":{"class":"building"},"geometry":{"type":"Polygon","coordinates":[[[-0.016,283.74],[-0.016,343.366],[25.265,344.39],[26.406,303.51],[32.114,303.668],[32.536,284.685],[-0.016,283.74]]]},"junctions":[]},{"type":"Feature","id":"building_112050","properties":{"class":"building"},"geometry":{"type":"Polygon","coordinates":[[[35.915,276.324],[34.824,306.702],[66.035,307.976],[67.126,277.598],[35.915,276.324]]]},"junctions":[]},{"type":"Feature","id":"building_112051","properties":{"class":"building"},"geometry":{"type":"Polygon","coordinates":[[[188.482,259.518],[186.157,322.417],[229.728,323.752],[232.053,260.853],[188.482,259.518]]]},"junctions":[]},{"type":"Feature","id":"building_112052","properties":{"class":"building"},"geometry":{"type":"Polygon","coordinates":[[[306.687,242.164],[305.965,272.419],[336.143,273.226],[336.865,242.971],[306.687,242.164]]]},"junctions":[]},{"type":"Feature","id":"building_112053","properties":{"class":"building"},"geometry":{"type":"Polygon","coordinates":[[[360.801,251.565],[370.464,303.555],[458.699,286.165],[449.036,234.175],[360.801,251.565]]]},"junctions":[]},{"type":"Feature","id":"building_112054","properties":{"class":"building"},"geometry":{"type":"Polygon","coordinates":[[[101.457,228.013],[99.785,260.573],[111.488,261.048],[109.88,299.778],[146.659,301.107],[149.295,230.102],[101.457,228.013]]]},"junctions":[]},{"type":"Feature","id":"building_112055","properties":{"class":"building"},"geometry":{"type":"Polygon","coordinates":[[[50.153,221.364],[49.708,252.697],[73.757,253.026],[74.202,221.693],[50.153,221.364]]]},"junctions":[]},{"type":"Feature","id":"building_112056","properties":{"class":"building"},"geometry":{"type":"Polygon","coordinates":[[[467.408,219.452],[468.682,252.606],[480.386,252.187],[480.56,258.42],[512.022,257.215],[512.022,220.866],[480.155,222.071],[480.039,218.09],[467.408,219.452]]]},"junctions":[]},{"type":"Feature","id":"building_112057","properties":{"class":"building"},"geometry":{"type":"Polygon","coordinates":[[[239.659,210.306],[239.659,236.404],[247.618,236.404],[247.618,274.512],[262.819,274.512],[262.819,299.224],[300.941,299.224],[300.941,238.482],[269.982,238.482],[269.982,210.306],[239.659,210.306]]]},"junctions":[]},{"type":"Feature","id":"building_112058","properties":{"class":"building"},"geometry":{"type":"Polygon","coordinates":[[[164.086,190.647],[162.473,234.939],[194.424,236.303],[196.037,192.011],[164.086,190.647]]]},"junctions":[]},{"type":"Feature","id":"building_112059","properties":{"class":"building"},"geometry":{"type":"Polygon","coordinates":[[[17.353,156.108],[1.875,183.029],[10.844,188.348],[-0.031,207.887],[-0.031,223.626],[24.339,239.692],[61.091,178.578],[29.498,158.388],[28.307,160.45],[17.353,156.108]]]},"junctions":[]},{"type":"Feature","id":"building_112060","properties":{"class":"building"},"geometry":{"type":"Polygon","coordinates":[[[438.692,151.178],[438.501,161.519],[428.155,161.327],[427.963,176.678],[438.788,176.871],[438.597,188.819],[501.152,189.975],[501.727,152.655],[498.087,152.591],[498.278,140.901],[479.981,140.515],[479.789,151.885],[438.692,151.178]]]},"junctions":[]},{"type":"Feature","id":"building_112061","properties":{"class":"building"},"geometry":{"type":"Polygon","coordinates":[[[348.903,130.093],[348.468,162.859],[371.957,163.247],[372.392,130.481],[348.903,130.093]]]},"junctions":[]},{"type":"Feature","id":"building_112062","properties":{"class":"building"},"geometry":{"type":"Polygon","coordinates":[[[259.345,126.964],[258.39,157.716],[278.445,158.286],[279.4,127.534],[259.345,126.964]]]},"junctions":[]},{"type":"Feature","id":"building_112063","properties":{"class":"building"},"geometry":{"type":"Polygon","coordinates":[[[389.513,115.173],[389.161,147.902],[427.557,148.377],[427.909,115.648],[389.513,115.173]]]},"junctions":[]},{"type":"Feature","id":"building_112064","properties":{"class":"building"},"geometry":{"type":"Polygon","coordinates":[[[102.513,140.054],[121.976,176.883],[177.447,147.916],[157.984,111.087],[102.513,140.054]]]},"junctions":[]},{"type":"Feature","id":"building_112065","properties":{"class":"building"},"geometry":{"type":"Polygon","coordinates":[[[302.382,109.627],[300.748,173.608],[344.048,174.793],[345.682,110.812],[302.382,109.627]]]},"junctions":[]},{"type":"Feature","id":"building_112066","properties":{"class":"building"},"geometry":{"type":"Polygon","coordinates":[[[208.166,107.908],[206.867,171.061],[251.034,171.892],[252.333,108.739],[208.166,107.908]]]},"junctions":[]},{"type":"Feature","id":"building_112067","properties":{"class":"building"},"geometry":{"type":"Polygon","coordinates":[[[150.854,86.891],[150.854,105.449],[183.236,105.449],[183.236,86.891],[150.854,86.891]]]},"junctions":[]},{"type":"Feature","id":"building_112068","properties":{"class":"building"},"geometry":{"type":"Polygon","coordinates":[[[430.252,72.382],[430.039,85.953],[442.925,86.122],[442.712,110.618],[512.041,111.519],[512.041,69.622],[444.203,68.158],[444.203,72.551],[430.252,72.382]]]},"junctions":[]},{"type":"Feature","id":"building_112069","properties":{"class":"building"},"geometry":{"type":"Polygon","coordinates":[[[-0.01,46.543],[-0.01,90.583],[19.38,88.875],[15.099,45.247],[-0.01,46.543]]]},"junctions":[]},{"type":"Feature","id":"building_112070","properties":{"class":"building"},"geometry":{"type":"Polygon","coordinates":[[[147.438,55.579],[164.197,82.502],[191.782,64.651],[175.023,37.728],[147.438,55.579]]]},"junctions":[]},{"type":"Feature","id":"building_112071","properties":{"class":"building"},"geometry":{"type":"Polygon","coordinates":[[[423.894,31.173],[423.894,45.047],[455.296,45.047],[455.296,31.173],[423.894,31.173]]]},"junctions":[]},{"type":"Feature","id":"building_112072","properties":{"class":"building"},"geometry":{"type":"Polygon","coordinates":[[[375.167,29.812],[374.352,64.444],[410.473,65.368],[411.288,30.736],[375.167,29.812]]]},"junctions":[]},{"type":"Feature","id":"building_112073","properties":{"class":"building"},"geometry":{"type":"Polygon","coordinates":[[[66.171,-0.014],[59.589,17.726],[95.765,27.694],[102.181,9.414],[76.847,2.397],[77.732,-0.014],[66.171,-0.014]]]},"junctions":[]},{"type":"Feature","id":"building_112074","properties":{"class":"building"},"geometry":{"type":"Polygon","coordinates":[[[254.755,-0.02],[248.645,35.114],[270.314,39.59],[277.866,-0.02],[254.755,-0.02]]]},"junctions":[]},{"type":"Feature","id":"building_112076","properties":{"class":"building"},"geometry":{"type":"Polygon","coordinates":[[[463.622,-0.012],[462.855,23.099],[512.025,24.365],[512.025,-0.012],[463.622,-0.012]]]},"junctions":[]},{"type":"Feature","id":"building_112077","properties":{"class":"building"},"geometry":{"type":"Polygon","coordinates":[[[173.929,-0.021],[174.171,5.705],[193.548,5.16],[194.275,41.426],[225.198,41.971],[226.167,20.157],[236.098,19.993],[235.452,-0.021],[173.929,-0.021]]]},"junctions":[]},{"type":"Feature","id":"building_112078","properties":{"class":"building"},"geometry":{"type":"Polygon","coordinates":[[[312.92,-0.027],[311.459,52.17],[351.665,53.067],[353.126,-0.027],[312.92,-0.027]]]},"junctions":[]},{"type":"Feature","id":"building_112079","properties":{"class":"building"},"geometry":{"type":"Polygon","coordinates":[[[-0.009,-0.009],[-0.009,18.109],[17.439,18.109],[17.439,-0.009],[-0.009,-0.009]]]},"junctions":[]}]}