{"type":"FeatureCollection","coordinateSystem":{"type":"image-pixel","origin":"top-left","x":"right","y":"down","georeferenced":false},"features":[{"type":"Feature","id":"water_029824","properties":{"class":"water"},"geometry":{"type":"Polygon","coordinates":[[[279.003,484.987],[277.986,511.013],[307.014,511.013],[279.003,484.987]]]},"junctions":[]},{"type":"Feature","id":"water_029825","properties":{"class":"water"},"geometry":{"type":"Polygon","coordinates":[[[136.98,480.985],[148.013,505.009],[178.02,511.015],[158.992,483.013],[136.98,480.985]]]},"junctions":[]},{"type":"Feature","id":"water_029826","properties":{"class":"water"},"geometry":{"type":"Polygon","coordinates":[[[183.957,457.974],[165.957,480.022],[194.019,511.026],[252.043,511.026],[238.962,472.994],[225.994,470.031],[217.05,484.018],[221.969,463.003],[183.957,457.974]]]},"junctions":[]},{"type":"Feature","id":"water_029827","properties":{"class":"water"},"geometry":{"type":"Polygon","coordinates":[[[79.012,450.97],[5.949,494.962],[18.016,511.03],[71.984,511.03],[108.051,472.03],[79.012,450.97]]]},"junctions":[]},{"type":"Feature","id":"water_029828","properties":{"class":"water"},"geometry":{"type":"Polygon","coordinates":[[[-0.011,435.981],[6.996,474.019],[22.011,460.977],[-0.011,435.981]]]},"junctions":[]},{"type":"Feature","id":"water_029829","properties":{"class":"water"},"geometry":{"type":"Polygon","coordinates":[[[79.98,409.987],[77.978,426.972],[97.998,452.024],[116.016,452.024],[122.022,437.971],[89.99,404.976],[79.98,409.987]]]},"junctions":[]},{"type":"Feature","id":"water_029830","properties":{"class":"water"},"geometry":{"type":"Polygon","coordinates":[[[-0.036,391.006],[-0.036,414.96],[50.04,456.037],[72.036,444.974],[21.96,381.963],[-0.036,391.006]]]},"junctions":[]},{"type":"Feature","id":"water_029831","properties":{"class":"water"},"geometry":{"type":"Polygon","coordinates":[[[92.962,402.988],[141.01,450.035],[170.038,421.006],[161.029,408.994],[150.019,415.0],[146.014,393.979],[123.993,379.965],[92.962,402.988]]]},"junctions":[]},{"type":"Feature","id":"water_029832","properties":{"class":"water"},"geometry":{"type":"Polygon","coordinates":[[[28.956,367.98],[67.021,411.036],[118.044,372.005],[81.021,338.964],[28.956,367.98]]]},"junctions":[]},{"type":"Feature","id":"water_029833","properties":{"class":"water"},"geometry":{"type":"Polygon","coordinates":[[[44.986,320.976],[34.981,349.019],[72.019,326.989],[63.024,311.981],[44.986,320.976]]]},"junctions":[]},{"type":"Feature","id":"water_029834","properties":{"class":"water"},"geometry":{"type":"Polygon","coordinates":[[[-0.025,257.954],[-0.025,337.989],[20.992,351.047],[51.026,299.06],[-0.025,257.954]]]},"junctions":[]},{"type":"Feature","id":"water_029835","properties":{"class":"water"},"geometry":{"type":"Polygon","coordinates":[[[193.939,215.005],[244.057,262.034],[284.975,260.001],[316.061,218.011],[271.019,193.966],[193.939,215.005]]]},"junctions":[]},{"type":"Feature","id":"water_029836","properties":{"class":"water"},"geometry":{"type":"Polygon","coordinates":[[[268.004,137.978],[266.99,182.022],[283.994,182.022],[287.01,147.988],[268.004,137.978]]]},"junctions":[]},{"type":"Feature","id":"water_029837","properties":{"class":"water"},"geometry":{"type":"Polygon","coordinates":[[[244.997,131.977],[236.989,173.0],[256.008,178.023],[259.011,137.0],[244.997,131.977]]]},"junctions":[]},{"type":"Feature","id":"water_029838","properties":{"class":"water"},"geometry":{"type":"Polygon","coordinates":[[[249.001,112.992],[247.987,124.992],[272.999,130.008],[274.013,115.997],[249.001,112.992]]]},"junctions":[]},{"type":"Feature","id":"water_029839","properties":{"class":"water"},"geometry":{"type":"Polygon","coordinates":[[[298.008,80.938],[294.953,113.017],[313.039,118.014],[320.982,137.036],[314.994,176.046],[296.053,187.975],[329.047,205.062],[383.059,154.929],[389.047,114.951],[351.043,85.935],[298.008,80.938]]]},"junctions":[]},{"type":"Feature","id":"water_029840","properties":{"class":"water"},"geometry":{"type":"Polygon","coordinates":[[[248.01,40.947],[244.978,92.971],[289.022,111.053],[285.018,13.962],[267.0,3.946],[248.01,40.947]]]},"junctions":[]}]}