{"type":"FeatureCollection","coordinateSystem":{"type":"image-pixel","origin":"top-left","x":"right","y":"down","georeferenced":false},"features":[{"type":"Feature","id":"water_029824","properties":{"class":"water"},"geometry":{"type":"Polygon","coordinates":[[[282.736,484.987],[277.986,511.013],[307.014,511.013],[282.736,484.987]]]},"junctions":[]},{"type":"Feature","id":"water_029825","properties":{"class":"water"},"geometry":{"type":"Polygon","coordinates":[[[136.98,480.985],[154.569,511.015],[178.02,511.015],[166.934,487.342],[136.98,480.985]]]},"junctions":[]},{"type":"Feature","id":"water_029826","properties":{"class":"water"},"geometry":{"type":"Polygon","coordinates":[[[179.708,457.974],[165.957,477.61],[182.951,500.623],[190.888,511.026],[252.043,511.026],[244.105,485.465],[230.354,494.628],[221.41,485.465],[228.23,463.003],[179.708,457.974]]]},"junctions":[]},{"type":"Feature","id":"water_029827","properties":{"class":"water"},"geometry":{"type":"Polygon","coordinates":[[[81.398,450.97],[5.949,494.572],[20.933,511.03],[70.127,511.03],[108.051,474.76],[81.398,450.97]]]},"junctions":[]},{"type":"Feature","id":"water_029828","properties":{"class":"water"},"geometry":{"type":"Polygon","coordinates":[[[-0.011,435.981],[-0.011,474.019],[22.011,460.236],[-0.011,435.981]]]},"junctions":[]},{"type":"Feature","id":"water_029829","properties":{"class":"water"},"geometry":{"type":"Polygon","coordinates":[[[77.978,412.247],[77.978,424.712],[100.801,452.024],[122.022,439.987],[90.047,404.976],[77.978,412.247]]]},"junctions":[]},{"type":"Feature","id":"water_029830","properties":{"class":"water"},"geometry":{"type":"Polygon","coordinates":[[[-0.036,388.697],[-0.036,416.306],[52.474,456.037],[72.036,443.723],[18.871,381.963],[-0.036,388.697]]]},"junctions":[]},{"type":"Feature","id":"water_029831","properties":{"class":"water"},"geometry":{"type":"Polygon","coordinates":[[[92.962,403.716],[136.305,450.035],[170.038,424.373],[127.096,379.965],[92.962,403.716]]]},"junctions":[]},{"type":"Feature","id":"water_029832","properties":{"class":"water"},"geometry":{"type":"Polygon","coordinates":[[[28.956,357.778],[65.17,411.036],[118.044,372.098],[97.334,349.354],[71.764,338.964],[28.956,357.778]]]},"junctions":[]},{"type":"Feature","id":"water_029833","properties":{"class":"water"},"geometry":{"type":"Polygon","coordinates":[[[51.335,311.981],[34.981,349.019],[58.647,348.201],[72.019,320.014],[51.335,311.981]]]},"junctions":[]},{"type":"Feature","id":"water_029834","properties":{"class":"water"},"geometry":{"type":"Polygon","coordinates":[[[-0.025,257.954],[-0.025,335.209],[21.655,351.047],[51.026,298.334],[-0.025,257.954]]]},"junctions":[]},{"type":"Feature","id":"water_029835","properties":{"class":"water"},"geometry":{"type":"Polygon","coordinates":[[[193.939,215.978],[242.153,262.034],[288.782,259.382],[316.061,215.536],[283.707,193.966],[193.939,215.978]]]},"junctions":[]},{"type":"Feature","id":"water_029836","properties":{"class":"water"},"geometry":{"type":"Polygon","coordinates":[[[266.99,137.978],[266.99,182.022],[287.01,180.935],[286.516,137.978],[266.99,137.978]]]},"junctions":[]},{"type":"Feature","id":"water_029837","properties":{"class":"water"},"geometry":{"type":"Polygon","coordinates":[[[245.884,131.977],[236.989,152.488],[236.989,174.973],[259.011,178.023],[259.011,136.103],[245.884,131.977]]]},"junctions":[]},{"type":"Feature","id":"water_029838","properties":{"class":"water"},"geometry":{"type":"Polygon","coordinates":[[[247.987,112.992],[247.987,130.008],[274.013,129.876],[274.013,115.644],[247.987,112.992]]]},"junctions":[]},{"type":"Feature","id":"water_029839","properties":{"class":"water"},"geometry":{"type":"Polygon","coordinates":[[[294.953,80.938],[294.953,111.082],[319.76,123.011],[314.872,179.27],[296.786,188.942],[325.259,205.062],[389.047,146.385],[386.481,109.954],[353.487,87.225],[294.953,80.938]]]},"junctions":[]},{"type":"Feature","id":"water_029840","properties":{"class":"water"},"geometry":{"type":"Polygon","coordinates":[[[244.978,41.643],[245.779,96.587],[289.022,111.053],[287.363,11.875],[268.888,3.946],[244.978,41.643]]]},"junctions":[]}]}