{"type":"FeatureCollection","coordinateSystem":{"type":"image-pixel","origin":"top-left","x":"right","y":"down","georeferenced":false},"features":[{"type":"Feature","id":"road_001","properties":{"class":"road"},"geometry":{"type":"MultiLineString","coordinates":[[[22.016,0.0],[12.032,51.968],[0.0,137.984]],[[59.904,0.0],[24.064,253.952]],[[122.112,0.0],[115.968,17.92],[96.0,56.064],[71.936,91.904],[34.048,130.048],[0.0,152.064]],[[142.08,0.0],[196.096,24.064],[238.08,29.952],[253.952,29.952]],[[145.92,0.0],[132.096,58.112],[115.968,143.872]],[[155.904,0.0],[152.064,19.968],[140.032,56.064],[115.968,143.872],[90.112,253.952]],[[0.0,169.984],[49.92,152.064],[110.08,118.016],[162.048,101.888],[253.952,61.952]],[[0.0,179.968],[253.952,76.032]],[[0.0,221.952],[22.016,204.032],[101.888,162.048],[216.064,105.984],[253.952,86.016],[253.952,83.968]],[[253.952,110.08],[211.968,154.112],[186.112,187.904],[162.048,224.0],[145.92,253.952]]]},"junctions":[[31.744,198.912],[36.608,164.864],[37.888,156.416],[42.752,121.344],[112.896,156.672],[115.968,143.872],[118.272,131.584],[119.552,131.072],[121.6,114.432],[124.16,113.664],[145.664,1.536],[154.88,5.632]]}]}