{"type":"FeatureCollection","coordinateSystem":{"type":"image-pixel","origin":"top-left","x":"right","y":"down","georeferenced":false},"features":[{"type":"Feature","id":"road_001","properties":{"class":"road"},"geometry":{"type":"MultiLineString","coordinates":[[[15.872,0.0],[9.984,46.08],[0.0,91.904]],[[56.064,0.0],[49.92,49.92],[46.08,91.904],[36.096,169.984],[26.112,253.952]],[[0.0,100.096],[41.984,81.92],[81.92,68.096],[157.952,48.128],[201.984,37.888],[253.952,37.888]],[[120.064,0.0],[98.048,83.968],[64.0,115.968],[27.904,143.872],[0.0,157.952]],[[0.0,174.08],[64.0,147.968],[103.936,130.048],[186.112,98.048],[253.952,73.984]],[[145.92,0.0],[186.112,15.872],[228.096,24.064],[253.952,24.064]],[[0.0,187.904],[58.112,164.096],[100.096,145.92],[140.032,130.048],[253.952,86.016]],[[0.0,214.016],[100.096,164.096],[140.032,145.92],[253.952,98.048]],[[253.952,110.08],[209.92,164.096],[184.064,197.888],[155.904,253.952]],[[253.952,219.904],[240.128,238.08],[226.048,253.952]]]},"junctions":[[3.072,90.112],[13.824,173.824],[17.408,172.032],[34.56,162.56],[39.168,155.392],[47.872,83.2],[79.616,66.816],[90.88,141.312],[93.44,159.744],[135.936,128.768],[159.488,20.224],[190.72,37.376],[193.536,101.888],[224.256,24.064],[251.392,24.064]]}]}