{"type":"FeatureCollection","coordinateSystem":{"type":"image-pixel","origin":"top-left","x":"right","y":"down","georeferenced":false},"features":[{"type":"Feature","id":"road_001","properties":{"class":"road"},"geometry":{"type":"MultiLineString","coordinates":[[[0.0,24.064],[19.968,26.112],[103.936,48.128],[142.08,64.0],[189.952,79.872],[226.048,101.888],[246.016,128.0],[253.952,133.888]],[[0.0,56.064],[253.952,58.112]],[[0.0,128.0],[48.128,130.048],[253.952,132.096]],[[0.0,157.952],[41.984,140.032],[118.016,93.952],[167.936,68.096],[184.064,36.096],[216.064,0.0]],[[160.0,0.0],[184.064,96.0],[218.112,253.952]],[[184.064,96.0],[226.048,218.112],[240.128,253.952]],[[0.0,218.112],[27.904,231.936],[64.0,253.952]],[[236.032,0.0],[253.952,32.0]]]},"junctions":[[58.368,130.048],[125.44,57.088],[162.56,70.912],[173.312,57.344],[174.08,56.064],[174.336,57.344],[179.2,76.288],[184.064,96.0],[191.744,131.584],[196.352,131.584],[251.392,132.096]]}]}