{"type":"FeatureCollection","coordinateSystem":{"type":"image-pixel","origin":"top-left","x":"right","y":"down","georeferenced":false},"features":[{"type":"Feature","id":"road_001","properties":{"class":"road"},"geometry":{"type":"MultiLineString","coordinates":[[[0.0,19.968],[29.952,24.064],[113.92,34.048],[150.016,34.048],[189.952,36.096],[253.952,37.888]],[[0.0,58.112],[253.952,58.112]],[[0.0,125.952],[46.08,125.952],[90.112,123.904],[253.952,123.904]],[[0.0,140.032],[27.904,137.984],[113.92,135.936],[253.952,135.936]],[[0.0,174.08],[34.048,157.952],[73.984,140.032],[113.92,122.112],[187.904,76.032],[224.0,49.92],[253.952,15.872]],[[165.888,0.0],[165.888,34.048],[165.888,66.048],[162.048,100.096],[147.968,135.936],[135.936,176.128],[135.936,218.112],[147.968,253.952]],[[0.0,214.016],[44.032,238.08],[76.032,253.952]],[[197.888,145.92],[219.904,228.096],[224.0,253.952]],[[209.92,130.048],[209.92,167.936],[219.904,228.096]],[[209.92,167.936],[228.096,201.984],[240.128,238.08],[243.968,253.952]]]},"junctions":[[13.824,137.984],[37.12,137.728],[59.648,137.216],[96.256,136.448],[109.824,125.696],[137.728,135.936],[144.128,58.112],[151.808,34.048],[165.888,34.048],[165.888,58.112],[165.888,123.904],[165.888,135.936],[174.848,72.448],[209.92,130.048],[209.92,167.936],[219.904,228.096]]}]}