{"type":"FeatureCollection","coordinateSystem":{"type":"image-pixel","origin":"top-left","x":"right","y":"down","georeferenced":false},"features":[{"type":"Feature","id":"water_023140","properties":{"class":"water"},"geometry":{"type":"Polygon","coordinates":[[[156.916,344.998],[73.924,511.115],[131.03,511.115],[144.072,487.001],[150.988,492.955],[198.017,367.028],[212.046,358.097],[206.909,339.937],[226.076,281.885],[211.058,308.083],[179.047,311.06],[171.934,327.136],[182.999,339.044],[156.916,344.998]]]},"junctions":[]},{"type":"Feature","id":"water_023141","properties":{"class":"water"},"geometry":{"type":"Polygon","coordinates":[[[386.987,-0.006],[389.015,12.006],[413.013,-0.006],[386.987,-0.006]]]},"junctions":[]},{"type":"Feature","id":"water_023142","properties":{"class":"water"},"geometry":{"type":"Polygon","coordinates":[[[291.955,1.971],[222.925,183.087],[236.965,270.135],[319.06,123.066],[329.005,38.826],[373.075,14.958],[369.955,-0.135],[291.955,1.971]]]},"junctions":[]}]}