{"type":"FeatureCollection","coordinateSystem":{"type":"image-pixel","origin":"top-left","x":"right","y":"down","georeferenced":false},"features":[{"type":"Feature","id":"building_000","properties":{"class":"building"},"geometry":{"type":"Polygon","coordinates":[[[94.845,1010.554],[96.283,1024.01],[164.005,1024.01],[161.759,1003.37],[94.845,1010.554]]]},"junctions":[]},{"type":"Feature","id":"building_001","properties":{"class":"building"},"geometry":{"type":"Polygon","coordinates":[[[258.833,-0.063],[259.233,1.572],[284.835,125.823],[410.447,99.501],[412.847,95.414],[411.647,87.24],[402.246,46.858],[374.844,52.253],[322.839,64.024],[321.439,59.12],[326.239,56.994],[320.039,25.768],[315.238,26.259],[314.238,21.681],[318.838,20.046],[314.238,-0.063],[258.833,-0.063]]]},"junctions":[]},{"type":"Feature","id":"building_010","properties":{"class":"building"},"geometry":{"type":"Polygon","coordinates":[[[-0.023,431.113],[-0.023,442.466],[1.514,442.466],[3.879,464.607],[45.493,460.17],[41.473,436.159],[28.351,437.681],[28.173,436.42],[21.257,437.29],[21.257,438.595],[10.972,439.682],[7.603,438.943],[4.47,437.246],[2.46,434.724],[1.041,431.2],[-0.023,431.113]]]},"junctions":[]},{"type":"Feature","id":"building_011","properties":{"class":"building"},"geometry":{"type":"Polygon","coordinates":[[[265.294,492.593],[265.56,509.38],[316.426,505.959],[315.363,488.96],[265.294,492.593]]]},"junctions":[]},{"type":"Feature","id":"building_012","properties":{"class":"building"},"geometry":{"type":"Polygon","coordinates":[[[137.922,491.942],[138.676,500.535],[154.048,499.174],[153.504,491.345],[137.922,491.942]]]},"junctions":[]},{"type":"Feature","id":"building_013","properties":{"class":"building"},"geometry":{"type":"Polygon","coordinates":[[[250.938,911.491],[251.549,921.356],[275.712,918.906],[275.069,909.104],[250.938,911.491]]]},"junctions":[]},{"type":"Feature","id":"building_014","properties":{"class":"building"},"geometry":{"type":"Polygon","coordinates":[[[346.994,896.358],[347.209,912.379],[358.026,911.955],[357.381,895.221],[346.994,896.358]]]},"junctions":[]},{"type":"Feature","id":"building_015","properties":{"class":"building"},"geometry":{"type":"Polygon","coordinates":[[[394.145,966.129],[399.027,1024.035],[504.705,1024.035],[497.095,954.475],[394.145,966.129]]]},"junctions":[]},{"type":"Feature","id":"building_002","properties":{"class":"building"},"geometry":{"type":"Polygon","coordinates":[[[-0.045,2.819],[-0.045,126.372],[6.133,133.365],[31.779,140.359],[89.715,136.055],[87.733,114.716],[85.751,114.895],[74.444,2.998],[5.551,9.992],[4.968,2.281],[-0.045,2.819]]]},"junctions":[]},{"type":"Feature","id":"building_003","properties":{"class":"building"},"geometry":{"type":"Polygon","coordinates":[[[155.66,145.755],[156.664,157.308],[215.1,152.265],[214.096,140.712],[155.66,145.755]]]},"junctions":[]},{"type":"Feature","id":"building_004","properties":{"class":"building"},"geometry":{"type":"Polygon","coordinates":[[[157.35,173.585],[158.354,185.138],[216.79,180.095],[215.786,168.542],[157.35,173.585]]]},"junctions":[]},{"type":"Feature","id":"building_005","properties":{"class":"building"},"geometry":{"type":"Polygon","coordinates":[[[185.537,63.249],[192.653,74.597],[192.354,85.703],[189.125,96.085],[182.487,101.758],[185.776,131.696],[212.088,116.124],[226.44,96.085],[228.533,71.337],[222.254,52.868],[211.49,38.744],[185.537,63.249]]]},"junctions":[]},{"type":"Feature","id":"building_007","properties":{"class":"building"},"geometry":{"type":"Polygon","coordinates":[[[-0.099,268.458],[-0.099,394.555],[4.278,401.153],[-0.099,402.13],[5.051,416.304],[-0.099,422.169],[4.536,437.32],[56.804,434.388],[55.774,393.089],[46.762,371.095],[45.99,326.13],[40.582,326.374],[40.325,320.021],[93.623,314.889],[104.437,358.876],[126.58,395.288],[161.082,419.725],[184.77,430.722],[198.159,429.012],[192.237,367.674],[164.172,362.297],[154.645,349.346],[148.723,306.58],[160.825,303.159],[156.448,251.596],[-0.099,268.458]]]},"junctions":[]},{"type":"Feature","id":"building_009","properties":{"class":"building"},"geometry":{"type":"Polygon","coordinates":[[[48.262,444.443],[48.262,463.662],[167.846,448.561],[173.523,439.981],[179.556,432.602],[184.878,430.715],[183.991,427.34],[173.701,424.194],[161.103,419.618],[152.942,435.062],[48.262,444.443]]]},"junctions":[]},{"type":"Feature","id":"water_000","properties":{"class":"water"},"geometry":{"type":"Polygon","coordinates":[[[37.135,678.344],[51.321,770.563],[55.19,836.574],[64.647,852.105],[68.086,852.833],[78.404,847.494],[84.852,847.009],[93.02,848.95],[124.831,848.95],[202.64,843.854],[263.684,837.302],[281.309,837.787],[312.69,829.05],[324.727,830.992],[338.913,829.778],[359.548,826.623],[366.856,822.983],[367.286,795.317],[360.407,751.391],[338.913,667.665],[304.952,666.209],[298.074,667.18],[286.897,673.975],[275.29,669.364],[256.375,669.122],[246.918,672.034],[240.47,679.557],[229.723,677.858],[221.985,673.975],[219.405,669.364],[37.135,678.344]]]},"junctions":[]},{"type":"Feature","id":"water_001","properties":{"class":"water"},"geometry":{"type":"Polygon","coordinates":[[[448.955,663.958],[448.252,680.646],[454.93,709.737],[461.081,751.456],[469.868,769.271],[469.516,785.508],[474.788,801.745],[475.14,813.697],[479.885,821.815],[485.859,824.747],[490.253,824.296],[506.245,813.246],[519.952,811.216],[544.73,813.472],[548.948,815.501],[553.341,821.59],[557.207,823.62],[570.388,822.041],[583.568,826.777],[582.865,818.207],[577.768,799.264],[559.141,709.511],[542.622,653.133],[484.805,654.937],[484.805,658.32],[481.993,663.507],[477.951,665.987],[470.043,665.987],[462.311,663.281],[448.955,663.958]]]},"junctions":[]},{"type":"Feature","id":"water_002","properties":{"class":"water"},"geometry":{"type":"Polygon","coordinates":[[[963.139,618.211],[963.06,619.662],[964.089,620.63],[970.503,634.496],[976.441,643.526],[982.301,656.102],[983.805,658.037],[984.122,659.811],[984.914,660.295],[985.152,661.746],[988.081,665.777],[998.771,688.028],[999.88,689.318],[1003.205,697.702],[1004.789,699.314],[1010.569,711.569],[1013.024,714.632],[1015.162,719.631],[1017.062,721.727],[1022.764,733.981],[1024.03,735.432],[1024.03,611.278],[1020.15,615.954],[1018.329,616.921],[1015.954,616.599],[1011.836,614.18],[1006.293,613.697],[987.448,615.793],[969.315,616.115],[964.01,616.921],[963.139,618.211]]]},"junctions":[]},{"type":"Feature","id":"water_003","properties":{"class":"water"},"geometry":{"type":"Polygon","coordinates":[[[694.22,630.932],[740.346,827.268],[741.918,826.503],[746.845,822.168],[749.571,821.913],[752.821,820.129],[761.731,818.089],[766.659,816.304],[771.9,816.049],[774.94,816.814],[771.271,795.65],[732.903,715.841],[731.121,712.016],[729.338,708.446],[727.347,704.367],[724.516,698.502],[723.363,695.952],[721.686,692.383],[718.855,686.773],[713.194,675.809],[712.67,671.219],[710.154,666.629],[709.735,663.315],[707.114,658.725],[706.8,656.175],[699.252,641.896],[698.832,640.366],[697.574,638.581],[694.22,630.932]]]},"junctions":[]},{"type":"Feature","id":"water_004","properties":{"class":"water"},"geometry":{"type":"Polygon","coordinates":[[[812.283,575.206],[810.316,579.095],[809.848,582.515],[809.146,583.541],[809.005,589.012],[808.162,589.311],[807.132,592.944],[807.413,600.339],[808.724,602.946],[843.188,599.869],[838.459,598.886],[832.98,596.022],[827.97,590.251],[825.113,583.626],[822.819,574.393],[821.414,571.487],[819.588,570.162],[818.042,570.034],[816.45,570.846],[812.283,575.206]]]},"junctions":[]},{"type":"Feature","id":"water_005","properties":{"class":"water"},"geometry":{"type":"Polygon","coordinates":[[[801.275,627.008],[887.948,810.159],[888.611,807.576],[889.938,806.285],[896.129,803.185],[905.636,800.085],[911.164,799.31],[921.998,799.826],[923.103,799.051],[929.515,798.793],[942.339,794.143],[948.309,793.885],[953.395,791.302],[963.344,791.043],[968.208,792.335],[971.525,794.918],[874.903,611.251],[875.787,615.384],[874.46,622.1],[870.481,623.65],[864.511,623.134],[852.792,617.709],[851.023,614.867],[852.571,612.542],[815.868,614.867],[814.541,625.458],[811.004,630.108],[809.456,630.883],[805.697,630.625],[803.486,629.592],[801.275,627.008]]]},"junctions":[]},{"type":"Feature","id":"road_network","properties":{"class":"road","topologyMode":"stitched-graph"},"geometry":{"type":"MultiLineString","coordinates":[[[97,0],[110,129]],[[231,0],[255,127],[261,159]],[[420,0],[448,127],[457,171]],[[449,0],[478,127],[493,190]],[[703,0],[727,129]],[[735,0],[745,70],[758,127],[785,240]],[[103,64],[106,85],[110,129]],[[243,64],[261,159]],[[434,64],[457,171]],[[464,64],[487,166],[493,190]],[[715,64],[727,129]],[[744,64],[773,192],[785,240]],[[828,64],[853,163]],[[110,129],[115,173]],[[727,129],[745,191],[767,276]],[[727,129],[762,255],[767,276]],[[406,151],[328,152]],[[406,151],[383,152],[328,152]],[[406,151],[417,158],[430,174]],[[328,152],[261,159]],[[319,153],[261,159]],[[255,159],[128,171]],[[261,159],[191,165],[115,173]],[[853,163],[831,80],[816,0],[825,50],[844,128],[853,163]],[[853,163],[862,191]],[[853,163],[882,255],[889,279]],[[768,169],[785,240]],[[457,171],[430,174]],[[457,171],[464,194]],[[447,172],[430,174]],[[115,173],[64,178]],[[115,173],[9,183],[0,179]],[[430,174],[384,178],[255,188],[127,197],[0,208]],[[430,174],[320,183],[191,193],[140,196],[64,202]],[[493,190],[499,209],[511,255],[526,310]],[[493,190],[526,310]],[[862,191],[889,279]],[[862,191],[895,298],[916,354]],[[464,194],[453,197]],[[464,194],[424,201]],[[464,194],[472,215]],[[447,197],[424,201]],[[424,201],[383,204],[255,217],[193,225]],[[424,201],[360,206],[319,210],[193,225]],[[472,215],[484,255]],[[472,215],[503,319],[537,439]],[[193,225],[127,234],[42,247],[0,252]],[[193,225],[64,243]],[[193,225],[197,255]],[[193,225],[198,265]],[[785,240],[790,255],[832,383],[839,404]],[[785,240],[811,319],[839,404]],[[484,255],[511,352]],[[484,255],[521,384],[537,439]],[[767,276],[782,320],[812,413]],[[767,276],[803,383],[812,413]],[[889,279],[904,320],[916,354]],[[889,279],[916,354]],[[526,310],[550,383],[560,414]],[[530,320],[570,447],[589,510]],[[916,354],[929,383]],[[916,354],[955,448]],[[929,383],[955,448]],[[929,383],[959,456]],[[839,404],[857,447]],[[839,404],[883,511],[917,593]],[[812,413],[827,447],[880,575]],[[812,413],[831,460],[880,575]],[[812,413],[854,512],[888,594]],[[560,414],[575,468]],[[560,414],[589,510]],[[537,439],[522,443],[447,454],[409,461]],[[537,439],[559,511],[570,552]],[[511,444],[409,461]],[[409,447],[409,429],[409,461]],[[857,447],[895,543],[917,593]],[[857,447],[910,576],[917,593]],[[540,448],[553,491]],[[955,448],[980,479],[1004,496],[1023,500]],[[409,461],[383,463],[270,476],[319,470],[409,461]],[[553,491],[570,552]],[[553,491],[576,575],[590,629]],[[589,510],[606,575]],[[589,510],[608,580]],[[570,552],[590,629]],[[880,575],[888,594]],[[608,580],[617,629],[624,680]],[[608,580],[619,639],[624,680]],[[917,593],[942,639],[1011,767],[1023,792],[977,703],[917,593]],[[917,593],[959,673]],[[888,594],[912,640]],[[888,594],[946,703]],[[896,609],[946,703]],[[590,629],[603,705]],[[592,640],[603,705]],[[912,640],[959,730]],[[912,640],[980,767],[1008,819],[1023,850],[1014,831],[946,703]],[[624,680],[626,703],[630,759]],[[624,680],[630,759]],[[603,705],[606,737],[617,831],[623,884]],[[603,705],[610,767],[623,884]],[[630,759],[626,832],[623,884]],[[630,768],[623,884]],[[623,884],[632,959]],[[624,896],[639,1023]],[[490,936],[447,940],[383,946]],[[490,936],[511,943]],[[490,936],[518,945],[537,961]],[[490,936],[383,946]],[[383,946],[352,951]],[[352,951],[322,955]],[[352,951],[360,1023]],[[322,955],[255,962],[177,971]],[[322,955],[191,969],[177,971]],[[7,959],[0,895],[7,967],[10,988]],[[537,961],[575,1016]],[[537,961],[581,1023]],[[177,971],[127,975],[10,988]],[[177,971],[64,982]],[[177,971],[184,1023]],[[10,988],[0,989]],[[10,988],[8,1018],[9,1023]]]},"junctions":[[110,129],[727,129],[406,151],[328,152],[261,159],[853,163],[457,171],[115,173],[430,174],[493,190],[862,191],[464,194],[424,201],[472,215],[193,225],[785,240],[484,255],[767,276],[889,279],[526,310],[916,354],[929,383],[839,404],[812,413],[560,414],[537,439],[857,447],[955,448],[409,461],[553,491],[589,510],[570,552],[880,575],[608,580],[917,593],[888,594],[590,629],[912,640],[624,680],[946,703],[603,705],[630,759],[623,884],[490,936],[383,946],[352,951],[322,955],[537,961],[177,971],[10,988]]}]}