{"type":"FeatureCollection","coordinateSystem":{"type":"image-pixel","origin":"top-left","x":"right","y":"down","georeferenced":false},"features":[{"type":"Feature","id":"building_000","properties":{"class":"building"},"geometry":{"type":"Polygon","coordinates":[[[94.845,1011.68],[96.193,1024.01],[164.005,1024.01],[161.669,1003.37],[94.845,1011.68]]]},"junctions":[]},{"type":"Feature","id":"building_001","properties":{"class":"building"},"geometry":{"type":"Polygon","coordinates":[[[258.833,-0.063],[275.435,78.248],[292.436,73.67],[300.637,104.242],[280.635,109.801],[284.035,125.823],[412.847,102.771],[404.446,44.406],[327.039,60.101],[325.839,53.398],[322.639,54.215],[316.038,21.354],[319.639,20.373],[316.238,-0.063],[258.833,-0.063]]]},"junctions":[]},{"type":"Feature","id":"building_010","properties":{"class":"building"},"geometry":{"type":"Polygon","coordinates":[[[-0.023,439.987],[-0.023,441.422],[2.933,464.607],[45.493,458.995],[42.242,431.113],[13.691,434.985],[14.105,439.291],[-0.023,439.987]]]},"junctions":[]},{"type":"Feature","id":"building_011","properties":{"class":"building"},"geometry":{"type":"Polygon","coordinates":[[[265.294,493.548],[265.892,509.38],[316.426,504.792],[315.828,488.96],[265.294,493.548]]]},"junctions":[]},{"type":"Feature","id":"building_012","properties":{"class":"building"},"geometry":{"type":"Polygon","coordinates":[[[137.922,493.1],[138.173,500.535],[154.048,499.293],[153.86,491.345],[137.922,493.1]]]},"junctions":[]},{"type":"Feature","id":"building_013","properties":{"class":"building"},"geometry":{"type":"Polygon","coordinates":[[[250.938,910.25],[251.324,921.356],[275.712,920.21],[275.326,909.104],[250.938,910.25]]]},"junctions":[]},{"type":"Feature","id":"building_014","properties":{"class":"building"},"geometry":{"type":"Polygon","coordinates":[[[346.994,895.979],[347.754,912.379],[358.026,911.621],[357.266,895.221],[346.994,895.979]]]},"junctions":[]},{"type":"Feature","id":"building_015","properties":{"class":"building"},"geometry":{"type":"Polygon","coordinates":[[[394.145,965.767],[401.468,1024.035],[504.705,1024.035],[496.377,954.475],[394.145,965.767]]]},"junctions":[]},{"type":"Feature","id":"building_002","properties":{"class":"building"},"geometry":{"type":"Polygon","coordinates":[[[5.784,7.481],[7.299,25.772],[-0.045,26.489],[-0.045,122.606],[2.17,128.882],[13.711,132.827],[30.147,140.359],[89.715,139.104],[89.249,115.254],[84.935,115.254],[74.094,2.281],[5.784,7.481]]]},"junctions":[]},{"type":"Feature","id":"building_003","properties":{"class":"building"},"geometry":{"type":"Polygon","coordinates":[[[155.66,145.195],[157.436,157.308],[215.1,152.825],[213.324,140.712],[155.66,145.195]]]},"junctions":[]},{"type":"Feature","id":"building_004","properties":{"class":"building"},"geometry":{"type":"Polygon","coordinates":[[[157.35,171.559],[158.199,185.138],[216.79,182.121],[215.941,168.542],[157.35,171.559]]]},"junctions":[]},{"type":"Feature","id":"building_005","properties":{"class":"building"},"geometry":{"type":"Polygon","coordinates":[[[187.092,62.042],[191.696,94.032],[182.487,101.758],[184.341,131.696],[191.696,130.248],[210.473,119.262],[216.154,117.935],[220.101,111.054],[223.988,102.362],[227.217,89.324],[228.533,79.908],[227.875,72.424],[225.184,62.887],[221.417,53.954],[217.53,46.832],[213.523,40.192],[211.251,38.744],[187.092,62.042]]]},"junctions":[]},{"type":"Feature","id":"building_007","properties":{"class":"building"},"geometry":{"type":"Polygon","coordinates":[[[-0.099,265.77],[-0.099,439.764],[45.732,438.786],[45.732,428.523],[55.001,428.523],[55.001,421.68],[61.696,421.68],[61.696,414.593],[68.648,414.593],[68.648,401.886],[49.594,401.886],[49.594,389.423],[42.642,389.423],[42.642,376.96],[35.948,376.96],[35.948,359.609],[29.253,359.609],[29.253,344.947],[10.2,344.947],[10.2,351.789],[3.506,351.789],[3.506,358.632],[10.2,358.632],[10.2,351.789],[3.506,351.789],[3.506,344.947],[10.2,344.947],[10.2,338.104],[3.506,338.104],[3.506,331.262],[10.2,331.262],[10.2,324.419],[3.506,324.419],[3.506,317.577],[10.2,317.577],[10.2,310.735],[3.506,310.735],[3.506,303.892],[10.2,303.892],[10.2,292.162],[3.506,292.162],[3.506,285.32],[10.2,285.32],[10.2,278.477],[3.506,278.477],[3.506,276.767],[10.2,276.767],[10.2,269.924],[3.506,269.924],[3.506,265.77],[-0.099,265.77]]]},"junctions":[]},{"type":"Feature","id":"building_009","properties":{"class":"building"},"geometry":{"type":"Polygon","coordinates":[[[48.262,445.186],[48.794,463.662],[167.491,448.39],[184.878,429.342],[163.233,419.618],[159.861,435.52],[48.262,445.186]]]},"junctions":[]},{"type":"Feature","id":"water_000","properties":{"class":"water"},"geometry":{"type":"Polygon","coordinates":[[[37.135,682.712],[61.208,852.833],[368.145,814.489],[334.614,665.967],[37.135,682.712]]]},"junctions":[]},{"type":"Feature","id":"water_001","properties":{"class":"water"},"geometry":{"type":"Polygon","coordinates":[[[448.252,662.379],[479.885,806.481],[507.826,805.579],[506.245,824.522],[568.982,826.777],[583.568,816.854],[581.283,797.235],[571.442,774.684],[539.458,653.133],[448.252,662.379]]]},"junctions":[]},{"type":"Feature","id":"water_002","properties":{"class":"water"},"geometry":{"type":"Polygon","coordinates":[[[963.06,616.115],[1024.03,735.432],[1024.03,611.278],[963.06,616.115]]]},"junctions":[]},{"type":"Feature","id":"water_003","properties":{"class":"water"},"geometry":{"type":"Polygon","coordinates":[[[694.22,630.932],[741.499,827.268],[774.94,817.324],[694.22,630.932]]]},"junctions":[]},{"type":"Feature","id":"water_004","properties":{"class":"water"},"geometry":{"type":"Polygon","coordinates":[[[807.132,571.872],[813.266,602.946],[843.188,601.707],[838.552,570.034],[807.132,571.872]]]},"junctions":[]},{"type":"Feature","id":"water_005","properties":{"class":"water"},"geometry":{"type":"Polygon","coordinates":[[[801.275,621.584],[887.063,810.159],[971.525,801.376],[883.083,626.75],[846.38,611.251],[801.275,621.584]]]},"junctions":[]},{"type":"Feature","id":"road_network","properties":{"class":"road","topologyMode":"stitched-graph"},"geometry":{"type":"MultiLineString","coordinates":[[[97,0],[110,127]],[[227,0],[254,127],[252,105],[233,0]],[[544,0],[575,127]],[[702,0],[708,37],[730,128],[761,255],[803,384]],[[817,0],[823,28],[842,105],[848,127]],[[241,64],[257,161]],[[712,64],[742,191],[780,320]],[[744,64],[748,89],[771,192],[809,319],[833,389],[856,448]],[[434,67],[420,0],[450,127]],[[434,67],[430,73],[424,79]],[[434,67],[450,127]],[[434,67],[456,163]],[[832,77],[861,192]],[[450,127],[477,169]],[[450,127],[470,195]],[[479,127],[449,1],[475,103],[479,127]],[[479,127],[487,156],[507,234],[511,255],[545,384]],[[755,127],[733,0],[741,52],[761,127],[791,256]],[[112,147],[103,64],[115,174]],[[319,157],[357,152],[407,152],[427,161]],[[319,157],[337,156],[375,152],[398,152],[412,155],[427,161]],[[319,157],[257,161]],[[319,157],[192,166]],[[257,161],[383,152],[407,158],[427,161]],[[257,161],[192,166]],[[257,161],[257,190]],[[427,161],[456,163]],[[427,161],[447,166]],[[427,161],[364,172],[320,178]],[[427,161],[447,185],[320,197]],[[456,163],[484,164]],[[456,163],[462,193]],[[484,164],[462,64],[480,134],[488,174],[489,191]],[[484,164],[489,191]],[[192,166],[115,174]],[[477,169],[383,175],[257,190]],[[477,169],[499,255],[493,256]],[[115,174],[64,180],[64,187],[191,174]],[[257,190],[193,196]],[[489,191],[524,320]],[[481,192],[511,298]],[[861,192],[876,247],[903,320]],[[861,192],[895,300],[927,383]],[[462,193],[470,195]],[[462,193],[448,198]],[[470,195],[487,255],[493,256]],[[470,195],[506,319],[543,447]],[[193,196],[128,205],[127,199]],[[193,196],[64,208]],[[127,199],[127,190],[0,202]],[[127,199],[0,216]],[[383,207],[255,218]],[[319,209],[192,222],[64,244]],[[255,218],[199,224]],[[255,218],[151,230],[128,233]],[[199,224],[128,233]],[[199,224],[201,255]],[[128,233],[0,248]],[[880,255],[841,128],[865,213],[880,255]],[[880,255],[888,286]],[[172,256],[173,308],[176,318],[182,320],[230,318]],[[222,256],[230,318]],[[229,256],[230,318]],[[493,256],[523,361],[530,383],[522,384],[539,440]],[[605,256],[639,374]],[[791,256],[798,289],[831,382]],[[791,256],[831,382]],[[869,256],[891,325]],[[915,256],[888,286]],[[888,286],[897,307],[914,347],[927,383]],[[768,288],[796,383]],[[255,315],[237,316],[230,318]],[[230,318],[220,319],[192,320]],[[524,320],[558,423]],[[524,320],[559,447]],[[780,320],[798,366],[825,447]],[[780,320],[825,447]],[[903,320],[917,354],[939,414],[953,447]],[[903,320],[927,383]],[[512,356],[530,421],[543,447]],[[831,382],[881,511]],[[927,383],[936,409]],[[927,383],[941,423]],[[516,384],[542,460]],[[545,384],[562,452]],[[545,384],[588,511],[609,591],[618,639]],[[803,384],[831,464]],[[803,384],[850,512]],[[961,386],[936,409]],[[832,397],[881,511]],[[936,409],[947,439],[961,465]],[[558,423],[543,447]],[[558,423],[567,447],[605,575]],[[941,423],[953,447]],[[941,423],[959,460]],[[539,440],[511,447],[383,462],[254,479]],[[539,440],[561,511]],[[543,447],[575,545]],[[543,447],[581,549],[587,575]],[[825,447],[850,512]],[[953,447],[961,465]],[[251,448],[254,479]],[[856,448],[875,501],[895,544],[896,552],[946,639],[954,656],[1005,750],[1016,767],[1023,786],[979,704],[974,703],[924,595],[915,576],[959,665]],[[856,448],[908,575]],[[944,448],[951,467],[958,484],[969,499],[987,508],[1023,517]],[[668,449],[703,543]],[[542,460],[447,455],[396,460],[339,467],[319,471]],[[542,460],[561,511]],[[413,461],[328,472]],[[961,465],[974,478],[990,488],[1009,494],[1023,497]],[[961,465],[979,491],[1002,502]],[[319,471],[254,479]],[[319,471],[192,487],[254,479]],[[576,475],[594,534],[605,575]],[[254,479],[256,513]],[[832,479],[878,575]],[[561,511],[573,551],[593,640]],[[881,511],[907,565],[937,626]],[[520,512],[547,639]],[[576,512],[606,601],[618,639]],[[850,512],[873,565],[911,640]],[[850,512],[878,575]],[[856,512],[873,553],[895,600],[896,611],[944,703]],[[447,514],[320,527]],[[514,530],[536,608],[547,639]],[[605,575],[611,608],[627,703],[632,744],[633,767]],[[605,575],[625,674]],[[878,575],[908,634],[944,703]],[[530,576],[542,622],[561,682],[566,703]],[[547,639],[579,767]],[[618,639],[625,674]],[[593,640],[600,677],[613,767]],[[593,640],[610,728],[613,767]],[[911,640],[934,687],[976,767],[983,768],[1023,842]],[[911,640],[959,733]],[[625,674],[630,713],[633,767]],[[625,674],[631,736]],[[604,703],[595,649],[577,576],[585,600],[603,685],[604,703]],[[604,703],[610,738],[617,831]],[[604,703],[611,749],[617,831]],[[944,703],[1023,831]],[[613,767],[620,846],[623,895],[621,865],[613,767]],[[633,767],[636,786],[644,895]],[[633,767],[629,831]],[[585,797],[596,860],[598,895]],[[617,831],[630,940],[631,959],[617,831]],[[640,832],[642,865],[644,919]],[[0,895],[8,959]],[[632,896],[637,937]],[[644,919],[665,917],[687,914],[703,911],[703,919],[637,937]],[[644,919],[646,940],[647,959]],[[0,923],[15,983]],[[489,935],[506,936],[516,942]],[[489,935],[448,939]],[[489,935],[511,940]],[[489,935],[384,951]],[[497,936],[473,938],[448,939]],[[497,936],[516,942]],[[497,936],[384,951]],[[637,937],[642,1023]],[[448,939],[347,952]],[[516,942],[526,950]],[[526,950],[545,978]],[[526,950],[573,1023],[545,978]],[[384,951],[352,956]],[[347,952],[319,955],[192,969]],[[347,952],[356,1023],[352,956]],[[352,956],[256,964]],[[575,965],[545,978]],[[191,979],[64,989]],[[15,983],[0,986]],[[15,983],[22,1023]],[[128,995],[178,991],[184,1023]]]},"junctions":[[434,67],[450,127],[479,127],[319,157],[257,161],[427,161],[456,163],[484,164],[192,166],[477,169],[115,174],[257,190],[489,191],[861,192],[462,193],[470,195],[193,196],[127,199],[255,218],[199,224],[128,233],[880,255],[493,256],[791,256],[888,286],[230,318],[524,320],[780,320],[903,320],[831,382],[927,383],[545,384],[803,384],[936,409],[558,423],[941,423],[539,440],[543,447],[825,447],[953,447],[856,448],[542,460],[961,465],[319,471],[254,479],[561,511],[881,511],[850,512],[605,575],[878,575],[547,639],[618,639],[593,640],[911,640],[625,674],[604,703],[944,703],[613,767],[633,767],[617,831],[644,919],[489,935],[497,936],[637,937],[448,939],[516,942],[526,950],[384,951],[347,952],[352,956],[545,978],[15,983]]}]}