{"type":"FeatureCollection","coordinateSystem":{"type":"image-pixel","origin":"top-left","x":"right","y":"down","georeferenced":false},"features":[{"type":"Feature","id":"building_000","properties":{"class":"building"},"geometry":{"type":"Polygon","coordinates":[[[351.176,913.373],[334.811,940.304],[337.149,956.386],[347.923,957.839],[351.989,969.561],[367.44,968.398],[401.593,987.967],[413.079,968.398],[402.101,957.354],[386.244,941.564],[384.923,940.304],[385.736,934.589],[367.643,923.545],[351.176,913.373]]]},"junctions":[]},{"type":"Feature","id":"building_010","properties":{"class":"building"},"geometry":{"type":"Polygon","coordinates":[[[279.03,1021.729],[279.107,1024.001],[338.12,1024.001],[338.043,1022.357],[306.35,1022.139],[279.03,1021.729]]]},"junctions":[]},{"type":"Feature","id":"building_100","properties":{"class":"building"},"geometry":{"type":"Polygon","coordinates":[[[783.059,616.159],[775.75,631.892],[788.272,637.831],[796.44,620.156],[783.059,616.159]]]},"junctions":[]},{"type":"Feature","id":"building_101","properties":{"class":"building"},"geometry":{"type":"Polygon","coordinates":[[[765.501,598.964],[755.124,622.152],[775.754,631.906],[783.06,616.162],[787.086,607.52],[765.501,598.964]]]},"junctions":[]},{"type":"Feature","id":"building_102","properties":{"class":"building"},"geometry":{"type":"Polygon","coordinates":[[[624.424,596.187],[622.351,597.345],[611.693,604.177],[621.315,634.055],[676.827,599.892],[686.449,616.221],[701.696,593.755],[700.216,585.185],[725.677,556.582],[719.016,553.918],[697.551,544.885],[689.409,559.129],[624.424,596.187]]]},"junctions":[]},{"type":"Feature","id":"building_103","properties":{"class":"building"},"geometry":{"type":"Polygon","coordinates":[[[869.139,579.63],[862.206,588.232],[882.793,599.11],[889.304,590.837],[869.139,579.63]]]},"junctions":[]},{"type":"Feature","id":"building_104","properties":{"class":"building"},"geometry":{"type":"Polygon","coordinates":[[[897.07,533.101],[863.6,576.607],[869.128,579.607],[889.317,590.859],[922.71,549.678],[897.07,533.101]]]},"junctions":[]},{"type":"Feature","id":"building_105","properties":{"class":"building"},"geometry":{"type":"Polygon","coordinates":[[[680.274,438.458],[697.07,462.976],[718.511,513.334],[718.988,553.883],[725.659,556.713],[744.479,538.795],[763.3,548.414],[769.971,532.76],[757.225,504.281],[771.996,494.096],[720.536,411.487],[680.274,438.458]]]},"junctions":[]},{"type":"Feature","id":"building_106","properties":{"class":"building"},"geometry":{"type":"Polygon","coordinates":[[[801.953,317.933],[803.353,362.815],[805.353,388.067],[947.928,337.563],[945.129,319.172],[951.928,318.41],[955.927,320.125],[949.528,314.693],[801.953,317.933]]]},"junctions":[]},{"type":"Feature","id":"building_107","properties":{"class":"building"},"geometry":{"type":"Polygon","coordinates":[[[1001.113,318.919],[989.045,339.564],[1002.896,340.401],[1010.22,337.137],[1018.265,327.958],[1001.113,318.919]]]},"junctions":[]},{"type":"Feature","id":"building_108","properties":{"class":"building"},"geometry":{"type":"Polygon","coordinates":[[[787.472,294.831],[788.298,363.635],[803.368,362.82],[801.324,293.925],[787.472,294.831]]]},"junctions":[]},{"type":"Feature","id":"building_109","properties":{"class":"building"},"geometry":{"type":"Polygon","coordinates":[[[764.67,292.644],[768.328,364.446],[784.23,363.98],[782.629,295.069],[782.604,293.11],[764.67,292.644]]]},"junctions":[]},{"type":"Feature","id":"building_110","properties":{"class":"building"},"geometry":{"type":"Polygon","coordinates":[[[503.636,490.495],[506.368,530.367],[550.989,514.404],[591.284,499.139],[582.633,476.693],[568.86,485.894],[503.636,490.495]]]},"junctions":[]},{"type":"Feature","id":"building_111","properties":{"class":"building"},"geometry":{"type":"Polygon","coordinates":[[[412.055,449.73],[410.5,470.62],[469.048,469.589],[470.37,449.73],[412.055,449.73]]]},"junctions":[]},{"type":"Feature","id":"building_112","properties":{"class":"building"},"geometry":{"type":"Polygon","coordinates":[[[410.26,437.748],[412.042,449.746],[470.336,449.746],[490.99,449.746],[490.466,437.004],[410.26,437.748]]]},"junctions":[]},{"type":"Feature","id":"building_113","properties":{"class":"building"},"geometry":{"type":"Polygon","coordinates":[[[578.441,443.109],[603.901,482.885],[716.499,405.63],[693.549,372.315],[578.441,443.109]]]},"junctions":[]},{"type":"Feature","id":"building_114","properties":{"class":"building"},"geometry":{"type":"Polygon","coordinates":[[[360.811,415.181],[361.629,433.979],[409.613,433.345],[439.078,432.954],[439.589,415.644],[430.893,415.596],[360.811,415.181]]]},"junctions":[]},{"type":"Feature","id":"building_115","properties":{"class":"building"},"geometry":{"type":"Polygon","coordinates":[[[446.371,415.421],[447.189,432.439],[523.566,431.42],[525.099,414.611],[446.371,415.421]]]},"junctions":[]},{"type":"Feature","id":"building_116","properties":{"class":"building"},"geometry":{"type":"Polygon","coordinates":[[[359.479,395.154],[360.638,410.559],[440.601,411.069],[438.493,393.231],[359.479,395.154]]]},"junctions":[]},{"type":"Feature","id":"building_117","properties":{"class":"building"},"geometry":{"type":"Polygon","coordinates":[[[447.63,392.951],[446.121,410.034],[522.462,410.55],[523.569,390.68],[461.208,392.564],[447.63,392.951]]]},"junctions":[]},{"type":"Feature","id":"building_118","properties":{"class":"building"},"geometry":{"type":"Polygon","coordinates":[[[459.898,364.214],[460.87,385.101],[484.862,385.101],[483.566,363.249],[459.898,364.214]]]},"junctions":[]},{"type":"Feature","id":"building_119","properties":{"class":"building"},"geometry":{"type":"Polygon","coordinates":[[[483.554,363.273],[484.83,385.102],[535.266,385.102],[535.266,361.158],[483.554,363.273]]]},"junctions":[]},{"type":"Feature","id":"building_012","properties":{"class":"building"},"geometry":{"type":"Polygon","coordinates":[[[306.311,999.325],[306.311,1022.148],[338.023,1022.371],[365.009,1022.562],[362.494,1003.054],[338.481,1003.405],[338.328,998.018],[306.311,999.325]]]},"junctions":[]},{"type":"Feature","id":"building_120","properties":{"class":"building"},"geometry":{"type":"Polygon","coordinates":[[[1005.375,804.842],[994.954,820.148],[993.735,821.798],[1000.263,829.542],[1023.071,840.128],[1024.015,838.066],[1024.015,815.84],[1005.375,804.842]]]},"junctions":[]},{"type":"Feature","id":"building_121","properties":{"class":"building"},"geometry":{"type":"Polygon","coordinates":[[[1001.079,318.945],[1018.234,327.994],[1024.011,321.407],[1024.011,280.966],[1023.416,280.596],[1001.079,318.945]]]},"junctions":[]},{"type":"Feature","id":"building_123","properties":{"class":"building"},"geometry":{"type":"Polygon","coordinates":[[[105.052,779.581],[118.81,834.616],[135.82,829.149],[200.858,808.581],[201.358,802.002],[188.601,783.658],[177.844,763.274],[105.052,779.581]]]},"junctions":[]},{"type":"Feature","id":"building_124","properties":{"class":"building"},"geometry":{"type":"Polygon","coordinates":[[[231.092,757.469],[236.475,791.842],[286.358,780.615],[277.673,747.508],[239.992,755.684],[236.978,756.202],[231.092,757.469]]]},"junctions":[]},{"type":"Feature","id":"building_125","properties":{"class":"building"},"geometry":{"type":"Polygon","coordinates":[[[183.353,695.534],[197.209,764.868],[231.118,757.475],[236.967,756.177],[236.062,751.781],[222.902,687.942],[183.353,695.534]]]},"junctions":[]},{"type":"Feature","id":"building_126","properties":{"class":"building"},"geometry":{"type":"Polygon","coordinates":[[[77.491,686.046],[97.43,764.378],[175.909,749.033],[157.504,669.092],[77.491,686.046]]]},"junctions":[]},{"type":"Feature","id":"building_127","properties":{"class":"building"},"geometry":{"type":"Polygon","coordinates":[[[261.36,689.508],[276.637,736.356],[301.1,729.683],[290.778,683.924],[261.36,689.508]]]},"junctions":[]},{"type":"Feature","id":"building_128","properties":{"class":"building"},"geometry":{"type":"Polygon","coordinates":[[[169.223,624.855],[183.387,695.58],[222.947,687.954],[207.946,615.14],[169.223,624.855]]]},"junctions":[]},{"type":"Feature","id":"building_129","properties":{"class":"building"},"geometry":{"type":"Polygon","coordinates":[[[263.389,607.064],[276.664,665.094],[325.341,654.108],[313.755,596.876],[263.389,607.064]]]},"junctions":[]},{"type":"Feature","id":"building_013","properties":{"class":"building"},"geometry":{"type":"Polygon","coordinates":[[[257.068,994.368],[255.423,1012.785],[288.022,1018.082],[289.667,1000.158],[257.068,994.368]]]},"junctions":[]},{"type":"Feature","id":"building_130","properties":{"class":"building"},"geometry":{"type":"Polygon","coordinates":[[[55.299,590.733],[70.95,671.226],[156.571,653.379],[139.078,597.8],[133.16,578.994],[55.299,590.733]]]},"junctions":[]},{"type":"Feature","id":"building_131","properties":{"class":"building"},"geometry":{"type":"Polygon","coordinates":[[[313.68,596.87],[325.35,654.135],[393.2,638.852],[381.427,583.245],[313.68,596.87]]]},"junctions":[]},{"type":"Feature","id":"building_132","properties":{"class":"building"},"geometry":{"type":"Polygon","coordinates":[[[160.472,594.09],[169.205,624.87],[207.929,615.187],[215.588,613.658],[209.432,585.63],[160.472,594.09]]]},"junctions":[]},{"type":"Feature","id":"building_133","properties":{"class":"building"},"geometry":{"type":"Polygon","coordinates":[[[262.204,545.439],[273.1,586.693],[293.276,582.057],[281.573,541.507],[262.204,545.439]]]},"junctions":[]},{"type":"Feature","id":"building_134","properties":{"class":"building"},"geometry":{"type":"Polygon","coordinates":[[[281.557,541.536],[293.288,582.056],[347.973,569.481],[334.431,530.824],[281.557,541.536]]]},"junctions":[]},{"type":"Feature","id":"building_135","properties":{"class":"building"},"geometry":{"type":"Polygon","coordinates":[[[43.427,522.897],[55.16,575.501],[119.424,562.21],[163.689,573.98],[214.087,561.729],[248.753,562.21],[241.553,530.663],[156.49,529.622],[103.958,513.849],[43.427,522.897]]]},"junctions":[]},{"type":"Feature","id":"building_136","properties":{"class":"building"},"geometry":{"type":"Polygon","coordinates":[[[142.747,425.751],[132.071,502.194],[163.665,504.759],[163.665,488.958],[169.269,427.803],[142.747,425.751]]]},"junctions":[]},{"type":"Feature","id":"building_137","properties":{"class":"building"},"geometry":{"type":"Polygon","coordinates":[[[15.795,424.656],[11.885,477.708],[12.395,492.996],[132.085,502.209],[142.795,425.77],[123.414,424.251],[15.795,424.656]]]},"junctions":[]},{"type":"Feature","id":"building_138","properties":{"class":"building"},"geometry":{"type":"Polygon","coordinates":[[[172.832,416.605],[169.333,427.903],[163.571,488.931],[314.424,506.285],[315.042,498.714],[322.039,436.521],[181.476,418.119],[172.832,416.605]]]},"junctions":[]},{"type":"Feature","id":"building_139","properties":{"class":"building"},"geometry":{"type":"Polygon","coordinates":[[[336.329,419.686],[336.716,500.18],[357.601,499.128],[356.054,419.16],[336.329,419.686]]]},"junctions":[]},{"type":"Feature","id":"building_014","properties":{"class":"building"},"geometry":{"type":"Polygon","coordinates":[[[133.208,976.259],[127.547,1007.89],[171.562,1017.681],[174.423,984.275],[133.208,976.259]]]},"junctions":[]},{"type":"Feature","id":"building_140","properties":{"class":"building"},"geometry":{"type":"Polygon","coordinates":[[[319.926,392.676],[320.067,396.167],[321.946,436.521],[315.129,498.797],[336.731,500.194],[336.338,419.765],[336.226,395.748],[336.198,392.676],[319.926,392.676]]]},"junctions":[]},{"type":"Feature","id":"building_141","properties":{"class":"building"},"geometry":{"type":"Polygon","coordinates":[[[118.816,377.435],[121.368,402.917],[123.393,424.272],[169.246,427.875],[172.766,416.673],[181.479,418.18],[186.584,386.606],[118.816,377.435]]]},"junctions":[]},{"type":"Feature","id":"building_142","properties":{"class":"building"},"geometry":{"type":"Polygon","coordinates":[[[68.327,345.465],[67.912,355.976],[84.728,356.285],[84.423,345.9],[68.327,345.465]]]},"junctions":[]},{"type":"Feature","id":"building_144","properties":{"class":"building"},"geometry":{"type":"Polygon","coordinates":[[[-0.009,399.151],[-0.009,478.069],[11.962,477.762],[17.549,399.766],[-0.009,399.151]]]},"junctions":[]},{"type":"Feature","id":"building_145","properties":{"class":"building"},"geometry":{"type":"Polygon","coordinates":[[[17.526,399.718],[15.706,424.652],[123.494,424.296],[121.394,402.923],[17.526,399.718]]]},"junctions":[]},{"type":"Feature","id":"building_146","properties":{"class":"building"},"geometry":{"type":"Polygon","coordinates":[[[22.397,340.848],[23.296,352.859],[23.536,356.208],[67.894,355.974],[68.313,345.478],[68.553,339.782],[22.397,340.848]]]},"junctions":[]},{"type":"Feature","id":"building_147","properties":{"class":"building"},"geometry":{"type":"Polygon","coordinates":[[[-0.012,326.592],[-0.012,365.356],[24.262,365.752],[23.537,356.188],[23.316,352.849],[22.434,340.853],[21.078,322.461],[14.552,322.178],[14.71,326.932],[-0.012,326.592]]]},"junctions":[]},{"type":"Feature","id":"building_148","properties":{"class":"building"},"geometry":{"type":"Polygon","coordinates":[[[-0.007,208.962],[-0.007,326.508],[14.707,326.969],[14.554,322.2],[12.529,259.735],[11.057,214.193],[10.885,208.501],[10.866,208.501],[-0.007,208.962]]]},"junctions":[]},{"type":"Feature","id":"building_149","properties":{"class":"building"},"geometry":{"type":"Polygon","coordinates":[[[24.873,197.069],[24.873,205.434],[26.193,260.706],[24.214,277.965],[75.769,278.601],[75.109,261.341],[96.786,261.024],[87.832,197.069],[24.873,197.069]]]},"junctions":[]},{"type":"Feature","id":"building_015","properties":{"class":"building"},"geometry":{"type":"Polygon","coordinates":[[[337.585,980.305],[338.312,998.018],[338.503,1003.422],[362.522,1003.078],[367.035,1003.016],[367.035,979.368],[337.585,980.305]]]},"junctions":[]},{"type":"Feature","id":"building_150","properties":{"class":"building"},"geometry":{"type":"Polygon","coordinates":[[[10.752,205.352],[10.872,208.591],[10.892,208.591],[11.073,214.276],[12.534,259.688],[26.168,260.768],[24.886,205.352],[10.752,205.352]]]},"junctions":[]},{"type":"Feature","id":"building_151","properties":{"class":"building"},"geometry":{"type":"Polygon","coordinates":[[[-0.005,190.921],[-0.005,208.999],[10.875,208.548],[10.762,205.369],[10.254,190.731],[-0.005,190.921]]]},"junctions":[]},{"type":"Feature","id":"building_152","properties":{"class":"building"},"geometry":{"type":"Polygon","coordinates":[[[-0.043,-0.091],[-0.043,163.483],[34.45,164.665],[34.45,174.12],[45.91,174.12],[45.243,181.921],[85.633,180.975],[58.706,-0.091],[-0.043,-0.091]]]},"junctions":[]},{"type":"Feature","id":"building_153","properties":{"class":"building"},"geometry":{"type":"Polygon","coordinates":[[[177.574,208.561],[178.875,321.877],[209.896,321.582],[209.392,208.413],[177.574,208.561]]]},"junctions":[]},{"type":"Feature","id":"building_154","properties":{"class":"building"},"geometry":{"type":"Polygon","coordinates":[[[209.306,208.454],[209.845,321.627],[414.319,319.854],[416.744,208.011],[413.78,207.863],[209.306,208.454]]]},"junctions":[]},{"type":"Feature","id":"building_155","properties":{"class":"building"},"geometry":{"type":"Polygon","coordinates":[[[58.683,-0.177],[85.641,181.28],[87.857,196.939],[96.72,260.955],[109.522,352.144],[137.465,354.447],[153.467,328.656],[147.559,-0.177],[58.683,-0.177]]]},"junctions":[]},{"type":"Feature","id":"building_156","properties":{"class":"building"},"geometry":{"type":"Polygon","coordinates":[[[177.444,6.846],[174.929,172.374],[411.303,168.007],[416.961,167.788],[413.503,4.226],[177.444,6.846]]]},"junctions":[]},{"type":"Feature","id":"building_157","properties":{"class":"building"},"geometry":{"type":"Polygon","coordinates":[[[177.192,-0.003],[177.499,6.853],[413.778,4.307],[413.471,-0.003],[177.192,-0.003]]]},"junctions":[]},{"type":"Feature","id":"building_158","properties":{"class":"building"},"geometry":{"type":"Polygon","coordinates":[[[451.071,292.742],[450.669,311.07],[512.501,311.931],[511.377,289.059],[457.254,292.326],[451.071,292.742]]]},"junctions":[]},{"type":"Feature","id":"building_159","properties":{"class":"building"},"geometry":{"type":"Polygon","coordinates":[[[511.77,204.725],[510.954,211.3],[511.362,289.057],[512.463,311.926],[512.585,314.785],[542.346,313.927],[539.9,205.154],[511.77,204.725]]]},"junctions":[]},{"type":"Feature","id":"building_016","properties":{"class":"building"},"geometry":{"type":"Polygon","coordinates":[[[310.509,970.508],[310.08,992.378],[329.56,994.462],[330.338,980.525],[330.74,973.557],[310.509,970.508]]]},"junctions":[]},{"type":"Feature","id":"building_160","properties":{"class":"building"},"geometry":{"type":"Polygon","coordinates":[[[457.615,212.619],[458.46,232.109],[495.917,232.425],[495.072,268.35],[457.193,268.35],[457.193,292.371],[511.407,289.105],[510.985,211.249],[457.615,212.619]]]},"junctions":[]},{"type":"Feature","id":"building_161","properties":{"class":"building"},"geometry":{"type":"Polygon","coordinates":[[[595.237,210.511],[615.607,234.123],[660.863,211.709],[647.823,187.977],[595.237,210.511]]]},"junctions":[]},{"type":"Feature","id":"building_162","properties":{"class":"building"},"geometry":{"type":"Polygon","coordinates":[[[413.644,4.353],[416.841,167.766],[411.165,168.036],[413.644,207.945],[416.646,207.945],[457.49,209.024],[461.405,209.294],[455.011,1.656],[413.644,4.353]]]},"junctions":[]},{"type":"Feature","id":"building_163","properties":{"class":"building"},"geometry":{"type":"Polygon","coordinates":[[[576.446,65.331],[576.771,103.849],[604.264,103.549],[603.939,65.631],[576.446,65.331]]]},"junctions":[]},{"type":"Feature","id":"building_164","properties":{"class":"building"},"geometry":{"type":"Polygon","coordinates":[[[800.177,267.777],[800.419,282.132],[801.388,293.984],[802.115,317.937],[949.648,314.765],[955.947,320.106],[974.116,328.202],[986.713,319.188],[984.533,263.938],[800.177,267.777]]]},"junctions":[]},{"type":"Feature","id":"building_165","properties":{"class":"building"},"geometry":{"type":"Polygon","coordinates":[[[761.0,211.825],[764.279,284.627],[780.163,283.388],[780.57,211.253],[761.0,211.825]]]},"junctions":[]},{"type":"Feature","id":"building_166","properties":{"class":"building"},"geometry":{"type":"Polygon","coordinates":[[[785.032,211.291],[788.029,282.936],[800.518,282.183],[799.291,210.444],[785.032,211.291]]]},"junctions":[]},{"type":"Feature","id":"building_167","properties":{"class":"building"},"geometry":{"type":"Polygon","coordinates":[[[799.197,205.972],[799.197,210.448],[800.161,267.854],[984.623,263.992],[982.214,200.266],[799.197,205.972]]]},"junctions":[]},{"type":"Feature","id":"building_017","properties":{"class":"building"},"geometry":{"type":"Polygon","coordinates":[[[290.87,967.558],[286.878,989.918],[310.092,992.402],[310.522,970.526],[290.87,967.558]]]},"junctions":[]},{"type":"Feature","id":"building_018","properties":{"class":"building"},"geometry":{"type":"Polygon","coordinates":[[[259.394,960.675],[259.599,965.769],[260.132,981.696],[260.337,987.132],[286.898,989.945],[290.874,967.556],[290.956,965.123],[259.394,960.675]]]},"junctions":[]},{"type":"Feature","id":"building_019","properties":{"class":"building"},"geometry":{"type":"Polygon","coordinates":[[[224.062,963.901],[224.062,980.192],[260.158,981.719],[259.595,965.752],[224.062,963.901]]]},"junctions":[]},{"type":"Feature","id":"building_002","properties":{"class":"building"},"geometry":{"type":"Polygon","coordinates":[[[994.545,1011.163],[1004.726,1022.32],[1006.218,1024.02],[1023.058,1024.02],[1024.015,1023.011],[1024.015,984.916],[1021.68,983.11],[1018.236,986.669],[994.545,1011.163]]]},"junctions":[]},{"type":"Feature","id":"building_020","properties":{"class":"building"},"geometry":{"type":"Polygon","coordinates":[[[291.926,934.99],[291.799,939.19],[290.973,965.119],[290.846,967.556],[310.54,970.512],[330.743,973.572],[337.35,974.557],[339.764,974.92],[337.096,956.355],[334.873,940.279],[295.992,935.509],[291.926,934.99]]]},"junctions":[]},{"type":"Feature","id":"building_021","properties":{"class":"building"},"geometry":{"type":"Polygon","coordinates":[[[260.623,935.515],[259.306,957.41],[259.094,960.643],[259.433,960.681],[290.947,965.145],[291.796,939.209],[260.623,935.515]]]},"junctions":[]},{"type":"Feature","id":"building_022","properties":{"class":"building"},"geometry":{"type":"Polygon","coordinates":[[[233.447,934.017],[231.395,959.037],[259.097,960.663],[259.287,957.41],[260.617,935.539],[260.655,934.882],[253.017,934.64],[233.447,934.017]]]},"junctions":[]},{"type":"Feature","id":"building_023","properties":{"class":"building"},"geometry":{"type":"Polygon","coordinates":[[[337.298,908.504],[334.842,940.296],[351.148,913.417],[337.298,908.504]]]},"junctions":[]},{"type":"Feature","id":"building_024","properties":{"class":"building"},"geometry":{"type":"Polygon","coordinates":[[[297.609,906.203],[295.999,935.524],[334.843,940.307],[337.311,908.506],[297.609,906.203]]]},"junctions":[]},{"type":"Feature","id":"building_025","properties":{"class":"building"},"geometry":{"type":"Polygon","coordinates":[[[267.257,904.434],[265.194,931.739],[291.89,935.01],[296.016,935.536],[297.616,906.212],[267.257,904.434]]]},"junctions":[]},{"type":"Feature","id":"building_026","properties":{"class":"building"},"geometry":{"type":"Polygon","coordinates":[[[234.663,919.106],[233.433,934.015],[253.03,934.648],[260.632,934.885],[260.72,933.343],[265.202,931.722],[267.267,904.435],[234.663,919.106]]]},"junctions":[]},{"type":"Feature","id":"building_027","properties":{"class":"building"},"geometry":{"type":"Polygon","coordinates":[[[161.846,908.067],[169.494,929.313],[190.294,918.725],[182.129,902.407],[161.846,908.067]]]},"junctions":[]},{"type":"Feature","id":"building_028","properties":{"class":"building"},"geometry":{"type":"Polygon","coordinates":[[[314.918,874.949],[314.473,892.651],[348.717,888.976],[346.671,871.049],[314.918,874.949]]]},"junctions":[]},{"type":"Feature","id":"building_029","properties":{"class":"building"},"geometry":{"type":"Polygon","coordinates":[[[135.822,829.19],[142.202,850.376],[252.788,817.293],[245.649,798.914],[200.837,808.605],[135.822,829.19]]]},"junctions":[]},{"type":"Feature","id":"building_003","properties":{"class":"building"},"geometry":{"type":"Polygon","coordinates":[[[1016.553,965.522],[1023.062,972.06],[1011.254,980.195],[1018.243,986.695],[1021.671,983.121],[1024.006,984.946],[1024.006,957.425],[1016.553,965.522]]]},"junctions":[]},{"type":"Feature","id":"building_031","properties":{"class":"building"},"geometry":{"type":"Polygon","coordinates":[[[891.223,1008.685],[903.698,1024.02],[961.819,1024.02],[965.687,1021.719],[956.887,1003.931],[947.313,984.66],[891.223,1008.685]]]},"junctions":[]},{"type":"Feature","id":"building_032","properties":{"class":"building"},"geometry":{"type":"Polygon","coordinates":[[[956.833,1003.925],[965.658,1021.744],[991.327,1010.333],[983.98,994.026],[956.833,1003.925]]]},"junctions":[]},{"type":"Feature","id":"building_033","properties":{"class":"building"},"geometry":{"type":"Polygon","coordinates":[[[947.302,984.699],[956.831,1003.956],[983.988,994.052],[980.701,977.345],[976.651,978.578],[972.982,971.224],[947.302,984.699]]]},"junctions":[]},{"type":"Feature","id":"building_034","properties":{"class":"building"},"geometry":{"type":"Polygon","coordinates":[[[914.307,938.301],[906.128,973.947],[918.826,976.959],[930.632,943.572],[914.307,938.301]]]},"junctions":[]},{"type":"Feature","id":"building_035","properties":{"class":"building"},"geometry":{"type":"Polygon","coordinates":[[[894.957,932.099],[885.816,969.203],[906.135,973.991],[914.314,938.301],[894.957,932.099]]]},"junctions":[]},{"type":"Feature","id":"building_036","properties":{"class":"building"},"geometry":{"type":"Polygon","coordinates":[[[681.229,861.02],[693.218,888.589],[723.771,877.561],[717.639,857.623],[711.561,861.266],[706.644,850.681],[702.279,851.321],[702.997,853.536],[681.229,861.02]]]},"junctions":[]},{"type":"Feature","id":"building_037","properties":{"class":"building"},"geometry":{"type":"Polygon","coordinates":[[[941.773,840.614],[932.244,862.909],[935.929,877.589],[963.628,865.347],[964.856,861.665],[946.941,839.271],[941.773,840.614]]]},"junctions":[]},{"type":"Feature","id":"building_038","properties":{"class":"building"},"geometry":{"type":"Polygon","coordinates":[[[666.382,835.802],[676.942,862.526],[681.27,861.021],[703.008,853.535],[702.295,851.318],[696.492,833.21],[683.839,830.324],[666.382,835.802]]]},"junctions":[]},{"type":"Feature","id":"building_039","properties":{"class":"building"},"geometry":{"type":"Polygon","coordinates":[[[910.871,812.155],[896.394,846.184],[932.245,862.935],[941.806,840.579],[948.976,823.828],[910.871,812.155]]]},"junctions":[]},{"type":"Feature","id":"building_040","properties":{"class":"building"},"geometry":{"type":"Polygon","coordinates":[[[390.07,935.788],[386.217,941.576],[402.069,957.412],[412.243,948.834],[398.081,934.318],[394.295,939.057],[390.07,935.788]]]},"junctions":[]},{"type":"Feature","id":"building_041","properties":{"class":"building"},"geometry":{"type":"Polygon","coordinates":[[[385.322,906.474],[370.563,920.705],[390.061,935.783],[394.304,939.086],[398.05,934.343],[405.317,925.237],[385.322,906.474]]]},"junctions":[]},{"type":"Feature","id":"building_042","properties":{"class":"building"},"geometry":{"type":"Polygon","coordinates":[[[393.891,876.75],[393.891,887.761],[395.535,897.13],[411.834,895.489],[412.239,876.75],[393.891,876.75]]]},"junctions":[]},{"type":"Feature","id":"building_043","properties":{"class":"building"},"geometry":{"type":"Polygon","coordinates":[[[558.515,873.842],[566.18,906.501],[580.797,903.611],[581.641,893.47],[608.535,891.017],[604.442,864.519],[558.515,873.842]]]},"junctions":[]},{"type":"Feature","id":"building_044","properties":{"class":"building"},"geometry":{"type":"Polygon","coordinates":[[[486.459,875.097],[491.617,888.158],[498.97,901.219],[528.711,891.006],[521.852,877.65],[514.664,863.411],[486.459,875.097]]]},"junctions":[]},{"type":"Feature","id":"building_045","properties":{"class":"building"},"geometry":{"type":"Polygon","coordinates":[[[412.213,876.746],[411.806,895.488],[440.344,895.916],[439.529,863.322],[428.929,862.894],[412.213,876.746]]]},"junctions":[]},{"type":"Feature","id":"building_046","properties":{"class":"building"},"geometry":{"type":"Polygon","coordinates":[[[530.308,860.081],[535.619,898.355],[554.362,899.991],[549.957,875.62],[548.239,866.187],[552.706,866.187],[551.488,858.009],[530.308,860.081]]]},"junctions":[]},{"type":"Feature","id":"building_047","properties":{"class":"building"},"geometry":{"type":"Polygon","coordinates":[[[443.696,865.316],[449.303,895.107],[491.664,888.164],[486.493,875.07],[481.074,861.273],[472.165,862.24],[443.696,865.316]]]},"junctions":[]},{"type":"Feature","id":"building_048","properties":{"class":"building"},"geometry":{"type":"Polygon","coordinates":[[[357.002,856.476],[358.867,890.628],[373.138,887.739],[369.052,854.752],[357.002,856.476]]]},"junctions":[]},{"type":"Feature","id":"building_049","properties":{"class":"building"},"geometry":{"type":"Polygon","coordinates":[[[369.048,854.786],[373.116,887.779],[393.912,887.779],[393.912,876.781],[393.912,862.748],[393.912,849.461],[369.048,854.786]]]},"junctions":[]},{"type":"Feature","id":"building_005","properties":{"class":"building"},"geometry":{"type":"Polygon","coordinates":[[[20.173,989.964],[15.192,1000.895],[-0.06,1009.13],[-0.06,1024.029],[17.527,1024.029],[38.538,1009.13],[90.987,995.654],[86.318,1024.029],[112.154,1024.029],[118.846,973.494],[119.78,966.381],[90.053,967.354],[41.806,984.724],[20.173,989.964]]]},"junctions":[]},{"type":"Feature","id":"building_050","properties":{"class":"building"},"geometry":{"type":"Polygon","coordinates":[[[602.798,849.872],[611.764,884.518],[626.852,882.059],[619.105,849.872],[614.606,849.462],[602.798,849.872]]]},"junctions":[]},{"type":"Feature","id":"building_051","properties":{"class":"building"},"geometry":{"type":"Polygon","coordinates":[[[621.529,850.685],[630.106,878.815],[643.111,876.718],[633.749,849.465],[621.529,850.685]]]},"junctions":[]},{"type":"Feature","id":"building_052","properties":{"class":"building"},"geometry":{"type":"Polygon","coordinates":[[[633.749,849.456],[643.091,876.704],[655.351,874.708],[649.235,848.236],[633.749,849.456]]]},"junctions":[]},{"type":"Feature","id":"building_053","properties":{"class":"building"},"geometry":{"type":"Polygon","coordinates":[[[488.392,852.313],[481.451,858.455],[481.032,861.304],[486.482,875.104],[514.662,863.45],[516.898,862.525],[509.538,846.616],[504.275,847.837],[488.392,852.313]]]},"junctions":[]},{"type":"Feature","id":"building_054","properties":{"class":"building"},"geometry":{"type":"Polygon","coordinates":[[[509.539,846.608],[516.891,862.525],[514.661,863.448],[521.875,877.658],[530.741,873.505],[529.502,867.831],[519.314,842.132],[509.539,846.608]]]},"junctions":[]},{"type":"Feature","id":"building_055","properties":{"class":"building"},"geometry":{"type":"Polygon","coordinates":[[[393.062,840.914],[393.882,849.476],[393.882,862.781],[426.069,862.116],[428.118,840.509],[393.062,840.914]]]},"junctions":[]},{"type":"Feature","id":"building_056","properties":{"class":"building"},"geometry":{"type":"Polygon","coordinates":[[[465.859,844.298],[472.177,862.252],[481.039,861.28],[481.449,858.428],[488.381,852.335],[483.058,837.298],[465.859,844.298]]]},"junctions":[]},{"type":"Feature","id":"building_057","properties":{"class":"building"},"geometry":{"type":"Polygon","coordinates":[[[524.657,837.436],[530.307,860.072],[551.513,858.038],[549.874,835.208],[524.657,837.436]]]},"junctions":[]},{"type":"Feature","id":"building_058","properties":{"class":"building"},"geometry":{"type":"Polygon","coordinates":[[[433.381,834.386],[443.713,865.318],[472.189,862.248],[465.889,844.294],[460.698,829.502],[433.381,834.386]]]},"junctions":[]},{"type":"Feature","id":"building_059","properties":{"class":"building"},"geometry":{"type":"Polygon","coordinates":[[[488.313,833.142],[489.195,834.825],[483.049,837.294],[488.368,852.331],[504.271,847.842],[496.113,830.729],[488.313,833.142]]]},"junctions":[]},{"type":"Feature","id":"building_006","properties":{"class":"building"},"geometry":{"type":"Polygon","coordinates":[[[-0.014,869.986],[-0.014,877.843],[0.248,884.96],[10.439,890.074],[24.151,885.478],[28.834,879.326],[21.079,862.907],[12.986,861.536],[8.378,863.092],[-0.014,869.986]]]},"junctions":[]},{"type":"Feature","id":"building_060","properties":{"class":"building"},"geometry":{"type":"Polygon","coordinates":[[[596.21,819.131],[602.817,849.897],[614.631,849.458],[611.781,834.799],[616.16,833.922],[611.082,816.103],[596.21,819.131]]]},"junctions":[]},{"type":"Feature","id":"building_061","properties":{"class":"building"},"geometry":{"type":"Polygon","coordinates":[[[460.666,829.511],[465.855,844.312],[483.052,837.306],[489.204,834.819],[488.315,833.151],[481.866,820.958],[460.666,829.511]]]},"junctions":[]},{"type":"Feature","id":"building_062","properties":{"class":"building"},"geometry":{"type":"Polygon","coordinates":[[[611.051,816.111],[616.161,833.937],[629.704,831.143],[633.771,849.499],[649.249,848.246],[643.544,829.505],[629.257,812.401],[611.051,816.111]]]},"junctions":[]},{"type":"Feature","id":"building_063","properties":{"class":"building"},"geometry":{"type":"Polygon","coordinates":[[[576.34,792.739],[576.34,809.548],[566.12,808.347],[566.12,816.485],[574.276,816.085],[574.689,832.36],[566.533,833.561],[566.533,842.166],[591.412,840.098],[590.999,812.416],[645.197,811.616],[645.61,790.804],[576.34,792.739]]]},"junctions":[]},{"type":"Feature","id":"building_064","properties":{"class":"building"},"geometry":{"type":"Polygon","coordinates":[[[328.014,817.766],[334.174,838.166],[419.226,810.116],[414.013,786.494],[328.014,817.766]]]},"junctions":[]},{"type":"Feature","id":"building_065","properties":{"class":"building"},"geometry":{"type":"Polygon","coordinates":[[[645.571,790.817],[645.148,811.584],[647.592,816.903],[654.261,815.446],[668.382,812.397],[667.567,790.817],[645.571,790.817]]]},"junctions":[]},{"type":"Feature","id":"building_066","properties":{"class":"building"},"geometry":{"type":"Polygon","coordinates":[[[478.96,793.643],[485.517,816.106],[519.35,807.952],[518.039,805.18],[508.754,784.714],[478.96,793.643]]]},"junctions":[]},{"type":"Feature","id":"building_067","properties":{"class":"building"},"geometry":{"type":"Polygon","coordinates":[[[414.011,786.524],[419.185,810.143],[431.409,805.537],[428.336,789.78],[424.834,783.477],[414.011,786.524]]]},"junctions":[]},{"type":"Feature","id":"building_068","properties":{"class":"building"},"geometry":{"type":"Polygon","coordinates":[[[504.645,777.019],[508.745,784.703],[518.096,805.193],[553.965,796.961],[541.731,758.237],[504.645,777.019]]]},"junctions":[]},{"type":"Feature","id":"building_069","properties":{"class":"building"},"geometry":{"type":"Polygon","coordinates":[[[567.782,767.216],[569.097,786.27],[576.332,785.94],[583.608,785.636],[582.128,766.76],[567.782,767.216]]]},"junctions":[]},{"type":"Feature","id":"building_007","properties":{"class":"building"},"geometry":{"type":"Polygon","coordinates":[[[29.319,852.923],[29.319,859.022],[21.019,862.918],[28.792,879.351],[30.241,882.401],[82.675,863.596],[96.903,900.783],[122.461,892.566],[100.065,839.623],[86.759,846.315],[81.225,835.557],[29.319,852.923]]]},"junctions":[]},{"type":"Feature","id":"building_070","properties":{"class":"building"},"geometry":{"type":"Polygon","coordinates":[[[946.893,839.289],[964.856,861.718],[1000.297,829.499],[993.777,821.754],[994.956,820.147],[979.49,805.462],[946.893,839.289]]]},"junctions":[]},{"type":"Feature","id":"building_071","properties":{"class":"building"},"geometry":{"type":"Polygon","coordinates":[[[654.237,815.454],[658.189,831.159],[666.614,830.015],[679.383,828.311],[677.325,814.87],[668.377,812.411],[654.237,815.454]]]},"junctions":[]},{"type":"Feature","id":"building_072","properties":{"class":"building"},"geometry":{"type":"Polygon","coordinates":[[[988.166,790.775],[979.475,805.508],[994.95,820.165],[1005.356,804.859],[1008.825,799.783],[988.166,790.775]]]},"junctions":[]},{"type":"Feature","id":"building_073","properties":{"class":"building"},"geometry":{"type":"Polygon","coordinates":[[[679.953,713.789],[681.975,740.684],[655.458,743.625],[656.324,754.105],[688.503,754.961],[699.942,727.638],[679.953,713.789]]]},"junctions":[]},{"type":"Feature","id":"building_074","properties":{"class":"building"},"geometry":{"type":"Polygon","coordinates":[[[653.236,716.429],[655.479,743.625],[682.024,740.681],[679.968,713.795],[653.236,716.429]]]},"junctions":[]},{"type":"Feature","id":"building_075","properties":{"class":"building"},"geometry":{"type":"Polygon","coordinates":[[[724.775,704.43],[710.898,726.459],[745.506,743.97],[751.227,730.259],[754.512,722.351],[749.131,720.606],[738.596,717.062],[739.162,712.903],[724.775,704.43]]]},"junctions":[]},{"type":"Feature","id":"building_076","properties":{"class":"building"},"geometry":{"type":"Polygon","coordinates":[[[746.591,703.902],[741.467,714.217],[739.166,712.873],[738.602,717.078],[749.131,720.588],[755.318,708.518],[746.591,703.902]]]},"junctions":[]},{"type":"Feature","id":"building_077","properties":{"class":"building"},"geometry":{"type":"Polygon","coordinates":[[[651.626,696.879],[653.246,716.431],[679.984,713.811],[676.706,704.452],[664.516,694.259],[651.626,696.879]]]},"junctions":[]},{"type":"Feature","id":"building_078","properties":{"class":"building"},"geometry":{"type":"Polygon","coordinates":[[[762.2,672.53],[746.577,703.938],[755.296,708.492],[749.12,720.584],[754.509,722.39],[751.239,730.242],[769.163,732.99],[791.811,686.82],[793.203,684.072],[762.2,672.53]]]},"junctions":[]},{"type":"Feature","id":"building_079","properties":{"class":"building"},"geometry":{"type":"Polygon","coordinates":[[[701.539,682.894],[702.696,680.55],[684.841,710.543],[707.675,721.57],[723.569,690.991],[701.539,682.894]]]},"junctions":[]},{"type":"Feature","id":"building_008","properties":{"class":"building"},"geometry":{"type":"Polygon","coordinates":[[[-0.021,710.854],[-0.021,767.279],[1.767,769.966],[36.369,758.199],[29.773,733.832],[43.022,722.621],[30.779,698.624],[-0.021,710.854]]]},"junctions":[]},{"type":"Feature","id":"building_080","properties":{"class":"building"},"geometry":{"type":"Polygon","coordinates":[[[745.204,661.714],[724.75,704.43],[739.164,712.892],[741.448,714.256],[746.625,703.884],[762.205,672.563],[763.83,669.356],[756.064,666.217],[745.204,661.714]]]},"junctions":[]},{"type":"Feature","id":"building_081","properties":{"class":"building"},"geometry":{"type":"Polygon","coordinates":[[[714.583,655.972],[702.676,680.557],[701.533,682.878],[723.547,691.028],[735.367,665.351],[714.583,655.972]]]},"junctions":[]},{"type":"Feature","id":"building_082","properties":{"class":"building"},"geometry":{"type":"Polygon","coordinates":[[[786.757,651.235],[776.889,674.729],[763.819,669.349],[762.185,672.545],[793.161,684.105],[791.854,686.822],[797.67,688.58],[812.505,660.771],[796.821,654.379],[798.128,650.969],[790.482,647.56],[788.26,651.928],[786.757,651.235]]]},"junctions":[]},{"type":"Feature","id":"building_083","properties":{"class":"building"},"geometry":{"type":"Polygon","coordinates":[[[772.616,644.965],[763.789,669.361],[776.88,674.735],[786.751,651.228],[772.616,644.965]]]},"junctions":[]},{"type":"Feature","id":"building_084","properties":{"class":"building"},"geometry":{"type":"Polygon","coordinates":[[[829.57,643.416],[821.681,664.529],[821.681,668.622],[829.01,671.064],[840.429,647.833],[829.57,643.416]]]},"junctions":[]},{"type":"Feature","id":"building_085","properties":{"class":"building"},"geometry":{"type":"Polygon","coordinates":[[[768.073,642.957],[756.032,666.183],[763.808,669.373],[772.618,644.981],[768.073,642.957]]]},"junctions":[]},{"type":"Feature","id":"building_086","properties":{"class":"building"},"geometry":{"type":"Polygon","coordinates":[[[754.629,637.015],[743.007,660.851],[745.188,661.723],[756.028,666.195],[768.073,642.965],[754.629,637.015]]]},"junctions":[]},{"type":"Feature","id":"building_087","properties":{"class":"building"},"geometry":{"type":"Polygon","coordinates":[[[805.27,631.704],[798.107,650.989],[796.833,654.359],[812.476,660.759],[821.703,664.556],[829.568,643.437],[830.667,640.535],[805.27,631.704]]]},"junctions":[]},{"type":"Feature","id":"building_088","properties":{"class":"building"},"geometry":{"type":"Polygon","coordinates":[[[733.313,626.239],[714.57,655.968],[735.344,665.379],[739.821,667.411],[743.05,660.834],[754.66,637.04],[745.965,633.19],[746.642,631.426],[733.313,626.239]]]},"junctions":[]},{"type":"Feature","id":"building_089","properties":{"class":"building"},"geometry":{"type":"Polygon","coordinates":[[[751.038,620.154],[746.603,631.419],[745.916,633.193],[754.661,637.03],[768.091,642.972],[772.589,644.994],[786.768,651.224],[788.267,651.926],[790.454,647.593],[794.014,640.496],[788.267,637.814],[775.774,631.873],[755.161,622.135],[751.038,620.154]]]},"junctions":[]},{"type":"Feature","id":"building_009","properties":{"class":"building"},"geometry":{"type":"Polygon","coordinates":[[[-0.016,568.514],[-0.016,628.802],[21.103,624.861],[8.901,596.855],[32.836,586.123],[22.639,564.238],[-0.016,568.514]]]},"junctions":[]},{"type":"Feature","id":"building_090","properties":{"class":"building"},"geometry":{"type":"Polygon","coordinates":[[[582.099,766.78],[583.623,785.66],[624.011,783.913],[622.759,774.968],[620.745,765.58],[582.099,766.78]]]},"junctions":[]},{"type":"Feature","id":"building_091","properties":{"class":"building"},"geometry":{"type":"Polygon","coordinates":[[[560.463,741.121],[555.963,746.008],[541.669,758.262],[553.978,796.979],[563.64,793.145],[569.463,790.814],[569.066,786.303],[567.743,767.208],[582.169,766.757],[620.684,765.554],[622.801,774.951],[643.581,772.922],[641.066,739.091],[560.463,741.121]]]},"junctions":[]},{"type":"Feature","id":"building_092","properties":{"class":"building"},"geometry":{"type":"Polygon","coordinates":[[[410.814,758.582],[424.396,782.707],[424.829,783.486],[428.297,789.823],[522.066,750.022],[499.093,704.217],[410.814,758.582]]]},"junctions":[]},{"type":"Feature","id":"building_093","properties":{"class":"building"},"geometry":{"type":"Polygon","coordinates":[[[290.69,684.017],[301.033,729.725],[311.377,770.999],[413.636,733.241],[471.7,699.151],[452.894,653.291],[290.69,684.017]]]},"junctions":[]},{"type":"Feature","id":"building_094","properties":{"class":"building"},"geometry":{"type":"Polygon","coordinates":[[[621.335,633.999],[499.001,704.278],[521.971,750.155],[697.729,634.584],[686.373,616.233],[676.824,599.835],[621.335,633.999]]]},"junctions":[]},{"type":"Feature","id":"building_095","properties":{"class":"building"},"geometry":{"type":"Polygon","coordinates":[[[381.4,583.278],[393.129,638.852],[441.61,627.889],[427.848,573.918],[381.4,583.278]]]},"junctions":[]},{"type":"Feature","id":"building_096","properties":{"class":"building"},"geometry":{"type":"Polygon","coordinates":[[[432.834,576.963],[444.034,623.401],[462.699,651.475],[464.441,654.43],[487.835,683.981],[611.773,604.193],[622.226,597.438],[624.466,596.171],[600.823,561.132],[607.045,558.599],[589.873,521.449],[432.834,576.963]]]},"junctions":[]},{"type":"Feature","id":"building_097","properties":{"class":"building"},"geometry":{"type":"Polygon","coordinates":[[[334.384,530.833],[347.961,569.486],[405.986,556.093],[395.757,518.435],[334.384,530.833]]]},"junctions":[]},{"type":"Feature","id":"building_098","properties":{"class":"building"},"geometry":{"type":"Polygon","coordinates":[[[589.706,521.535],[606.954,558.653],[600.925,561.149],[624.343,596.24],[689.551,559.121],[697.684,544.929],[697.123,525.122],[680.295,518.415],[697.123,508.746],[676.79,477.242],[662.486,486.443],[654.353,476.15],[591.249,521.067],[589.706,521.535]]]},"junctions":[]},{"type":"Feature","id":"building_099","properties":{"class":"building"},"geometry":{"type":"Polygon","coordinates":[[[423.489,507.741],[436.95,555.142],[506.411,530.349],[503.719,490.428],[423.489,507.741]]]},"junctions":[]},{"type":"Feature","id":"water_000","properties":{"class":"water"},"geometry":{"type":"Polygon","coordinates":[[[783.482,909.827],[781.39,912.791],[781.144,916.989],[782.251,922.299],[780.528,926.004],[784.959,927.609],[785.205,932.425],[782.128,937.858],[776.959,939.464],[776.713,942.057],[840.716,980.832],[852.532,985.277],[859.548,981.696],[865.087,972.805],[866.441,966.631],[860.287,962.926],[861.025,960.704],[865.456,951.813],[871.487,946.75],[865.579,928.844],[854.009,914.396],[840.101,909.827],[829.023,902.418],[823.854,891.674],[818.807,890.193],[815.115,890.193],[811.915,892.168],[808.838,897.478],[804.899,901.059],[795.791,906.616],[783.482,909.827]]]},"junctions":[]},{"type":"Feature","id":"water_001","properties":{"class":"water"},"geometry":{"type":"Polygon","coordinates":[[[770.033,848.066],[739.009,883.561],[740.386,888.708],[742.897,894.387],[746.218,896.517],[746.947,902.285],[751.564,908.141],[757.964,913.643],[762.419,915.773],[766.712,916.039],[769.304,916.394],[774.002,914.087],[777.242,910.449],[781.535,904.947],[785.586,898.203],[794.82,890.749],[798.87,887.022],[801.381,883.029],[801.219,881.254],[799.68,877.882],[798.303,873.711],[792.147,866.612],[790.527,863.95],[788.826,862.441],[779.834,854.987],[776.027,851.882],[770.033,848.066]]]},"junctions":[]},{"type":"Feature","id":"water_002","properties":{"class":"water"},"geometry":{"type":"Polygon","coordinates":[[[893.403,684.731],[888.784,694.705],[890.077,711.162],[884.35,714.32],[873.264,715.151],[866.798,718.31],[858.299,734.434],[858.299,738.756],[861.44,740.585],[868.276,740.252],[870.308,736.595],[876.775,732.938],[886.197,731.941],[906.89,748.231],[917.606,763.192],[929.43,773.665],[935.342,797.269],[950.862,807.742],[959.36,811.565],[965.827,812.064],[975.619,804.085],[980.792,789.623],[980.977,782.142],[991.878,760.2],[1000.561,727.951],[997.42,722.798],[944.026,714.486],[923.333,702.684],[913.91,690.715],[903.749,684.399],[893.403,684.731]]]},"junctions":[]},{"type":"Feature","id":"water_003","properties":{"class":"water"},"geometry":{"type":"Polygon","coordinates":[[[822.538,692.274],[817.244,695.718],[811.804,699.583],[808.323,703.237],[806.292,706.119],[806.8,710.054],[809.193,714.763],[813.11,718.277],[817.534,720.034],[821.523,720.736],[825.729,720.877],[830.226,719.401],[837.769,710.546],[846.254,700.496],[850.171,695.085],[853.435,693.328],[855.465,691.641],[857.424,688.901],[860.905,684.614],[861.413,682.576],[861.92,679.483],[862.138,675.829],[859.599,671.401],[854.16,667.536],[849.881,666.763],[834.94,681.662],[833.635,687.284],[830.879,689.322],[826.817,691.149],[825.077,692.274],[822.538,692.274]]]},"junctions":[]},{"type":"Feature","id":"water_004","properties":{"class":"water"},"geometry":{"type":"Polygon","coordinates":[[[919.423,640.929],[911.818,654.13],[907.712,665.155],[906.952,672.989],[910.297,681.403],[913.643,684.449],[929.917,693.879],[945.734,697.94],[953.338,695.619],[963.832,697.215],[975.999,701.857],[985.885,714.768],[1008.546,720.426],[1010.827,712.012],[1010.827,703.018],[1016.758,699.971],[1020.256,695.474],[1019.952,686.045],[1016.91,683.144],[1014.173,675.6],[1014.477,669.942],[1019.04,664.575],[1024.058,662.689],[1024.058,637.157],[1007.481,632.08],[995.77,631.065],[973.414,624.972],[960.182,613.221],[950.6,608.724],[946.646,608.869],[919.423,640.929]]]},"junctions":[]},{"type":"Feature","id":"water_005","properties":{"class":"water"},"geometry":{"type":"Polygon","coordinates":[[[831.178,472.685],[830.776,477.806],[828.708,484.714],[831.58,490.829],[833.82,495.315],[840.769,497.737],[849.269,501.191],[855.587,503.255],[860.469,501.191],[864.547,498.57],[871.094,494.878],[872.932,491.027],[872.932,489.201],[870.29,487.771],[865.983,484.913],[855.415,480.228],[844.789,475.345],[836.462,473.121],[831.178,472.685]]]},"junctions":[]},{"type":"Feature","id":"water_006","properties":{"class":"water"},"geometry":{"type":"Polygon","coordinates":[[[926.226,431.74],[912.233,442.734],[910.935,447.206],[912.377,466.4],[920.311,471.245],[925.649,476.369],[930.265,476.928],[940.652,474.133],[944.98,478.978],[952.482,492.86],[972.101,498.544],[995.471,499.196],[1003.694,492.022],[1017.832,484.288],[1021.294,480.655],[1022.015,477.394],[1020.573,471.431],[1014.658,464.35],[1012.783,464.443],[1009.176,446.182],[1004.271,437.703],[987.681,427.454],[967.196,433.603],[960.849,437.237],[956.232,442.921],[956.232,453.169],[945.99,468.636],[936.901,469.195],[939.354,456.803],[935.603,435.187],[926.226,431.74]]]},"junctions":[]},{"type":"Feature","id":"water_007","properties":{"class":"water"},"geometry":{"type":"Polygon","coordinates":[[[852.071,419.18],[850.034,420.819],[851.89,425.083],[853.61,429.159],[852.795,434.36],[850.758,437.311],[848.903,439.139],[850.034,440.263],[852.795,440.685],[856.145,437.592],[859.902,437.592],[861.849,438.202],[873.029,440.966],[883.531,446.588],[883.757,443.73],[880.996,438.014],[877.737,435.062],[877.42,430.705],[879.14,426.301],[880.77,423.162],[881.902,419.601],[881.902,415.01],[882.535,411.355],[878.235,410.512],[873.844,411.027],[866.737,417.352],[863.569,416.931],[861.034,416.837],[859.812,416.837],[855.33,418.055],[852.071,419.18]]]},"junctions":[]},{"type":"Feature","id":"road_network","properties":{"class":"road","topologyMode":"stitched-graph"},"geometry":{"type":"MultiLineString","coordinates":[[[162,0],[162,127],[162,188]],[[953,0],[953,28]],[[953,28],[968,28],[999,37],[1023,50]],[[953,28],[895,29],[767,32],[639,34],[511,37],[463,38],[575,35],[703,33],[831,30],[953,28]],[[953,28],[953,127],[953,156]],[[162,64],[162,188]],[[953,64],[953,156]],[[953,156],[952,173],[948,183],[932,189]],[[737,187],[639,186],[511,186],[383,185],[255,186],[162,188]],[[737,187],[703,187],[575,186],[447,185],[319,186],[191,187],[162,188]],[[737,187],[767,191],[784,194]],[[737,187],[784,194]],[[162,188],[162,257]],[[932,189],[895,190],[784,194]],[[932,189],[831,192],[784,194]],[[162,257],[158,319],[155,371]],[[162,257],[155,371]],[[183,370],[155,371]],[[113,371],[127,371],[155,371]],[[113,371],[155,371]],[[113,371],[112,388]],[[0,384],[112,388]],[[64,386],[112,388]],[[670,450],[681,457],[703,500],[709,544],[704,512]],[[670,450],[639,471],[583,512]],[[670,450],[583,512]],[[583,512],[511,541],[493,548]],[[575,515],[493,548]],[[493,548],[448,561],[433,565]],[[493,548],[433,565]],[[433,565],[422,568]],[[433,565],[440,625]],[[422,568],[383,576],[271,600]],[[422,568],[319,590],[271,600]],[[434,576],[440,625]],[[191,577],[150,586]],[[73,580],[124,572],[139,575],[150,586]],[[150,586],[200,575],[221,572],[240,589],[256,608]],[[150,586],[160,639],[164,661]],[[150,586],[164,661]],[[271,600],[256,608]],[[256,608],[264,640],[273,676]],[[256,608],[273,676]],[[612,621],[582,639],[512,683]],[[612,621],[575,643],[486,699]],[[612,621],[512,683]],[[440,625],[450,642]],[[450,642],[383,655],[273,676]],[[450,642],[319,667],[273,676]],[[450,642],[486,699]],[[164,661],[127,668],[74,680],[164,661]],[[164,661],[172,703],[181,755]],[[164,661],[181,755]],[[273,676],[281,703],[303,785]],[[273,676],[298,767],[303,785]],[[512,683],[486,699]],[[486,699],[447,723],[407,748]],[[486,699],[407,748]],[[478,704],[407,748]],[[407,748],[384,757],[314,784]],[[407,748],[355,767],[314,784]],[[407,748],[320,781]],[[181,755],[127,767],[103,773],[181,755]],[[181,755],[183,769],[202,786],[217,791],[255,791],[303,785]],[[314,784],[303,785]],[[303,785],[307,798]],[[307,798],[305,831],[304,855]],[[307,798],[304,855]],[[304,855],[286,893]],[[639,890],[619,897]],[[286,893],[319,900],[351,905]],[[286,893],[351,905]],[[286,893],[255,907],[234,918]],[[286,893],[234,918]],[[280,896],[234,918]],[[619,897],[650,887],[698,896],[767,945]],[[619,897],[599,910]],[[704,900],[781,954],[804,966],[831,984],[861,995]],[[351,905],[383,906],[412,906]],[[351,905],[412,906]],[[412,906],[448,908],[562,912]],[[412,906],[512,910],[562,912]],[[599,910],[576,911]],[[599,910],[562,912]],[[944,912],[917,907],[907,914],[891,937]],[[944,912],[959,918]],[[944,912],[1023,944]],[[234,918],[209,933]],[[209,933],[192,940],[166,950]],[[209,933],[166,950]],[[891,937],[884,959]],[[891,937],[882,964],[872,982],[861,995]],[[102,947],[127,948],[166,950]],[[102,947],[166,950]],[[102,947],[70,953],[0,987]],[[861,995],[895,1020]],[[861,995],[901,1023]]]},"junctions":[[953,28],[953,156],[737,187],[162,188],[932,189],[784,194],[162,257],[113,371],[155,371],[112,388],[670,450],[583,512],[493,548],[433,565],[422,568],[150,586],[271,600],[256,608],[612,621],[440,625],[450,642],[164,661],[273,676],[512,683],[486,699],[407,748],[181,755],[314,784],[303,785],[307,798],[304,855],[286,893],[619,897],[351,905],[412,906],[599,910],[562,912],[944,912],[234,918],[209,933],[891,937],[102,947],[166,950],[861,995]]}]}