{"type":"FeatureCollection","coordinateSystem":{"type":"image-pixel","origin":"top-left","x":"right","y":"down","georeferenced":false},"features":[{"type":"Feature","id":"building_000","properties":{"class":"building"},"geometry":{"type":"Polygon","coordinates":[[[94.744,999.745],[95.399,1024.012],[126.276,1024.012],[125.58,999.098],[94.744,999.745]]]},"junctions":[]},{"type":"Feature","id":"building_001","properties":{"class":"building"},"geometry":{"type":"Polygon","coordinates":[[[135.571,998.906],[137.967,1024.013],[150.592,1024.013],[149.898,1016.662],[152.809,1016.293],[152.294,1012.835],[147.257,1013.406],[145.6,998.167],[135.571,998.906]]]},"junctions":[]},{"type":"Feature","id":"building_010","properties":{"class":"building"},"geometry":{"type":"Polygon","coordinates":[[[328.414,839.378],[337.488,1024.093],[360.466,1024.093],[347.687,837.927],[328.414,839.378]]]},"junctions":[]},{"type":"Feature","id":"building_100","properties":{"class":"building"},"geometry":{"type":"Polygon","coordinates":[[[408.805,675.649],[409.082,706.439],[419.041,706.657],[419.359,716.521],[439.355,715.54],[438.681,681.426],[429.873,674.559],[408.805,675.649]]]},"junctions":[]},{"type":"Feature","id":"building_101","properties":{"class":"building"},"geometry":{"type":"Polygon","coordinates":[[[514.754,677.175],[515.406,692.649],[546.136,690.855],[545.484,675.381],[514.754,677.175]]]},"junctions":[]},{"type":"Feature","id":"building_102","properties":{"class":"building"},"geometry":{"type":"Polygon","coordinates":[[[597.264,633.499],[597.465,648.999],[648.686,647.351],[648.485,631.851],[597.264,633.499]]]},"junctions":[]},{"type":"Feature","id":"building_103","properties":{"class":"building"},"geometry":{"type":"Polygon","coordinates":[[[513.974,621.933],[514.338,643.224],[519.747,643.334],[519.747,649.004],[545.056,647.614],[544.248,620.836],[513.974,621.933]]]},"junctions":[]},{"type":"Feature","id":"building_104","properties":{"class":"building"},"geometry":{"type":"Polygon","coordinates":[[[485.519,602.376],[486.008,631.516],[515.836,630.69],[515.836,622.889],[548.271,621.775],[547.538,599.734],[485.519,602.376]]]},"junctions":[]},{"type":"Feature","id":"building_105","properties":{"class":"building"},"geometry":{"type":"Polygon","coordinates":[[[596.686,597.001],[596.686,601.018],[596.994,622.311],[597.178,633.359],[644.044,631.853],[642.322,594.691],[596.686,597.001]]]},"junctions":[]},{"type":"Feature","id":"building_106","properties":{"class":"building"},"geometry":{"type":"Polygon","coordinates":[[[570.287,596.638],[571.298,623.314],[597.143,622.492],[596.132,595.816],[570.287,596.638]]]},"junctions":[]},{"type":"Feature","id":"building_107","properties":{"class":"building"},"geometry":{"type":"Polygon","coordinates":[[[548.049,600.879],[548.165,613.236],[570.471,612.701],[570.355,600.344],[548.049,600.879]]]},"junctions":[]},{"type":"Feature","id":"building_108","properties":{"class":"building"},"geometry":{"type":"Polygon","coordinates":[[[456.794,571.327],[457.886,599.774],[508.693,598.134],[508.352,588.547],[509.376,551.206],[486.841,551.206],[487.729,574.859],[471.203,575.238],[471.203,570.949],[456.794,571.327]]]},"junctions":[]},{"type":"Feature","id":"building_109","properties":{"class":"building"},"geometry":{"type":"Polygon","coordinates":[[[617.877,735.839],[618.059,744.605],[664.803,742.614],[664.621,735.085],[617.877,735.839]]]},"junctions":[]},{"type":"Feature","id":"building_011","properties":{"class":"building"},"geometry":{"type":"Polygon","coordinates":[[[324.654,851.142],[325.416,875.768],[325.474,883.835],[332.105,1013.332],[335.926,1013.119],[328.636,849.868],[328.021,850.081],[324.654,851.142]]]},"junctions":[]},{"type":"Feature","id":"building_110","properties":{"class":"building"},"geometry":{"type":"Polygon","coordinates":[[[683.005,701.307],[683.379,726.033],[692.935,725.571],[692.935,700.647],[683.005,701.307]]]},"junctions":[]},{"type":"Feature","id":"building_111","properties":{"class":"building"},"geometry":{"type":"Polygon","coordinates":[[[717.223,670.798],[719.019,722.127],[770.387,720.234],[766.796,668.133],[717.223,670.798]]]},"junctions":[]},{"type":"Feature","id":"building_112","properties":{"class":"building"},"geometry":{"type":"Polygon","coordinates":[[[721.59,661.34],[722.151,668.854],[760.81,667.672],[760.198,660.346],[721.59,661.34]]]},"junctions":[]},{"type":"Feature","id":"building_113","properties":{"class":"building"},"geometry":{"type":"Polygon","coordinates":[[[728.459,585.911],[729.052,602.269],[769.981,600.399],[769.388,584.041],[728.459,585.911]]]},"junctions":[]},{"type":"Feature","id":"building_114","properties":{"class":"building"},"geometry":{"type":"Polygon","coordinates":[[[677.139,572.218],[678.401,585.73],[699.741,584.343],[697.951,565.95],[691.434,566.541],[688.117,570.086],[677.139,572.218]]]},"junctions":[]},{"type":"Feature","id":"building_115","properties":{"class":"building"},"geometry":{"type":"Polygon","coordinates":[[[697.988,544.831],[700.301,587.002],[722.392,585.819],[720.079,543.648],[697.988,544.831]]]},"junctions":[]},{"type":"Feature","id":"building_116","properties":{"class":"building"},"geometry":{"type":"Polygon","coordinates":[[[757.778,503.305],[758.05,512.815],[780.78,512.629],[781.022,503.688],[757.778,503.305]]]},"junctions":[]},{"type":"Feature","id":"building_117","properties":{"class":"building"},"geometry":{"type":"Polygon","coordinates":[[[631.533,474.274],[633.017,515.241],[645.817,515.241],[645.335,473.789],[631.533,474.274]]]},"junctions":[]},{"type":"Feature","id":"building_118","properties":{"class":"building"},"geometry":{"type":"Polygon","coordinates":[[[679.398,451.262],[681.994,512.832],[743.892,509.548],[741.296,447.978],[679.398,451.262]]]},"junctions":[]},{"type":"Feature","id":"building_119","properties":{"class":"building"},"geometry":{"type":"Polygon","coordinates":[[[493.085,483.815],[493.547,514.135],[522.715,513.466],[521.907,494.565],[513.787,494.644],[513.326,484.248],[493.085,483.815]]]},"junctions":[]},{"type":"Feature","id":"building_012","properties":{"class":"building"},"geometry":{"type":"Polygon","coordinates":[[[352.069,850.602],[352.604,874.113],[434.441,871.688],[433.906,848.177],[352.069,850.602]]]},"junctions":[]},{"type":"Feature","id":"building_120","properties":{"class":"building"},"geometry":{"type":"Polygon","coordinates":[[[453.615,480.069],[454.03,513.067],[482.665,512.851],[482.25,479.853],[453.615,480.069]]]},"junctions":[]},{"type":"Feature","id":"building_121","properties":{"class":"building"},"geometry":{"type":"Polygon","coordinates":[[[544.747,473.806],[544.747,480.964],[571.303,480.964],[571.303,473.806],[544.747,473.806]]]},"junctions":[]},{"type":"Feature","id":"building_122","properties":{"class":"building"},"geometry":{"type":"Polygon","coordinates":[[[609.199,456.513],[609.681,468.457],[650.421,466.758],[649.618,455.243],[609.199,456.513]]]},"junctions":[]},{"type":"Feature","id":"building_123","properties":{"class":"building"},"geometry":{"type":"Polygon","coordinates":[[[545.325,448.395],[545.665,470.722],[574.375,469.595],[574.035,447.268],[545.325,448.395]]]},"junctions":[]},{"type":"Feature","id":"building_124","properties":{"class":"building"},"geometry":{"type":"Polygon","coordinates":[[[391.726,420.922],[391.849,422.146],[392.217,436.515],[396.636,436.27],[400.012,476.11],[401.669,476.11],[401.73,482.641],[421.922,481.743],[422.045,482.233],[438.984,482.233],[434.074,425.657],[419.406,426.473],[419.406,419.779],[391.726,420.922]]]},"junctions":[]},{"type":"Feature","id":"building_125","properties":{"class":"building"},"geometry":{"type":"Polygon","coordinates":[[[507.506,436.438],[508.089,463.934],[535.584,463.572],[535.001,436.076],[507.506,436.438]]]},"junctions":[]},{"type":"Feature","id":"building_126","properties":{"class":"building"},"geometry":{"type":"Polygon","coordinates":[[[450.982,426.182],[452.73,475.596],[507.058,472.888],[505.31,423.474],[450.982,426.182]]]},"junctions":[]},{"type":"Feature","id":"building_127","properties":{"class":"building"},"geometry":{"type":"Polygon","coordinates":[[[599.605,428.119],[599.605,469.081],[609.775,468.543],[609.471,427.689],[599.605,428.119]]]},"junctions":[]},{"type":"Feature","id":"building_128","properties":{"class":"building"},"geometry":{"type":"Polygon","coordinates":[[[608.451,439.436],[609.078,456.279],[626.319,455.679],[625.762,439.191],[608.451,439.436]]]},"junctions":[]},{"type":"Feature","id":"building_129","properties":{"class":"building"},"geometry":{"type":"Polygon","coordinates":[[[545.913,433.834],[546.121,446.656],[559.267,446.357],[558.989,433.834],[545.913,433.834]]]},"junctions":[]},{"type":"Feature","id":"building_013","properties":{"class":"building"},"geometry":{"type":"Polygon","coordinates":[[[208.126,835.304],[210.428,880.234],[296.754,876.506],[294.452,831.576],[208.126,835.304]]]},"junctions":[]},{"type":"Feature","id":"building_130","properties":{"class":"building"},"geometry":{"type":"Polygon","coordinates":[[[574.057,409.375],[575.381,470.741],[600.883,469.524],[599.629,408.239],[574.057,409.375]]]},"junctions":[]},{"type":"Feature","id":"building_131","properties":{"class":"building"},"geometry":{"type":"Polygon","coordinates":[[[529.307,423.838],[529.557,448.302],[535.313,448.302],[535.266,424.187],[529.307,423.838]]]},"junctions":[]},{"type":"Feature","id":"building_132","properties":{"class":"building"},"geometry":{"type":"Polygon","coordinates":[[[507.309,424.395],[507.309,426.997],[507.309,436.274],[519.469,436.274],[520.465,448.122],[529.871,447.934],[529.315,423.988],[507.309,424.395]]]},"junctions":[]},{"type":"Feature","id":"building_133","properties":{"class":"building"},"geometry":{"type":"Polygon","coordinates":[[[393.139,344.736],[394.929,372.054],[415.021,371.663],[414.282,345.056],[393.139,344.736]]]},"junctions":[]},{"type":"Feature","id":"building_134","properties":{"class":"building"},"geometry":{"type":"Polygon","coordinates":[[[529.679,337.095],[529.926,356.62],[550.771,356.459],[550.168,335.94],[529.679,337.095]]]},"junctions":[]},{"type":"Feature","id":"building_135","properties":{"class":"building"},"geometry":{"type":"Polygon","coordinates":[[[416.738,318.573],[418.36,369.006],[430.236,368.537],[429.23,338.8],[441.722,338.8],[441.236,317.434],[416.738,318.573]]]},"junctions":[]},{"type":"Feature","id":"building_136","properties":{"class":"building"},"geometry":{"type":"Polygon","coordinates":[[[442.664,319.95],[443.249,358.6],[474.816,357.761],[473.229,318.22],[442.664,319.95]]]},"junctions":[]},{"type":"Feature","id":"building_137","properties":{"class":"building"},"geometry":{"type":"Polygon","coordinates":[[[573.403,304.04],[576.067,364.1],[586.987,363.554],[586.44,348.032],[585.646,305.288],[573.403,304.04]]]},"junctions":[]},{"type":"Feature","id":"building_138","properties":{"class":"building"},"geometry":{"type":"Polygon","coordinates":[[[396.811,315.737],[397.292,342.053],[414.439,342.053],[414.439,315.737],[396.811,315.737]]]},"junctions":[]},{"type":"Feature","id":"building_139","properties":{"class":"building"},"geometry":{"type":"Polygon","coordinates":[[[650.099,440.31],[650.331,466.383],[672.471,465.97],[672.239,439.897],[650.099,440.31]]]},"junctions":[]},{"type":"Feature","id":"building_014","properties":{"class":"building"},"geometry":{"type":"Polygon","coordinates":[[[320.428,747.468],[323.179,807.174],[445.062,802.947],[444.577,739.366],[320.428,747.468]]]},"junctions":[]},{"type":"Feature","id":"building_140","properties":{"class":"building"},"geometry":{"type":"Polygon","coordinates":[[[625.778,445.315],[626.066,455.605],[650.482,455.191],[649.969,445.836],[625.778,445.315]]]},"junctions":[]},{"type":"Feature","id":"building_141","properties":{"class":"building"},"geometry":{"type":"Polygon","coordinates":[[[740.364,396.582],[740.79,410.148],[743.945,410.148],[745.182,458.851],[773.196,458.116],[771.406,400.178],[770.979,395.929],[740.364,396.582]]]},"junctions":[]},{"type":"Feature","id":"building_142","properties":{"class":"building"},"geometry":{"type":"Polygon","coordinates":[[[624.557,408.062],[626.286,445.69],[650.663,443.628],[648.934,406.0],[624.557,408.062]]]},"junctions":[]},{"type":"Feature","id":"building_143","properties":{"class":"building"},"geometry":{"type":"Polygon","coordinates":[[[747.143,325.711],[747.143,343.267],[761.897,343.569],[761.897,326.244],[747.143,325.711]]]},"junctions":[]},{"type":"Feature","id":"building_144","properties":{"class":"building"},"geometry":{"type":"Polygon","coordinates":[[[650.208,302.211],[650.673,343.851],[694.952,342.569],[694.487,300.929],[650.208,302.211]]]},"junctions":[]},{"type":"Feature","id":"building_145","properties":{"class":"building"},"geometry":{"type":"Polygon","coordinates":[[[696.266,299.167],[697.027,338.81],[724.154,337.753],[723.393,298.11],[696.266,299.167]]]},"junctions":[]},{"type":"Feature","id":"building_146","properties":{"class":"building"},"geometry":{"type":"Polygon","coordinates":[[[725.29,295.468],[726.247,339.313],[745.21,337.902],[744.253,294.057],[725.29,295.468]]]},"junctions":[]},{"type":"Feature","id":"building_147","properties":{"class":"building"},"geometry":{"type":"Polygon","coordinates":[[[743.675,294.248],[745.071,313.67],[753.355,313.492],[753.355,294.07],[743.675,294.248]]]},"junctions":[]},{"type":"Feature","id":"building_148","properties":{"class":"building"},"geometry":{"type":"Polygon","coordinates":[[[662.735,280.283],[662.878,293.617],[672.602,293.617],[672.745,280.959],[662.735,280.283]]]},"junctions":[]},{"type":"Feature","id":"building_149","properties":{"class":"building"},"geometry":{"type":"Polygon","coordinates":[[[603.38,303.837],[604.498,355.296],[642.5,353.783],[641.382,302.324],[603.38,303.837]]]},"junctions":[]},{"type":"Feature","id":"building_150","properties":{"class":"building"},"geometry":{"type":"Polygon","coordinates":[[[534.322,308.32],[535.416,332.223],[550.848,331.669],[549.754,307.147],[534.322,308.32]]]},"junctions":[]},{"type":"Feature","id":"building_151","properties":{"class":"building"},"geometry":{"type":"Polygon","coordinates":[[[488.719,311.578],[489.309,325.547],[510.331,324.61],[509.152,310.813],[488.719,311.578]]]},"junctions":[]},{"type":"Feature","id":"building_152","properties":{"class":"building"},"geometry":{"type":"Polygon","coordinates":[[[455.051,310.219],[455.266,315.623],[473.449,314.751],[473.234,309.347],[455.051,310.219]]]},"junctions":[]},{"type":"Feature","id":"building_153","properties":{"class":"building"},"geometry":{"type":"Polygon","coordinates":[[[377.647,274.314],[378.734,307.737],[424.163,307.737],[421.988,272.723],[377.647,274.314]]]},"junctions":[]},{"type":"Feature","id":"building_154","properties":{"class":"building"},"geometry":{"type":"Polygon","coordinates":[[[574.362,271.747],[575.413,302.116],[611.158,301.456],[610.203,270.344],[574.362,271.747]]]},"junctions":[]},{"type":"Feature","id":"building_155","properties":{"class":"building"},"geometry":{"type":"Polygon","coordinates":[[[423.507,259.24],[424.929,310.116],[448.963,309.436],[448.302,257.744],[423.507,259.24]]]},"junctions":[]},{"type":"Feature","id":"building_156","properties":{"class":"building"},"geometry":{"type":"Polygon","coordinates":[[[448.345,264.535],[450.034,302.51],[477.905,301.445],[476.216,263.47],[448.345,264.535]]]},"junctions":[]},{"type":"Feature","id":"building_157","properties":{"class":"building"},"geometry":{"type":"Polygon","coordinates":[[[479.818,265.012],[481.844,302.089],[503.452,300.948],[501.426,263.871],[479.818,265.012]]]},"junctions":[]},{"type":"Feature","id":"building_158","properties":{"class":"building"},"geometry":{"type":"Polygon","coordinates":[[[550.372,254.459],[552.096,285.703],[544.376,285.895],[545.088,303.025],[573.234,301.357],[571.848,253.625],[550.372,254.459]]]},"junctions":[]},{"type":"Feature","id":"building_159","properties":{"class":"building"},"geometry":{"type":"Polygon","coordinates":[[[613.057,264.798],[613.785,295.796],[659.803,294.142],[659.075,263.144],[613.057,264.798]]]},"junctions":[]},{"type":"Feature","id":"building_016","properties":{"class":"building"},"geometry":{"type":"Polygon","coordinates":[[[359.628,1008.31],[360.615,1024.009],[444.102,1024.009],[442.895,1005.151],[359.628,1008.31]]]},"junctions":[]},{"type":"Feature","id":"building_160","properties":{"class":"building"},"geometry":{"type":"Polygon","coordinates":[[[699.898,264.623],[700.511,291.954],[724.742,291.631],[724.355,276.495],[714.417,276.71],[714.127,264.336],[699.898,264.623]]]},"junctions":[]},{"type":"Feature","id":"building_161","properties":{"class":"building"},"geometry":{"type":"Polygon","coordinates":[[[661.362,254.35],[661.558,274.11],[676.438,274.11],[676.261,254.607],[661.362,254.35]]]},"junctions":[]},{"type":"Feature","id":"building_163","properties":{"class":"building"},"geometry":{"type":"Polygon","coordinates":[[[673.023,208.212],[673.518,225.048],[707.717,224.239],[707.222,208.212],[673.023,208.212]]]},"junctions":[]},{"type":"Feature","id":"building_164","properties":{"class":"building"},"geometry":{"type":"Polygon","coordinates":[[[717.242,159.068],[717.462,169.876],[732.638,169.632],[732.418,158.824],[717.242,159.068]]]},"junctions":[]},{"type":"Feature","id":"building_165","properties":{"class":"building"},"geometry":{"type":"Polygon","coordinates":[[[704.155,142.446],[704.293,170.904],[714.785,170.646],[714.495,142.704],[704.155,142.446]]]},"junctions":[]},{"type":"Feature","id":"building_167","properties":{"class":"building"},"geometry":{"type":"Polygon","coordinates":[[[703.455,116.228],[703.889,137.721],[713.915,137.352],[713.481,115.859],[703.455,116.228]]]},"junctions":[]},{"type":"Feature","id":"building_168","properties":{"class":"building"},"geometry":{"type":"Polygon","coordinates":[[[603.694,194.163],[604.645,223.225],[615.896,222.801],[615.199,193.585],[603.694,194.163]]]},"junctions":[]},{"type":"Feature","id":"building_169","properties":{"class":"building"},"geometry":{"type":"Polygon","coordinates":[[[421.514,161.497],[425.516,236.318],[453.956,235.033],[450.796,160.212],[421.514,161.497]]]},"junctions":[]},{"type":"Feature","id":"building_017","properties":{"class":"building"},"geometry":{"type":"Polygon","coordinates":[[[628.202,1013.725],[628.202,1023.015],[643.308,1023.015],[643.308,1013.725],[628.202,1013.725]]]},"junctions":[]},{"type":"Feature","id":"building_170","properties":{"class":"building"},"geometry":{"type":"Polygon","coordinates":[[[599.578,145.875],[599.864,159.287],[624.032,157.987],[623.461,144.983],[599.578,145.875]]]},"junctions":[]},{"type":"Feature","id":"building_171","properties":{"class":"building"},"geometry":{"type":"Polygon","coordinates":[[[566.755,135.416],[566.755,163.034],[577.605,162.747],[577.605,135.416],[566.755,135.416]]]},"junctions":[]},{"type":"Feature","id":"building_172","properties":{"class":"building"},"geometry":{"type":"Polygon","coordinates":[[[397.954,114.854],[397.954,146.406],[409.556,146.406],[409.556,114.854],[397.954,114.854]]]},"junctions":[]},{"type":"Feature","id":"building_173","properties":{"class":"building"},"geometry":{"type":"Polygon","coordinates":[[[447.396,80.758],[450.052,157.829],[476.204,156.814],[473.174,79.641],[447.396,80.758]]]},"junctions":[]},{"type":"Feature","id":"building_174","properties":{"class":"building"},"geometry":{"type":"Polygon","coordinates":[[[430.711,78.889],[440.71,157.42],[449.399,156.801],[444.302,77.96],[430.711,78.889]]]},"junctions":[]},{"type":"Feature","id":"building_175","properties":{"class":"building"},"geometry":{"type":"Polygon","coordinates":[[[397.344,73.871],[398.187,102.164],[408.726,101.75],[407.691,73.156],[397.344,73.871]]]},"junctions":[]},{"type":"Feature","id":"building_176","properties":{"class":"building"},"geometry":{"type":"Polygon","coordinates":[[[444.259,24.503],[444.577,36.306],[466.541,35.677],[466.223,23.874],[444.259,24.503]]]},"junctions":[]},{"type":"Feature","id":"building_177","properties":{"class":"building"},"geometry":{"type":"Polygon","coordinates":[[[193.852,458.189],[194.022,475.059],[210.198,474.648],[210.198,457.481],[193.852,458.189]]]},"junctions":[]},{"type":"Feature","id":"building_178","properties":{"class":"building"},"geometry":{"type":"Polygon","coordinates":[[[172.35,460.512],[172.43,465.212],[177.345,465.091],[177.506,470.195],[193.03,469.818],[192.735,459.825],[172.35,460.512]]]},"junctions":[]},{"type":"Feature","id":"building_179","properties":{"class":"building"},"geometry":{"type":"Polygon","coordinates":[[[101.995,431.502],[102.967,462.862],[111.197,466.11],[111.457,467.882],[138.804,466.642],[139.452,474.733],[151.895,474.024],[147.488,429.257],[101.995,431.502]]]},"junctions":[]},{"type":"Feature","id":"building_018","properties":{"class":"building"},"geometry":{"type":"Polygon","coordinates":[[[475.539,986.309],[478.969,1024.02],[497.731,1024.02],[494.791,984.62],[475.539,986.309]]]},"junctions":[]},{"type":"Feature","id":"building_180","properties":{"class":"building"},"geometry":{"type":"Polygon","coordinates":[[[173.504,436.303],[173.839,457.851],[225.026,457.217],[224.691,435.669],[173.504,436.303]]]},"junctions":[]},{"type":"Feature","id":"building_181","properties":{"class":"building"},"geometry":{"type":"Polygon","coordinates":[[[99.529,357.476],[100.657,382.223],[121.801,381.956],[121.425,356.507],[99.529,357.476]]]},"junctions":[]},{"type":"Feature","id":"building_182","properties":{"class":"building"},"geometry":{"type":"Polygon","coordinates":[[[33.152,321.592],[33.433,328.792],[36.193,328.792],[36.755,355.028],[53.224,375.417],[69.178,375.061],[68.897,320.523],[33.152,321.592]]]},"junctions":[]},{"type":"Feature","id":"building_183","properties":{"class":"building"},"geometry":{"type":"Polygon","coordinates":[[[168.762,322.355],[168.982,348.051],[202.453,347.475],[202.819,355.007],[225.158,354.475],[224.353,320.893],[216.516,321.026],[168.762,322.355]]]},"junctions":[]},{"type":"Feature","id":"building_184","properties":{"class":"building"},"geometry":{"type":"Polygon","coordinates":[[[95.962,286.918],[96.837,355.974],[122.294,355.974],[123.17,366.136],[135.862,365.674],[136.154,375.374],[152.128,374.797],[149.429,286.456],[95.962,286.918]]]},"junctions":[]},{"type":"Feature","id":"building_185","properties":{"class":"building"},"geometry":{"type":"Polygon","coordinates":[[[167.555,301.296],[168.809,322.111],[218.405,320.053],[217.679,299.789],[167.555,301.296]]]},"junctions":[]},{"type":"Feature","id":"building_186","properties":{"class":"building"},"geometry":{"type":"Polygon","coordinates":[[[136.132,286.614],[136.132,313.192],[150.406,312.531],[150.406,286.406],[136.132,286.614]]]},"junctions":[]},{"type":"Feature","id":"building_187","properties":{"class":"building"},"geometry":{"type":"Polygon","coordinates":[[[235.78,458.681],[236.414,474.131],[276.45,473.155],[274.971,432.389],[260.71,432.714],[261.661,457.705],[235.78,458.681]]]},"junctions":[]},{"type":"Feature","id":"building_188","properties":{"class":"building"},"geometry":{"type":"Polygon","coordinates":[[[196.583,355.17],[196.583,380.993],[231.447,379.962],[230.542,365.142],[226.467,365.142],[226.467,354.517],[202.967,354.826],[196.583,355.17]]]},"junctions":[]},{"type":"Feature","id":"building_189","properties":{"class":"building"},"geometry":{"type":"Polygon","coordinates":[[[224.772,328.958],[225.853,365.529],[260.958,364.253],[260.723,345.894],[256.729,345.403],[256.541,327.731],[224.772,328.958]]]},"junctions":[]},{"type":"Feature","id":"building_019","properties":{"class":"building"},"geometry":{"type":"Polygon","coordinates":[[[382.511,998.296],[382.658,1006.965],[420.339,1006.162],[420.192,997.305],[382.511,998.296]]]},"junctions":[]},{"type":"Feature","id":"building_190","properties":{"class":"building"},"geometry":{"type":"Polygon","coordinates":[[[300.586,319.016],[301.238,345.894],[328.484,344.804],[327.832,317.926],[300.586,319.016]]]},"junctions":[]},{"type":"Feature","id":"building_191","properties":{"class":"building"},"geometry":{"type":"Polygon","coordinates":[[[340.733,317.972],[340.733,338.811],[373.787,337.878],[372.885,317.039],[340.733,317.972]]]},"junctions":[]},{"type":"Feature","id":"building_192","properties":{"class":"building"},"geometry":{"type":"Polygon","coordinates":[[[217.724,302.022],[218.188,318.548],[229.256,318.262],[228.821,301.582],[217.724,302.022]]]},"junctions":[]},{"type":"Feature","id":"building_193","properties":{"class":"building"},"geometry":{"type":"Polygon","coordinates":[[[262.119,284.813],[263.992,314.776],[324.821,311.485],[324.088,281.864],[262.119,284.813]]]},"junctions":[]},{"type":"Feature","id":"building_194","properties":{"class":"building"},"geometry":{"type":"Polygon","coordinates":[[[326.944,273.815],[328.24,310.569],[359.146,308.555],[357.85,271.801],[326.944,273.815]]]},"junctions":[]},{"type":"Feature","id":"building_195","properties":{"class":"building"},"geometry":{"type":"Polygon","coordinates":[[[333.728,262.206],[334.121,270.005],[356.972,268.134],[356.579,260.335],[333.728,262.206]]]},"junctions":[]},{"type":"Feature","id":"building_196","properties":{"class":"building"},"geometry":{"type":"Polygon","coordinates":[[[332.988,220.075],[333.503,241.011],[377.052,239.495],[376.537,218.559],[332.988,220.075]]]},"junctions":[]},{"type":"Feature","id":"building_197","properties":{"class":"building"},"geometry":{"type":"Polygon","coordinates":[[[167.57,280.384],[168.559,300.7],[188.15,299.456],[187.429,279.87],[167.57,280.384]]]},"junctions":[]},{"type":"Feature","id":"building_198","properties":{"class":"building"},"geometry":{"type":"Polygon","coordinates":[[[200.218,269.696],[200.49,289.41],[223.462,288.884],[223.19,269.17],[200.218,269.696]]]},"junctions":[]},{"type":"Feature","id":"building_199","properties":{"class":"building"},"geometry":{"type":"Polygon","coordinates":[[[54.061,233.536],[58.481,311.949],[72.069,311.436],[67.929,232.921],[54.061,233.536]]]},"junctions":[]},{"type":"Feature","id":"building_002","properties":{"class":"building"},"geometry":{"type":"Polygon","coordinates":[[[145.823,996.918],[146.215,1012.248],[179.377,1010.145],[178.549,995.552],[145.823,996.918]]]},"junctions":[]},{"type":"Feature","id":"building_200","properties":{"class":"building"},"geometry":{"type":"Polygon","coordinates":[[[72.252,231.791],[72.403,310.239],[88.908,309.934],[87.589,231.791],[72.252,231.791]]]},"junctions":[]},{"type":"Feature","id":"building_201","properties":{"class":"building"},"geometry":{"type":"Polygon","coordinates":[[[93.332,219.531],[94.233,256.659],[129.848,255.669],[128.947,218.541],[93.332,219.531]]]},"junctions":[]},{"type":"Feature","id":"building_202","properties":{"class":"building"},"geometry":{"type":"Polygon","coordinates":[[[164.019,213.213],[164.514,238.094],[206.341,235.877],[205.846,210.996],[164.019,213.213]]]},"junctions":[]},{"type":"Feature","id":"building_203","properties":{"class":"building"},"geometry":{"type":"Polygon","coordinates":[[[29.857,177.462],[30.994,226.025],[75.953,223.988],[74.816,175.425],[29.857,177.462]]]},"junctions":[]},{"type":"Feature","id":"building_204","properties":{"class":"building"},"geometry":{"type":"Polygon","coordinates":[[[89.266,168.363],[90.697,210.962],[116.814,210.279],[116.062,167.168],[89.266,168.363]]]},"junctions":[]},{"type":"Feature","id":"building_205","properties":{"class":"building"},"geometry":{"type":"Polygon","coordinates":[[[179.987,174.259],[180.564,198.252],[206.133,197.671],[205.25,173.388],[179.987,174.259]]]},"junctions":[]},{"type":"Feature","id":"building_206","properties":{"class":"building"},"geometry":{"type":"Polygon","coordinates":[[[115.777,167.777],[117.404,183.268],[141.343,182.429],[139.716,166.702],[115.777,167.777]]]},"junctions":[]},{"type":"Feature","id":"building_207","properties":{"class":"building"},"geometry":{"type":"Polygon","coordinates":[[[279.776,194.751],[280.6,229.408],[328.604,227.409],[327.78,192.752],[279.776,194.751]]]},"junctions":[]},{"type":"Feature","id":"building_208","properties":{"class":"building"},"geometry":{"type":"Polygon","coordinates":[[[225.577,176.748],[229.968,236.04],[252.203,235.022],[251.062,175.73],[225.577,176.748]]]},"junctions":[]},{"type":"Feature","id":"building_209","properties":{"class":"building"},"geometry":{"type":"Polygon","coordinates":[[[209.501,176.296],[211.137,226.055],[226.759,225.729],[225.123,175.905],[209.501,176.296]]]},"junctions":[]},{"type":"Feature","id":"building_021","properties":{"class":"building"},"geometry":{"type":"Polygon","coordinates":[[[562.316,969.145],[565.022,1006.299],[591.254,1004.956],[588.248,968.001],[562.316,969.145]]]},"junctions":[]},{"type":"Feature","id":"building_210","properties":{"class":"building"},"geometry":{"type":"Polygon","coordinates":[[[331.296,187.578],[332.047,214.644],[379.474,213.122],[378.723,186.056],[331.296,187.578]]]},"junctions":[]},{"type":"Feature","id":"building_211","properties":{"class":"building"},"geometry":{"type":"Polygon","coordinates":[[[281.717,166.832],[282.852,191.943],[327.713,190.458],[326.578,165.347],[281.717,166.832]]]},"junctions":[]},{"type":"Feature","id":"building_212","properties":{"class":"building"},"geometry":{"type":"Polygon","coordinates":[[[329.115,154.249],[329.957,174.751],[378.985,172.701],[378.143,152.199],[329.115,154.249]]]},"junctions":[]},{"type":"Feature","id":"building_213","properties":{"class":"building"},"geometry":{"type":"Polygon","coordinates":[[[208.156,137.805],[209.277,162.193],[256.094,160.904],[254.973,136.747],[208.156,137.805]]]},"junctions":[]},{"type":"Feature","id":"building_214","properties":{"class":"building"},"geometry":{"type":"Polygon","coordinates":[[[276.741,131.197],[276.741,139.103],[273.006,139.103],[273.006,148.369],[279.792,156.884],[320.944,154.88],[317.209,129.336],[276.741,131.197]]]},"junctions":[]},{"type":"Feature","id":"building_215","properties":{"class":"building"},"geometry":{"type":"Polygon","coordinates":[[[330.09,101.15],[331.72,144.372],[369.31,143.16],[367.68,99.938],[330.09,101.15]]]},"junctions":[]},{"type":"Feature","id":"building_216","properties":{"class":"building"},"geometry":{"type":"Polygon","coordinates":[[[273.246,90.178],[273.941,113.692],[321.904,113.295],[321.336,90.453],[273.246,90.178]]]},"junctions":[]},{"type":"Feature","id":"building_217","properties":{"class":"building"},"geometry":{"type":"Polygon","coordinates":[[[27.379,120.749],[29.087,166.794],[69.811,165.691],[69.591,156.201],[68.323,150.017],[67.662,143.771],[64.411,142.73],[63.694,136.485],[60.388,136.179],[60.112,119.646],[27.379,120.749]]]},"junctions":[]},{"type":"Feature","id":"building_218","properties":{"class":"building"},"geometry":{"type":"Polygon","coordinates":[[[86.572,120.099],[87.222,164.124],[142.128,163.45],[141.478,116.976],[86.572,120.099]]]},"junctions":[]},{"type":"Feature","id":"building_219","properties":{"class":"building"},"geometry":{"type":"Polygon","coordinates":[[[186.401,110.737],[186.623,128.279],[203.469,127.543],[203.247,110.001],[186.401,110.737]]]},"junctions":[]},{"type":"Feature","id":"building_022","properties":{"class":"building"},"geometry":{"type":"Polygon","coordinates":[[[588.887,967.873],[589.584,1005.139],[614.453,1004.247],[613.756,966.981],[588.887,967.873]]]},"junctions":[]},{"type":"Feature","id":"building_220","properties":{"class":"building"},"geometry":{"type":"Polygon","coordinates":[[[29.546,62.992],[29.925,78.499],[78.234,76.158],[77.855,60.651],[29.546,62.992]]]},"junctions":[]},{"type":"Feature","id":"building_221","properties":{"class":"building"},"geometry":{"type":"Polygon","coordinates":[[[81.693,60.47],[82.044,75.159],[115.507,74.784],[114.804,57.091],[81.693,60.47]]]},"junctions":[]},{"type":"Feature","id":"building_222","properties":{"class":"building"},"geometry":{"type":"Polygon","coordinates":[[[171.433,26.653],[177.465,94.705],[204.847,92.498],[199.162,23.895],[171.433,26.653]]]},"junctions":[]},{"type":"Feature","id":"building_223","properties":{"class":"building"},"geometry":{"type":"Polygon","coordinates":[[[83.163,30.923],[83.26,44.727],[98.167,44.727],[98.167,30.923],[83.163,30.923]]]},"junctions":[]},{"type":"Feature","id":"building_224","properties":{"class":"building"},"geometry":{"type":"Polygon","coordinates":[[[99.801,10.334],[100.808,45.998],[117.429,45.576],[116.422,9.912],[99.801,10.334]]]},"junctions":[]},{"type":"Feature","id":"building_225","properties":{"class":"building"},"geometry":{"type":"Polygon","coordinates":[[[31.298,10.89],[31.526,27.659],[75.262,26.47],[75.034,9.701],[31.298,10.89]]]},"junctions":[]},{"type":"Feature","id":"building_226","properties":{"class":"building"},"geometry":{"type":"Polygon","coordinates":[[[327.909,70.224],[328.62,95.273],[370.001,94.116],[369.29,69.067],[327.909,70.224]]]},"junctions":[]},{"type":"Feature","id":"building_227","properties":{"class":"building"},"geometry":{"type":"Polygon","coordinates":[[[208.406,70.482],[208.692,87.929],[235.954,87.368],[235.668,69.921],[208.406,70.482]]]},"junctions":[]},{"type":"Feature","id":"building_228","properties":{"class":"building"},"geometry":{"type":"Polygon","coordinates":[[[286.551,58.82],[287.298,82.673],[324.909,80.864],[324.112,56.877],[286.551,58.82]]]},"junctions":[]},{"type":"Feature","id":"building_229","properties":{"class":"building"},"geometry":{"type":"Polygon","coordinates":[[[283.65,41.17],[284.636,56.159],[323.6,55.216],[322.614,38.881],[283.65,41.17]]]},"junctions":[]},{"type":"Feature","id":"building_023","properties":{"class":"building"},"geometry":{"type":"Polygon","coordinates":[[[514.145,968.056],[515.958,996.314],[524.115,995.874],[524.115,968.056],[514.145,968.056]]]},"junctions":[]},{"type":"Feature","id":"building_230","properties":{"class":"building"},"geometry":{"type":"Polygon","coordinates":[[[325.249,34.868],[325.249,59.582],[367.841,59.293],[367.841,34.868],[325.249,34.868]]]},"junctions":[]},{"type":"Feature","id":"building_231","properties":{"class":"building"},"geometry":{"type":"Polygon","coordinates":[[[203.6,23.991],[206.947,42.932],[244.51,39.909],[243.182,26.921],[242.12,19.178],[203.6,23.991]]]},"junctions":[]},{"type":"Feature","id":"building_232","properties":{"class":"building"},"geometry":{"type":"Polygon","coordinates":[[[292.846,15.551],[292.846,32.849],[320.404,32.849],[320.404,15.551],[292.846,15.551]]]},"junctions":[]},{"type":"Feature","id":"building_233","properties":{"class":"building"},"geometry":{"type":"Polygon","coordinates":[[[323.083,5.973],[323.379,26.53],[336.467,26.287],[336.171,5.73],[323.083,5.973]]]},"junctions":[]},{"type":"Feature","id":"building_234","properties":{"class":"building"},"geometry":{"type":"Polygon","coordinates":[[[202.844,0.842],[205.269,16.868],[233.956,13.85],[232.865,0.842],[202.844,0.842]]]},"junctions":[]},{"type":"Feature","id":"building_024","properties":{"class":"building"},"geometry":{"type":"Polygon","coordinates":[[[622.117,971.405],[623.481,990.97],[628.983,990.683],[628.983,970.91],[622.117,971.405]]]},"junctions":[]},{"type":"Feature","id":"building_025","properties":{"class":"building"},"geometry":{"type":"Polygon","coordinates":[[[482.406,908.902],[483.638,945.319],[511.164,945.319],[510.38,907.781],[482.406,908.902]]]},"junctions":[]},{"type":"Feature","id":"building_026","properties":{"class":"building"},"geometry":{"type":"Polygon","coordinates":[[[380.98,920.616],[380.98,927.104],[420.022,928.374],[420.38,921.765],[380.98,920.616]]]},"junctions":[]},{"type":"Feature","id":"building_027","properties":{"class":"building"},"geometry":{"type":"Polygon","coordinates":[[[515.485,889.717],[516.633,931.272],[564.585,929.703],[563.437,888.148],[515.485,889.717]]]},"junctions":[]},{"type":"Feature","id":"building_028","properties":{"class":"building"},"geometry":{"type":"Polygon","coordinates":[[[353.244,872.048],[354.21,929.66],[446.286,926.147],[442.661,869.55],[353.244,872.048]]]},"junctions":[]},{"type":"Feature","id":"building_029","properties":{"class":"building"},"geometry":{"type":"Polygon","coordinates":[[[512.763,851.486],[514.72,887.608],[527.397,887.224],[524.965,850.622],[512.763,851.486]]]},"junctions":[]},{"type":"Feature","id":"building_003","properties":{"class":"building"},"geometry":{"type":"Polygon","coordinates":[[[77.913,996.476],[78.026,1005.334],[92.437,1005.334],[92.135,996.706],[77.913,996.476]]]},"junctions":[]},{"type":"Feature","id":"building_030","properties":{"class":"building"},"geometry":{"type":"Polygon","coordinates":[[[466.727,852.355],[467.21,884.807],[513.213,883.215],[512.73,850.763],[466.727,852.355]]]},"junctions":[]},{"type":"Feature","id":"building_031","properties":{"class":"building"},"geometry":{"type":"Polygon","coordinates":[[[525.364,841.228],[527.097,885.773],[557.906,884.622],[555.751,839.107],[525.364,841.228]]]},"junctions":[]},{"type":"Feature","id":"building_032","properties":{"class":"building"},"geometry":{"type":"Polygon","coordinates":[[[371.459,842.477],[371.459,849.223],[434.291,849.223],[434.291,844.431],[417.155,844.431],[417.155,842.477],[371.459,842.477]]]},"junctions":[]},{"type":"Feature","id":"building_033","properties":{"class":"building"},"geometry":{"type":"Polygon","coordinates":[[[554.679,816.712],[556.314,862.674],[576.381,861.448],[574.746,815.486],[554.679,816.712]]]},"junctions":[]},{"type":"Feature","id":"building_034","properties":{"class":"building"},"geometry":{"type":"Polygon","coordinates":[[[575.799,815.909],[577.248,861.864],[598.121,861.19],[597.976,814.746],[575.799,815.909]]]},"junctions":[]},{"type":"Feature","id":"building_035","properties":{"class":"building"},"geometry":{"type":"Polygon","coordinates":[[[597.27,815.102],[598.915,860.943],[617.38,860.274],[616.074,814.067],[597.27,815.102]]]},"junctions":[]},{"type":"Feature","id":"building_036","properties":{"class":"building"},"geometry":{"type":"Polygon","coordinates":[[[472.869,788.134],[472.869,799.216],[494.481,799.216],[494.481,788.134],[472.869,788.134]]]},"junctions":[]},{"type":"Feature","id":"building_037","properties":{"class":"building"},"geometry":{"type":"Polygon","coordinates":[[[675.315,916.084],[675.959,928.236],[704.445,928.236],[704.066,916.084],[675.315,916.084]]]},"junctions":[]},{"type":"Feature","id":"building_038","properties":{"class":"building"},"geometry":{"type":"Polygon","coordinates":[[[654.265,895.359],[654.653,917.081],[704.045,915.322],[702.881,894.509],[654.265,895.359]]]},"junctions":[]},{"type":"Feature","id":"building_039","properties":{"class":"building"},"geometry":{"type":"Polygon","coordinates":[[[738.226,878.757],[738.48,886.178],[736.256,886.178],[736.764,916.509],[757.102,916.509],[757.738,933.008],[768.161,933.008],[767.907,921.985],[785.194,921.336],[784.686,877.532],[738.226,878.757]]]},"junctions":[]},{"type":"Feature","id":"building_004","properties":{"class":"building"},"geometry":{"type":"Polygon","coordinates":[[[-0.007,988.753],[-0.007,1001.305],[12.761,1001.797],[13.137,989.787],[-0.007,988.753]]]},"junctions":[]},{"type":"Feature","id":"building_040","properties":{"class":"building"},"geometry":{"type":"Polygon","coordinates":[[[704.453,881.058],[704.797,914.327],[734.115,913.789],[733.987,904.463],[734.845,904.463],[734.716,887.829],[737.507,887.829],[737.292,879.803],[704.453,881.058]]]},"junctions":[]},{"type":"Feature","id":"building_041","properties":{"class":"building"},"geometry":{"type":"Polygon","coordinates":[[[653.775,881.903],[654.934,896.579],[703.325,894.508],[702.553,879.431],[653.775,881.903]]]},"junctions":[]},{"type":"Feature","id":"building_042","properties":{"class":"building"},"geometry":{"type":"Polygon","coordinates":[[[680.446,810.536],[681.657,854.443],[708.714,853.243],[707.172,808.257],[680.446,810.536]]]},"junctions":[]},{"type":"Feature","id":"building_043","properties":{"class":"building"},"geometry":{"type":"Polygon","coordinates":[[[706.366,807.896],[708.375,853.453],[733.994,852.494],[733.743,807.297],[706.366,807.896]]]},"junctions":[]},{"type":"Feature","id":"building_044","properties":{"class":"building"},"geometry":{"type":"Polygon","coordinates":[[[743.478,761.036],[744.205,768.27],[738.604,768.774],[740.271,788.456],[771.526,785.428],[769.346,756.074],[743.478,761.036]]]},"junctions":[]},{"type":"Feature","id":"building_045","properties":{"class":"building"},"geometry":{"type":"Polygon","coordinates":[[[680.633,742.069],[680.767,751.864],[677.093,751.864],[679.378,786.322],[711.597,785.623],[709.984,741.428],[680.633,742.069]]]},"junctions":[]},{"type":"Feature","id":"building_046","properties":{"class":"building"},"geometry":{"type":"Polygon","coordinates":[[[715.779,728.575],[716.385,752.523],[758.191,751.245],[757.585,727.297],[715.779,728.575]]]},"junctions":[]},{"type":"Feature","id":"building_047","properties":{"class":"building"},"geometry":{"type":"Polygon","coordinates":[[[-0.006,906.61],[-0.006,945.46],[11.036,945.153],[10.132,906.15],[-0.006,906.61]]]},"junctions":[]},{"type":"Feature","id":"building_048","properties":{"class":"building"},"geometry":{"type":"Polygon","coordinates":[[[91.451,954.049],[93.536,993.0],[129.679,991.095],[128.19,952.25],[91.451,954.049]]]},"junctions":[]},{"type":"Feature","id":"building_049","properties":{"class":"building"},"geometry":{"type":"Polygon","coordinates":[[[151.44,950.345],[151.718,958.474],[170.87,957.775],[170.592,949.646],[151.44,950.345]]]},"junctions":[]},{"type":"Feature","id":"building_005","properties":{"class":"building"},"geometry":{"type":"Polygon","coordinates":[[[156.659,981.669],[157.006,996.508],[178.931,994.691],[178.584,979.852],[156.659,981.669]]]},"junctions":[]},{"type":"Feature","id":"building_050","properties":{"class":"building"},"geometry":{"type":"Polygon","coordinates":[[[129.961,934.97],[130.316,960.983],[148.169,960.81],[147.98,934.277],[129.961,934.97]]]},"junctions":[]},{"type":"Feature","id":"building_051","properties":{"class":"building"},"geometry":{"type":"Polygon","coordinates":[[[87.771,893.664],[91.174,950.869],[126.309,948.654],[122.205,892.061],[87.771,893.664]]]},"junctions":[]},{"type":"Feature","id":"building_052","properties":{"class":"building"},"geometry":{"type":"Polygon","coordinates":[[[123.312,891.08],[124.792,928.741],[180.298,926.868],[177.264,887.549],[123.312,891.08]]]},"junctions":[]},{"type":"Feature","id":"building_053","properties":{"class":"building"},"geometry":{"type":"Polygon","coordinates":[[[118.738,837.457],[119.257,859.252],[156.874,858.394],[156.874,850.61],[163.162,850.42],[162.412,834.788],[141.931,835.264],[133.161,835.55],[118.738,837.457]]]},"junctions":[]},{"type":"Feature","id":"building_054","properties":{"class":"building"},"geometry":{"type":"Polygon","coordinates":[[[74.504,833.173],[74.805,841.673],[63.271,841.803],[63.271,858.717],[121.319,857.806],[121.017,838.507],[120.867,836.469],[120.716,834.474],[120.49,832.479],[120.339,830.527],[120.188,828.489],[120.037,826.538],[119.811,825.323],[104.583,825.714],[104.885,839.331],[87.395,839.591],[87.395,833.173],[74.504,833.173]]]},"junctions":[]},{"type":"Feature","id":"building_055","properties":{"class":"building"},"geometry":{"type":"Polygon","coordinates":[[[125.685,800.2],[125.88,822.161],[155.665,821.96],[155.47,799.999],[125.685,800.2]]]},"junctions":[]},{"type":"Feature","id":"building_056","properties":{"class":"building"},"geometry":{"type":"Polygon","coordinates":[[[99.283,796.964],[100.003,824.452],[116.607,824.059],[116.112,796.964],[99.283,796.964]]]},"junctions":[]},{"type":"Feature","id":"building_057","properties":{"class":"building"},"geometry":{"type":"Polygon","coordinates":[[[116.386,755.598],[117.51,792.96],[164.464,790.912],[163.34,753.55],[116.386,755.598]]]},"junctions":[]},{"type":"Feature","id":"building_059","properties":{"class":"building"},"geometry":{"type":"Polygon","coordinates":[[[71.989,758.203],[72.922,788.116],[114.261,786.347],[113.328,756.434],[71.989,758.203]]]},"junctions":[]},{"type":"Feature","id":"building_006","properties":{"class":"building"},"geometry":{"type":"Polygon","coordinates":[[[134.588,962.979],[135.219,991.295],[156.899,990.117],[156.269,981.516],[178.752,981.084],[178.121,961.055],[134.588,962.979]]]},"junctions":[]},{"type":"Feature","id":"building_060","properties":{"class":"building"},"geometry":{"type":"Polygon","coordinates":[[[60.676,734.715],[61.126,751.629],[89.584,750.775],[89.134,733.861],[60.676,734.715]]]},"junctions":[]},{"type":"Feature","id":"building_061","properties":{"class":"building"},"geometry":{"type":"Polygon","coordinates":[[[116.548,715.851],[118.073,749.608],[141.532,748.285],[141.305,744.088],[140.884,714.482],[116.548,715.851]]]},"junctions":[]},{"type":"Feature","id":"building_062","properties":{"class":"building"},"geometry":{"type":"Polygon","coordinates":[[[80.669,718.894],[81.194,731.376],[101.911,730.906],[101.662,719.04],[80.669,718.894]]]},"junctions":[]},{"type":"Feature","id":"building_063","properties":{"class":"building"},"geometry":{"type":"Polygon","coordinates":[[[80.404,703.611],[81.182,730.884],[111.926,729.729],[111.066,702.196],[80.404,703.611]]]},"junctions":[]},{"type":"Feature","id":"building_064","properties":{"class":"building"},"geometry":{"type":"Polygon","coordinates":[[[111.746,683.77],[112.795,705.722],[159.244,703.07],[158.195,681.118],[111.746,683.77]]]},"junctions":[]},{"type":"Feature","id":"building_066","properties":{"class":"building"},"geometry":{"type":"Polygon","coordinates":[[[111.567,646.643],[112.224,668.962],[157.553,667.707],[156.896,645.388],[111.567,646.643]]]},"junctions":[]},{"type":"Feature","id":"building_067","properties":{"class":"building"},"geometry":{"type":"Polygon","coordinates":[[[183.818,628.976],[186.08,660.491],[190.087,660.899],[190.54,667.08],[208.702,666.109],[206.893,627.75],[183.818,628.976]]]},"junctions":[]},{"type":"Feature","id":"building_068","properties":{"class":"building"},"geometry":{"type":"Polygon","coordinates":[[[109.907,605.459],[110.927,629.283],[118.85,629.283],[118.25,619.311],[129.174,618.801],[129.834,627.581],[156.123,627.343],[154.503,603.077],[109.907,605.459]]]},"junctions":[]},{"type":"Feature","id":"building_069","properties":{"class":"building"},"geometry":{"type":"Polygon","coordinates":[[[313.656,679.581],[314.98,722.522],[341.984,721.441],[341.763,678.728],[313.656,679.581]]]},"junctions":[]},{"type":"Feature","id":"building_007","properties":{"class":"building"},"geometry":{"type":"Polygon","coordinates":[[[85.076,955.462],[85.726,993.429],[93.284,992.878],[92.463,954.861],[85.076,955.462]]]},"junctions":[]},{"type":"Feature","id":"building_070","properties":{"class":"building"},"geometry":{"type":"Polygon","coordinates":[[[344.705,678.081],[345.775,720.822],[374.135,719.799],[373.065,677.058],[344.705,678.081]]]},"junctions":[]},{"type":"Feature","id":"building_071","properties":{"class":"building"},"geometry":{"type":"Polygon","coordinates":[[[376.055,677.484],[377.344,720.472],[406.125,718.924],[405.266,676.338],[376.055,677.484]]]},"junctions":[]},{"type":"Feature","id":"building_072","properties":{"class":"building"},"geometry":{"type":"Polygon","coordinates":[[[209.763,627.004],[211.137,664.129],[242.807,663.227],[241.433,625.551],[209.763,627.004]]]},"junctions":[]},{"type":"Feature","id":"building_073","properties":{"class":"building"},"geometry":{"type":"Polygon","coordinates":[[[245.928,614.179],[246.217,633.92],[270.702,633.421],[270.413,613.68],[245.928,614.179]]]},"junctions":[]},{"type":"Feature","id":"building_075","properties":{"class":"building"},"geometry":{"type":"Polygon","coordinates":[[[287.765,600.91],[288.328,611.366],[318.755,609.53],[318.192,599.074],[287.765,600.91]]]},"junctions":[]},{"type":"Feature","id":"building_076","properties":{"class":"building"},"geometry":{"type":"Polygon","coordinates":[[[206.136,594.745],[206.248,611.329],[235.114,610.795],[235.002,594.211],[206.136,594.745]]]},"junctions":[]},{"type":"Feature","id":"building_077","properties":{"class":"building"},"geometry":{"type":"Polygon","coordinates":[[[266.003,596.294],[266.284,607.906],[280.447,607.619],[279.884,596.294],[266.003,596.294]]]},"junctions":[]},{"type":"Feature","id":"building_078","properties":{"class":"building"},"geometry":{"type":"Polygon","coordinates":[[[325.049,575.329],[325.675,588.098],[330.83,587.915],[331.596,598.085],[318.397,598.86],[319.337,609.988],[345.213,608.528],[341.104,574.872],[325.049,575.329]]]},"junctions":[]},{"type":"Feature","id":"building_079","properties":{"class":"building"},"geometry":{"type":"Polygon","coordinates":[[[49.54,565.043],[53.029,637.617],[89.05,636.366],[84.996,563.503],[49.54,565.043]]]},"junctions":[]},{"type":"Feature","id":"building_008","properties":{"class":"building"},"geometry":{"type":"Polygon","coordinates":[[[357.083,954.436],[359.222,994.211],[391.397,993.611],[389.793,952.199],[357.083,954.436]]]},"junctions":[]},{"type":"Feature","id":"building_080","properties":{"class":"building"},"geometry":{"type":"Polygon","coordinates":[[[187.283,585.827],[187.283,611.523],[201.327,611.523],[201.327,585.827],[187.283,585.827]]]},"junctions":[]},{"type":"Feature","id":"building_081","properties":{"class":"building"},"geometry":{"type":"Polygon","coordinates":[[[118.621,578.894],[119.216,592.718],[156.779,591.753],[155.937,575.822],[118.621,578.894]]]},"junctions":[]},{"type":"Feature","id":"building_082","properties":{"class":"building"},"geometry":{"type":"Polygon","coordinates":[[[79.383,505.61],[80.25,539.931],[75.135,539.931],[75.135,546.33],[86.075,546.33],[86.075,505.61],[79.383,505.61]]]},"junctions":[]},{"type":"Feature","id":"building_083","properties":{"class":"building"},"geometry":{"type":"Polygon","coordinates":[[[61.888,498.144],[62.517,539.901],[80.524,539.516],[80.315,508.432],[84.922,508.322],[84.742,497.539],[61.888,498.144]]]},"junctions":[]},{"type":"Feature","id":"building_084","properties":{"class":"building"},"geometry":{"type":"Polygon","coordinates":[[[40.009,495.66],[42.283,538.952],[62.461,538.44],[61.324,495.148],[40.009,495.66]]]},"junctions":[]},{"type":"Feature","id":"building_085","properties":{"class":"building"},"geometry":{"type":"Polygon","coordinates":[[[116.436,495.239],[116.917,518.171],[144.914,517.814],[143.472,495.239],[116.436,495.239]]]},"junctions":[]},{"type":"Feature","id":"building_086","properties":{"class":"building"},"geometry":{"type":"Polygon","coordinates":[[[84.9,496.826],[84.978,504.384],[104.85,504.168],[104.384,497.121],[84.9,496.826]]]},"junctions":[]},{"type":"Feature","id":"building_087","properties":{"class":"building"},"geometry":{"type":"Polygon","coordinates":[[[188.331,492.693],[188.331,505.927],[206.779,505.927],[206.779,492.693],[188.331,492.693]]]},"junctions":[]},{"type":"Feature","id":"building_088","properties":{"class":"building"},"geometry":{"type":"Polygon","coordinates":[[[193.841,476.471],[194.035,486.856],[231.029,486.119],[230.835,475.734],[193.841,476.471]]]},"junctions":[]},{"type":"Feature","id":"building_089","properties":{"class":"building"},"geometry":{"type":"Polygon","coordinates":[[[241.094,568.138],[241.911,611.522],[252.956,611.522],[252.494,568.138],[241.094,568.138]]]},"junctions":[]},{"type":"Feature","id":"building_009","properties":{"class":"building"},"geometry":{"type":"Polygon","coordinates":[[[355.897,929.297],[356.563,953.814],[441.273,951.725],[439.166,925.596],[355.897,929.297]]]},"junctions":[]},{"type":"Feature","id":"building_090","properties":{"class":"building"},"geometry":{"type":"Polygon","coordinates":[[[374.207,575.089],[374.473,601.664],[399.773,600.661],[399.507,586.657],[386.625,574.086],[374.207,575.089]]]},"junctions":[]},{"type":"Feature","id":"building_091","properties":{"class":"building"},"geometry":{"type":"Polygon","coordinates":[[[274.596,567.901],[274.596,586.049],[282.004,586.049],[282.004,567.901],[274.596,567.901]]]},"junctions":[]},{"type":"Feature","id":"building_092","properties":{"class":"building"},"geometry":{"type":"Polygon","coordinates":[[[264.961,490.948],[265.214,534.872],[282.679,534.587],[282.058,491.29],[264.961,490.948]]]},"junctions":[]},{"type":"Feature","id":"building_093","properties":{"class":"building"},"geometry":{"type":"Polygon","coordinates":[[[373.313,485.199],[373.675,530.673],[390.538,530.372],[389.586,499.816],[408.217,499.455],[407.855,484.357],[373.313,485.199]]]},"junctions":[]},{"type":"Feature","id":"building_094","properties":{"class":"building"},"geometry":{"type":"Polygon","coordinates":[[[209.088,491.108],[209.303,513.792],[232.762,513.402],[232.547,490.718],[209.088,491.108]]]},"junctions":[]},{"type":"Feature","id":"building_095","properties":{"class":"building"},"geometry":{"type":"Polygon","coordinates":[[[235.35,490.826],[236.004,514.152],[256.34,513.174],[255.686,489.848],[235.35,490.826]]]},"junctions":[]},{"type":"Feature","id":"building_096","properties":{"class":"building"},"geometry":{"type":"Polygon","coordinates":[[[327.149,486.028],[327.848,504.98],[368.551,503.262],[367.852,484.31],[327.149,486.028]]]},"junctions":[]},{"type":"Feature","id":"building_097","properties":{"class":"building"},"geometry":{"type":"Polygon","coordinates":[[[212.253,459.685],[212.688,474.578],[226.837,473.995],[226.402,459.102],[212.253,459.685]]]},"junctions":[]},{"type":"Feature","id":"building_098","properties":{"class":"building"},"geometry":{"type":"Polygon","coordinates":[[[283.627,437.639],[284.331,456.844],[280.26,457.092],[280.965,483.694],[334.678,482.637],[335.226,470.766],[340.55,470.766],[339.611,435.836],[322.541,436.147],[296.938,436.831],[283.627,437.639]]]},"junctions":[]},{"type":"Feature","id":"building_099","properties":{"class":"building"},"geometry":{"type":"Polygon","coordinates":[[[497.808,783.476],[498.552,799.198],[561.432,798.857],[560.853,784.99],[518.217,785.396],[518.135,782.772],[497.808,783.476]]]},"junctions":[]},{"type":"Feature","id":"road_network","properties":{"class":"road","topologyMode":"stitched-graph"},"geometry":{"type":"MultiLineString","coordinates":[[[142,0],[151,106]],[[265,0],[268,128],[274,256]],[[382,0],[388,127],[399,255]],[[505,0],[510,127],[515,249]],[[839,0],[846,128],[854,255],[859,383]],[[0,27],[8,110]],[[4,64],[10,191],[15,319],[19,408]],[[268,64],[273,191],[274,256]],[[385,64],[392,191]],[[507,64],[513,191],[515,249]],[[816,64],[823,191],[827,319],[829,381]],[[842,64],[849,192],[855,319],[862,449]],[[127,104],[8,110]],[[151,106],[146,64],[153,191]],[[151,106],[64,110]],[[151,106],[152,127],[158,257]],[[151,106],[153,191]],[[8,110],[8,127],[13,255]],[[820,127],[813,0],[817,45],[820,127]],[[820,127],[826,255],[829,381]],[[153,191],[158,257]],[[153,191],[160,319]],[[767,236],[639,243],[515,249]],[[703,238],[576,245],[515,249]],[[515,249],[447,249],[319,254],[274,256]],[[515,249],[383,253],[255,257],[158,257]],[[515,249],[518,319]],[[515,249],[525,383]],[[0,256],[2,383]],[[274,256],[192,260]],[[158,257],[160,319]],[[158,257],[165,383],[166,406]],[[160,319],[166,406]],[[820,373],[703,380],[575,388],[441,395]],[[829,381],[767,380],[639,386],[511,391],[441,395]],[[829,381],[834,447],[842,576],[847,703]],[[829,381],[834,511],[843,640],[847,767],[851,895],[856,1023]],[[859,383],[862,449]],[[859,383],[869,511]],[[16,384],[18,511],[24,639],[30,767],[40,888]],[[441,395],[383,399],[255,404],[166,406]],[[441,395],[319,402],[191,406],[166,406]],[[441,395],[441,447],[447,541]],[[441,395],[449,511],[447,541]],[[166,406],[128,407],[19,408]],[[166,406],[64,411]],[[166,406],[166,447]],[[166,406],[170,511],[173,550]],[[19,408],[17,447],[17,556]],[[166,447],[169,484],[173,550]],[[166,447],[173,550]],[[862,449],[869,511]],[[862,449],[871,575],[877,703],[882,831],[883,959]],[[869,511],[872,639]],[[859,512],[872,639]],[[767,522],[639,527],[511,536],[447,541]],[[703,524],[575,530],[447,541]],[[447,541],[383,542],[255,546],[173,550]],[[447,541],[319,545],[191,550],[173,550]],[[447,541],[449,575],[453,668]],[[447,541],[452,639],[453,668]],[[173,550],[128,552],[17,556]],[[173,550],[64,553]],[[173,550],[174,575]],[[173,550],[175,639],[184,767],[187,879]],[[17,556],[20,575],[26,703],[27,831]],[[174,575],[174,614],[181,703]],[[174,575],[179,680]],[[783,576],[784,652]],[[872,639],[881,767]],[[767,651],[639,659],[511,666],[453,668]],[[784,652],[703,657],[575,663],[453,668]],[[784,652],[787,704],[789,798]],[[784,652],[788,768],[789,798]],[[453,668],[383,671],[256,677],[179,680]],[[453,668],[319,673],[192,680]],[[453,668],[454,703],[461,832],[470,963]],[[453,668],[457,767],[462,817],[465,896]],[[179,680],[181,703]],[[181,703],[186,831],[187,879]],[[847,703],[859,831]],[[847,703],[847,832],[854,959]],[[881,767],[881,895],[887,1023]],[[881,767],[896,895]],[[789,798],[767,798],[639,809],[512,817]],[[789,798],[703,802],[576,809]],[[789,798],[792,831],[801,949]],[[789,798],[794,895]],[[447,811],[320,817],[192,823]],[[383,814],[256,820]],[[36,832],[40,888]],[[637,832],[640,958]],[[187,879],[127,880],[40,888]],[[187,879],[64,887]],[[187,879],[189,895],[196,1023]],[[187,879],[191,959]],[[40,888],[0,890]],[[40,888],[46,959]],[[40,888],[51,1023]],[[465,896],[470,963]],[[465,896],[472,1023],[470,963]],[[767,949],[640,958]],[[801,949],[703,954],[575,961],[470,963]],[[801,949],[804,1023]],[[640,958],[512,963]]]},"junctions":[[151,106],[8,110],[820,127],[153,191],[515,249],[274,256],[158,257],[160,319],[829,381],[859,383],[441,395],[166,406],[19,408],[166,447],[862,449],[869,511],[447,541],[173,550],[17,556],[174,575],[872,639],[784,652],[453,668],[179,680],[181,703],[847,703],[881,767],[789,798],[187,879],[40,888],[465,896],[801,949],[640,958],[470,963]]}]}