{"type":"FeatureCollection","coordinateSystem":{"type":"image-pixel","origin":"top-left","x":"right","y":"down","georeferenced":false},"features":[{"type":"Feature","id":"building_000","properties":{"class":"building"},"geometry":{"type":"Polygon","coordinates":[[[623.099,998.203],[623.972,999.793],[593.814,1013.789],[592.443,1010.979],[577.364,1018.984],[578.361,1020.946],[571.632,1024.02],[622.352,1024.02],[632.695,1019.249],[634.813,1024.02],[638.677,1024.02],[656.248,1014.637],[653.88,1007.851],[667.588,1003.557],[659.737,983.2],[641.044,991.894],[639.923,989.561],[623.099,998.203]]]},"junctions":[]},{"type":"Feature","id":"building_001","properties":{"class":"building"},"geometry":{"type":"Polygon","coordinates":[[[526.442,908.697],[527.252,910.555],[492.429,926.691],[491.214,923.673],[476.029,932.147],[476.839,933.889],[460.642,941.435],[472.385,962.215],[485.747,954.785],[488.987,960.241],[507.613,950.025],[505.994,944.569],[534.338,931.683],[537.578,937.952],[555.597,928.432],[552.965,922.048],[581.714,908.929],[584.549,915.314],[605.2,904.286],[602.77,897.436],[616.538,893.257],[608.642,872.825],[590.015,881.532],[588.801,879.21],[571.996,887.801],[572.806,889.426],[542.639,903.473],[541.424,900.571],[526.442,908.697]]]},"junctions":[]},{"type":"Feature","id":"building_010","properties":{"class":"building"},"geometry":{"type":"Polygon","coordinates":[[[675.393,868.135],[664.139,874.242],[668.761,886.809],[652.683,894.207],[658.913,914.055],[807.437,845.469],[798.192,827.031],[779.501,835.604],[775.481,823.625],[763.222,829.967],[767.241,841.359],[730.261,858.388],[725.638,845.117],[713.58,851.576],[718.001,864.142],[680.217,881.524],[675.393,868.135]]]},"junctions":[]},{"type":"Feature","id":"building_100","properties":{"class":"building"},"geometry":{"type":"Polygon","coordinates":[[[484.859,244.68],[483.453,300.099],[483.325,303.488],[515.394,304.75],[531.748,305.38],[532.515,278.026],[513.605,278.893],[513.605,276.922],[513.605,260.761],[519.227,260.131],[519.355,246.02],[484.859,244.68]]]},"junctions":[]},{"type":"Feature","id":"building_101","properties":{"class":"building"},"geometry":{"type":"Polygon","coordinates":[[[536.145,266.064],[536.224,277.791],[566.615,278.676],[566.536,265.814],[536.145,266.064]]]},"junctions":[]},{"type":"Feature","id":"building_102","properties":{"class":"building"},"geometry":{"type":"Polygon","coordinates":[[[598.651,252.211],[598.651,290.519],[615.89,290.071],[616.469,253.206],[598.651,252.211]]]},"junctions":[]},{"type":"Feature","id":"building_103","properties":{"class":"building"},"geometry":{"type":"Polygon","coordinates":[[[709.537,313.342],[709.055,348.179],[720.631,348.41],[721.596,332.395],[732.73,332.072],[732.569,348.64],[739.523,348.778],[740.005,313.941],[709.537,313.342]]]},"junctions":[]},{"type":"Feature","id":"building_104","properties":{"class":"building"},"geometry":{"type":"Polygon","coordinates":[[[1008.452,304.559],[1009.099,325.267],[1019.947,325.027],[1020.129,327.582],[1024.008,327.552],[1024.008,304.438],[1008.452,304.559]]]},"junctions":[]},{"type":"Feature","id":"building_105","properties":{"class":"building"},"geometry":{"type":"Polygon","coordinates":[[[827.551,295.801],[826.375,333.157],[835.039,333.599],[836.215,296.243],[827.551,295.801]]]},"junctions":[]},{"type":"Feature","id":"building_106","properties":{"class":"building"},"geometry":{"type":"Polygon","coordinates":[[[837.93,271.108],[837.226,354.406],[863.6,354.732],[864.304,271.434],[837.93,271.108]]]},"junctions":[]},{"type":"Feature","id":"building_107","properties":{"class":"building"},"geometry":{"type":"Polygon","coordinates":[[[976.758,246.207],[977.754,305.93],[1000.722,305.303],[999.726,245.58],[976.758,246.207]]]},"junctions":[]},{"type":"Feature","id":"building_108","properties":{"class":"building"},"geometry":{"type":"Polygon","coordinates":[[[1011.594,248.526],[1012.222,302.987],[1024.006,302.774],[1024.006,248.313],[1011.594,248.526]]]},"junctions":[]},{"type":"Feature","id":"building_109","properties":{"class":"building"},"geometry":{"type":"Polygon","coordinates":[[[908.094,246.443],[907.164,298.886],[938.796,299.717],[939.726,247.274],[908.094,246.443]]]},"junctions":[]},{"type":"Feature","id":"building_011","properties":{"class":"building"},"geometry":{"type":"Polygon","coordinates":[[[1002.739,809.113],[1009.867,825.148],[1003.347,828.43],[1009.425,846.404],[1017.491,842.302],[1024.011,857.069],[1024.011,802.699],[1022.74,799.641],[1002.739,809.113]]]},"junctions":[]},{"type":"Feature","id":"building_110","properties":{"class":"building"},"geometry":{"type":"Polygon","coordinates":[[[776.001,249.728],[776.447,294.033],[833.139,293.152],[832.693,248.847],[776.001,249.728]]]},"junctions":[]},{"type":"Feature","id":"building_111","properties":{"class":"building"},"geometry":{"type":"Polygon","coordinates":[[[944.83,250.319],[944.498,291.358],[967.35,291.681],[967.682,250.642],[944.83,250.319]]]},"junctions":[]},{"type":"Feature","id":"building_112","properties":{"class":"building"},"geometry":{"type":"Polygon","coordinates":[[[658.791,124.866],[658.441,131.286],[637.929,131.789],[637.403,151.049],[772.397,152.484],[772.397,131.537],[753.112,132.255],[752.236,125.835],[725.763,124.866],[725.062,131.071],[684.563,131.286],[684.914,126.552],[658.791,124.866]]]},"junctions":[]},{"type":"Feature","id":"building_113","properties":{"class":"building"},"geometry":{"type":"Polygon","coordinates":[[[926.559,130.644],[925.925,151.053],[995.655,151.764],[995.021,130.111],[968.759,131.284],[968.759,124.884],[949.38,124.386],[949.017,131.284],[926.559,130.644]]]},"junctions":[]},{"type":"Feature","id":"building_114","properties":{"class":"building"},"geometry":{"type":"Polygon","coordinates":[[[803.954,124.146],[803.423,130.596],[780.232,130.173],[780.586,151.284],[916.548,151.037],[915.486,130.349],[897.605,130.349],[896.897,124.64],[871.227,124.64],[870.696,129.398],[829.978,130.103],[829.978,124.887],[803.954,124.146]]]},"junctions":[]},{"type":"Feature","id":"building_115","properties":{"class":"building"},"geometry":{"type":"Polygon","coordinates":[[[1006.829,102.073],[1007.027,114.872],[1008.388,114.872],[1009.154,122.269],[1002.179,122.767],[1002.576,135.566],[1006.46,135.815],[1006.063,160.582],[1024.011,160.0],[1024.011,96.588],[1008.87,96.754],[1008.757,101.575],[1006.829,102.073]]]},"junctions":[]},{"type":"Feature","id":"building_116","properties":{"class":"building"},"geometry":{"type":"Polygon","coordinates":[[[847.073,91.992],[846.886,106.953],[894.657,107.708],[894.844,92.747],[847.073,91.992]]]},"junctions":[]},{"type":"Feature","id":"building_117","properties":{"class":"building"},"geometry":{"type":"Polygon","coordinates":[[[869.926,-0.005],[870.191,10.324],[937.964,10.685],[937.787,-0.005],[869.926,-0.005]]]},"junctions":[]},{"type":"Feature","id":"building_118","properties":{"class":"building"},"geometry":{"type":"Polygon","coordinates":[[[947.87,-0.006],[947.618,9.079],[987.701,8.003],[987.533,11.046],[1011.902,10.5],[1012.322,-0.006],[947.87,-0.006]]]},"junctions":[]},{"type":"Feature","id":"building_119","properties":{"class":"building"},"geometry":{"type":"Polygon","coordinates":[[[573.688,243.235],[573.688,268.671],[577.581,269.381],[577.841,279.0],[583.552,278.678],[583.389,292.945],[598.672,292.945],[598.672,290.492],[598.672,252.209],[598.672,243.687],[573.688,243.235]]]},"junctions":[]},{"type":"Feature","id":"building_012","properties":{"class":"building"},"geometry":{"type":"Polygon","coordinates":[[[888.258,770.099],[873.13,777.491],[877.082,790.111],[861.818,797.142],[869.995,817.875],[966.762,773.164],[960.357,752.251],[939.64,761.626],[935.688,748.465],[921.241,755.226],[925.33,768.206],[925.193,768.206],[911.155,774.607],[892.483,783.17],[888.258,770.099]]]},"junctions":[]},{"type":"Feature","id":"building_120","properties":{"class":"building"},"geometry":{"type":"Polygon","coordinates":[[[522.803,245.104],[522.803,260.565],[513.61,260.772],[513.61,276.936],[532.862,275.82],[534.43,246.303],[522.803,245.104]]]},"junctions":[]},{"type":"Feature","id":"building_121","properties":{"class":"building"},"geometry":{"type":"Polygon","coordinates":[[[440.805,242.617],[436.986,261.596],[461.445,269.043],[465.264,250.064],[440.805,242.617]]]},"junctions":[]},{"type":"Feature","id":"building_122","properties":{"class":"building"},"geometry":{"type":"Polygon","coordinates":[[[471.665,117.902],[493.59,158.667],[490.007,160.612],[501.328,176.794],[525.975,163.442],[524.112,160.347],[582.005,132.316],[573.121,111.359],[554.922,120.909],[552.342,115.426],[530.417,126.568],[531.994,132.493],[512.362,141.777],[491.727,108.706],[471.665,117.902]]]},"junctions":[]},{"type":"Feature","id":"building_123","properties":{"class":"building"},"geometry":{"type":"Polygon","coordinates":[[[540.025,11.181],[561.871,51.662],[559.141,52.824],[570.351,69.534],[592.773,56.398],[591.192,53.539],[650.695,21.904],[640.634,2.155],[621.806,11.717],[619.506,7.696],[598.522,18.151],[599.959,23.155],[579.837,34.326],[559.141,0.726],[540.025,11.181]]]},"junctions":[]},{"type":"Feature","id":"building_013","properties":{"class":"building"},"geometry":{"type":"Polygon","coordinates":[[[993.955,762.813],[1000.748,782.847],[1024.015,770.98],[1024.015,751.803],[1022.766,748.103],[993.955,762.813]]]},"junctions":[]},{"type":"Feature","id":"building_014","properties":{"class":"building"},"geometry":{"type":"Polygon","coordinates":[[[793.183,718.191],[800.971,735.573],[794.235,740.258],[810.302,773.666],[803.777,778.104],[808.969,787.227],[816.968,781.556],[825.176,801.527],[847.207,789.569],[826.509,748.517],[832.684,744.449],[816.196,706.603],[793.183,718.191]]]},"junctions":[]},{"type":"Feature","id":"building_015","properties":{"class":"building"},"geometry":{"type":"Polygon","coordinates":[[[667.338,735.157],[671.306,744.405],[672.13,746.525],[655.731,755.714],[664.193,772.973],[713.389,749.942],[705.302,730.857],[687.48,739.516],[686.657,737.454],[683.062,727.617],[667.338,735.157]]]},"junctions":[]},{"type":"Feature","id":"building_016","properties":{"class":"building"},"geometry":{"type":"Polygon","coordinates":[[[955.694,691.406],[963.288,708.215],[953.457,712.129],[959.697,725.484],[969.527,721.954],[978.592,742.14],[998.783,731.932],[977.886,683.04],[955.694,691.406]]]},"junctions":[]},{"type":"Feature","id":"building_017","properties":{"class":"building"},"geometry":{"type":"Polygon","coordinates":[[[692.727,649.655],[692.154,679.947],[704.563,680.305],[705.136,650.013],[692.727,649.655]]]},"junctions":[]},{"type":"Feature","id":"building_018","properties":{"class":"building"},"geometry":{"type":"Polygon","coordinates":[[[707.466,647.303],[707.679,674.954],[734.784,674.627],[734.571,646.976],[707.466,647.303]]]},"junctions":[]},{"type":"Feature","id":"building_019","properties":{"class":"building"},"geometry":{"type":"Polygon","coordinates":[[[803.235,636.502],[809.419,666.04],[874.306,655.318],[868.952,625.57],[803.235,636.502]]]},"junctions":[]},{"type":"Feature","id":"building_002","properties":{"class":"building"},"geometry":{"type":"Polygon","coordinates":[[[480.008,796.437],[480.818,798.295],[445.997,814.431],[444.782,811.413],[429.598,819.887],[430.408,821.629],[414.212,829.175],[425.954,849.955],[439.316,842.525],[442.555,847.981],[461.18,837.765],[459.561,832.309],[487.904,819.423],[491.143,825.692],[509.161,816.172],[506.529,809.788],[535.277,796.669],[538.111,803.054],[558.761,792.026],[556.331,785.176],[570.098,780.997],[562.202,760.565],[543.577,769.272],[542.362,766.95],[525.559,775.541],[526.369,777.166],[496.204,791.213],[494.989,788.311],[480.008,796.437]]]},"junctions":[]},{"type":"Feature","id":"building_020","properties":{"class":"building"},"geometry":{"type":"Polygon","coordinates":[[[769.001,619.389],[768.79,671.398],[809.46,665.993],[803.28,636.482],[798.791,615.152],[769.001,619.389]]]},"junctions":[]},{"type":"Feature","id":"building_021","properties":{"class":"building"},"geometry":{"type":"Polygon","coordinates":[[[950.465,612.858],[954.032,628.408],[960.715,625.547],[956.775,611.592],[950.465,612.858]]]},"junctions":[]},{"type":"Feature","id":"building_022","properties":{"class":"building"},"geometry":{"type":"Polygon","coordinates":[[[868.359,599.28],[875.977,649.399],[910.561,642.207],[901.134,590.481],[868.359,599.28]]]},"junctions":[]},{"type":"Feature","id":"building_023","properties":{"class":"building"},"geometry":{"type":"Polygon","coordinates":[[[925.177,617.867],[926.76,626.187],[940.54,622.502],[941.266,622.316],[950.563,619.837],[949.112,613.113],[925.177,617.867]]]},"junctions":[]},{"type":"Feature","id":"building_024","properties":{"class":"building"},"geometry":{"type":"Polygon","coordinates":[[[465.589,709.733],[469.171,730.305],[506.751,722.433],[503.436,701.025],[465.589,709.733]]]},"junctions":[]},{"type":"Feature","id":"building_025","properties":{"class":"building"},"geometry":{"type":"Polygon","coordinates":[[[533.581,704.755],[534.328,710.038],[539.408,708.317],[541.599,720.422],[571.929,714.022],[569.588,697.178],[533.581,704.755]]]},"junctions":[]},{"type":"Feature","id":"building_026","properties":{"class":"building"},"geometry":{"type":"Polygon","coordinates":[[[387.315,672.459],[395.276,722.197],[417.965,718.788],[412.99,668.633],[387.315,672.459]]]},"junctions":[]},{"type":"Feature","id":"building_027","properties":{"class":"building"},"geometry":{"type":"Polygon","coordinates":[[[464.92,679.152],[469.131,707.058],[486.436,703.099],[484.69,691.503],[504.46,687.26],[501.995,670.762],[464.92,679.152]]]},"junctions":[]},{"type":"Feature","id":"building_028","properties":{"class":"building"},"geometry":{"type":"Polygon","coordinates":[[[584.962,676.208],[584.765,700.094],[614.968,700.472],[615.165,676.586],[584.962,676.208]]]},"junctions":[]},{"type":"Feature","id":"building_029","properties":{"class":"building"},"geometry":{"type":"Polygon","coordinates":[[[522.545,665.502],[528.58,698.893],[572.515,686.938],[566.48,653.547],[522.545,665.502]]]},"junctions":[]},{"type":"Feature","id":"building_003","properties":{"class":"building"},"geometry":{"type":"Polygon","coordinates":[[[610.758,754.067],[614.715,763.315],[598.201,772.68],[607.561,791.883],[656.799,768.852],[648.2,748.53],[630.087,756.364],[626.435,746.527],[610.758,754.067]]]},"junctions":[]},{"type":"Feature","id":"building_030","properties":{"class":"building"},"geometry":{"type":"Polygon","coordinates":[[[651.822,653.816],[651.1,681.11],[690.078,682.684],[690.8,655.39],[651.822,653.816]]]},"junctions":[]},{"type":"Feature","id":"building_031","properties":{"class":"building"},"geometry":{"type":"Polygon","coordinates":[[[572.176,648.05],[573.058,673.904],[620.694,671.56],[619.812,645.706],[572.176,648.05]]]},"junctions":[]},{"type":"Feature","id":"building_032","properties":{"class":"building"},"geometry":{"type":"Polygon","coordinates":[[[516.156,631.634],[517.074,653.362],[563.244,650.486],[562.326,628.758],[516.156,631.634]]]},"junctions":[]},{"type":"Feature","id":"building_033","properties":{"class":"building"},"geometry":{"type":"Polygon","coordinates":[[[572.785,614.848],[572.619,639.108],[615.155,639.492],[615.321,615.232],[572.785,614.848]]]},"junctions":[]},{"type":"Feature","id":"building_034","properties":{"class":"building"},"geometry":{"type":"Polygon","coordinates":[[[902.41,588.492],[910.526,634.826],[942.73,629.143],[941.264,622.323],[940.531,622.524],[926.759,626.201],[925.188,617.844],[920.214,591.367],[927.23,590.231],[926.497,583.344],[902.41,588.492]]]},"junctions":[]},{"type":"Feature","id":"building_035","properties":{"class":"building"},"geometry":{"type":"Polygon","coordinates":[[[999.928,596.911],[1002.493,637.525],[1024.012,636.816],[1024.012,588.014],[1020.353,587.885],[1020.509,595.944],[999.928,596.911]]]},"junctions":[]},{"type":"Feature","id":"building_036","properties":{"class":"building"},"geometry":{"type":"Polygon","coordinates":[[[920.201,591.404],[925.186,617.875],[949.127,613.099],[950.459,612.86],[956.778,611.586],[958.209,611.307],[954.556,587.225],[927.21,590.21],[920.201,591.404]]]},"junctions":[]},{"type":"Feature","id":"building_037","properties":{"class":"building"},"geometry":{"type":"Polygon","coordinates":[[[958.91,581.892],[964.757,623.254],[972.184,622.325],[971.447,619.477],[994.203,615.885],[994.94,618.61],[999.47,618.053],[995.256,575.576],[958.91,581.892]]]},"junctions":[]},{"type":"Feature","id":"building_038","properties":{"class":"building"},"geometry":{"type":"Polygon","coordinates":[[[694.648,589.326],[695.105,606.289],[718.082,605.384],[717.625,588.421],[694.648,589.326]]]},"junctions":[]},{"type":"Feature","id":"building_039","properties":{"class":"building"},"geometry":{"type":"Polygon","coordinates":[[[838.615,591.516],[839.483,600.457],[868.985,596.284],[868.117,587.343],[838.615,591.516]]]},"junctions":[]},{"type":"Feature","id":"building_040","properties":{"class":"building"},"geometry":{"type":"Polygon","coordinates":[[[761.157,560.173],[761.388,588.454],[786.553,588.157],[786.322,559.876],[761.157,560.173]]]},"junctions":[]},{"type":"Feature","id":"building_041","properties":{"class":"building"},"geometry":{"type":"Polygon","coordinates":[[[695.619,555.72],[695.822,583.384],[718.021,583.13],[717.265,555.466],[695.619,555.72]]]},"junctions":[]},{"type":"Feature","id":"building_042","properties":{"class":"building"},"geometry":{"type":"Polygon","coordinates":[[[717.254,555.48],[718.027,583.134],[748.576,582.77],[748.372,555.116],[717.254,555.48]]]},"junctions":[]},{"type":"Feature","id":"building_043","properties":{"class":"building"},"geometry":{"type":"Polygon","coordinates":[[[929.496,552.99],[929.496,572.02],[956.179,573.09],[956.674,554.948],[929.496,552.99]]]},"junctions":[]},{"type":"Feature","id":"building_044","properties":{"class":"building"},"geometry":{"type":"Polygon","coordinates":[[[375.905,585.999],[383.229,652.175],[406.555,648.261],[399.231,582.085],[375.905,585.999]]]},"junctions":[]},{"type":"Feature","id":"building_045","properties":{"class":"building"},"geometry":{"type":"Polygon","coordinates":[[[534.454,584.538],[535.891,618.278],[566.996,616.282],[565.559,582.542],[534.454,584.538]]]},"junctions":[]},{"type":"Feature","id":"building_046","properties":{"class":"building"},"geometry":{"type":"Polygon","coordinates":[[[441.507,573.536],[441.507,621.624],[488.373,621.624],[488.373,573.536],[441.507,573.536]]]},"junctions":[]},{"type":"Feature","id":"building_047","properties":{"class":"building"},"geometry":{"type":"Polygon","coordinates":[[[574.524,585.238],[573.814,606.944],[605.276,608.452],[605.986,586.746],[574.524,585.238]]]},"junctions":[]},{"type":"Feature","id":"building_048","properties":{"class":"building"},"geometry":{"type":"Polygon","coordinates":[[[510.404,553.848],[510.227,578.089],[555.496,578.472],[555.673,554.231],[510.404,553.848]]]},"junctions":[]},{"type":"Feature","id":"building_049","properties":{"class":"building"},"geometry":{"type":"Polygon","coordinates":[[[639.829,514.062],[639.067,590.14],[683.421,590.838],[684.183,514.76],[639.829,514.062]]]},"junctions":[]},{"type":"Feature","id":"building_050","properties":{"class":"building"},"geometry":{"type":"Polygon","coordinates":[[[374.457,497.524],[376.608,566.955],[399.553,565.856],[397.402,496.425],[374.457,497.524]]]},"junctions":[]},{"type":"Feature","id":"building_051","properties":{"class":"building"},"geometry":{"type":"Polygon","coordinates":[[[446.544,498.244],[447.132,528.651],[442.473,528.823],[443.513,543.295],[447.404,543.381],[449.032,543.467],[449.756,563.623],[477.307,562.762],[475.995,497.297],[446.544,498.244]]]},"junctions":[]},{"type":"Feature","id":"building_052","properties":{"class":"building"},"geometry":{"type":"Polygon","coordinates":[[[510.687,513.525],[510.004,541.705],[561.963,543.495],[562.646,515.315],[510.687,513.525]]]},"junctions":[]},{"type":"Feature","id":"building_053","properties":{"class":"building"},"geometry":{"type":"Polygon","coordinates":[[[565.787,491.426],[566.394,518.304],[612.573,516.754],[611.966,489.876],[565.787,491.426]]]},"junctions":[]},{"type":"Feature","id":"building_054","properties":{"class":"building"},"geometry":{"type":"Polygon","coordinates":[[[868.309,521.493],[868.309,577.761],[889.861,577.761],[889.861,514.969],[872.731,514.969],[868.309,521.493]]]},"junctions":[]},{"type":"Feature","id":"building_055","properties":{"class":"building"},"geometry":{"type":"Polygon","coordinates":[[[906.519,509.018],[906.519,573.892],[929.521,573.892],[929.521,572.039],[929.521,552.998],[929.521,509.018],[906.519,509.018]]]},"junctions":[]},{"type":"Feature","id":"building_056","properties":{"class":"building"},"geometry":{"type":"Polygon","coordinates":[[[789.391,527.894],[789.619,538.418],[789.695,547.094],[796.701,547.094],[797.006,551.254],[841.48,551.574],[841.48,547.414],[847.496,547.414],[848.029,528.961],[828.382,528.676],[828.915,524.801],[805.916,524.196],[805.916,528.676],[791.371,527.965],[789.391,527.894]]]},"junctions":[]},{"type":"Feature","id":"building_057","properties":{"class":"building"},"geometry":{"type":"Polygon","coordinates":[[[694.401,513.792],[695.54,548.278],[732.539,546.488],[731.4,512.002],[694.401,513.792]]]},"junctions":[]},{"type":"Feature","id":"building_058","properties":{"class":"building"},"geometry":{"type":"Polygon","coordinates":[[[760.673,516.176],[761.154,537.604],[789.554,538.434],[789.423,527.864],[789.336,520.036],[793.88,519.458],[794.317,511.125],[767.708,510.656],[767.227,515.31],[760.673,516.176]]]},"junctions":[]},{"type":"Feature","id":"building_059","properties":{"class":"building"},"geometry":{"type":"Polygon","coordinates":[[[965.031,507.276],[965.107,529.891],[1018.666,529.593],[1018.972,517.377],[1024.029,517.258],[1024.029,506.949],[965.031,507.276]]]},"junctions":[]},{"type":"Feature","id":"building_006","properties":{"class":"building"},"geometry":{"type":"Polygon","coordinates":[[[892.9,957.776],[900.517,973.13],[891.301,978.887],[895.566,989.089],[905.392,983.029],[921.463,1015.655],[913.694,1020.504],[915.141,1024.039],[949.949,1024.039],[914.151,946.261],[892.9,957.776]]]},"junctions":[]},{"type":"Feature","id":"building_060","properties":{"class":"building"},"geometry":{"type":"Polygon","coordinates":[[[924.201,460.416],[923.513,487.014],[956.048,488.704],[956.306,481.797],[956.607,474.487],[937.438,473.715],[938.04,462.032],[924.201,460.416]]]},"junctions":[]},{"type":"Feature","id":"building_061","properties":{"class":"building"},"geometry":{"type":"Polygon","coordinates":[[[954.696,450.621],[954.402,458.884],[957.196,459.182],[956.608,474.514],[956.313,481.781],[956.019,488.7],[1011.018,488.949],[1011.018,451.119],[954.696,450.621]]]},"junctions":[]},{"type":"Feature","id":"building_062","properties":{"class":"building"},"geometry":{"type":"Polygon","coordinates":[[[850.732,445.683],[851.557,487.521],[885.229,487.245],[886.008,449.225],[862.598,448.008],[862.185,444.909],[850.732,445.683]]]},"junctions":[]},{"type":"Feature","id":"building_063","properties":{"class":"building"},"geometry":{"type":"Polygon","coordinates":[[[888.065,446.12],[889.695,479.873],[897.029,479.202],[897.417,485.344],[911.154,485.86],[910.96,479.667],[917.945,479.202],[917.557,446.378],[888.065,446.12]]]},"junctions":[]},{"type":"Feature","id":"building_064","properties":{"class":"building"},"geometry":{"type":"Polygon","coordinates":[[[777.262,448.243],[776.794,480.359],[848.408,481.797],[848.876,449.681],[847.846,449.681],[778.76,448.287],[777.262,448.243]]]},"junctions":[]},{"type":"Feature","id":"building_065","properties":{"class":"building"},"geometry":{"type":"Polygon","coordinates":[[[924.632,444.575],[924.204,460.439],[938.052,462.034],[937.452,473.698],[956.616,474.515],[957.216,459.195],[954.43,458.884],[948.513,458.262],[949.285,445.625],[924.632,444.575]]]},"junctions":[]},{"type":"Feature","id":"building_066","properties":{"class":"building"},"geometry":{"type":"Polygon","coordinates":[[[1019.279,433.355],[1018.247,482.742],[1024.003,482.935],[1024.003,433.548],[1019.279,433.355]]]},"junctions":[]},{"type":"Feature","id":"building_067","properties":{"class":"building"},"geometry":{"type":"Polygon","coordinates":[[[778.975,436.363],[778.705,448.293],[847.925,449.677],[847.925,445.89],[847.925,438.507],[778.975,436.363]]]},"junctions":[]},{"type":"Feature","id":"building_068","properties":{"class":"building"},"geometry":{"type":"Polygon","coordinates":[[[811.914,393.449],[812.644,412.819],[788.164,413.414],[788.164,435.111],[839.246,433.92],[837.786,393.449],[811.914,393.449]]]},"junctions":[]},{"type":"Feature","id":"building_069","properties":{"class":"building"},"geometry":{"type":"Polygon","coordinates":[[[1008.142,398.902],[1008.451,414.118],[1024.008,413.649],[1024.008,398.412],[1019.186,398.555],[1008.142,398.902]]]},"junctions":[]},{"type":"Feature","id":"building_007","properties":{"class":"building"},"geometry":{"type":"Polygon","coordinates":[[[769.11,974.806],[773.531,987.34],[735.747,1004.687],[730.923,991.351],[719.669,997.367],[724.291,1010.001],[708.213,1017.421],[710.222,1024.039],[742.982,1024.039],[862.967,968.59],[856.737,948.837],[835.031,958.864],[831.011,946.831],[818.752,953.148],[822.771,964.579],[785.791,981.525],[781.168,968.389],[769.11,974.806]]]},"junctions":[]},{"type":"Feature","id":"building_070","properties":{"class":"building"},"geometry":{"type":"Polygon","coordinates":[[[856.186,369.979],[856.392,400.28],[848.887,400.586],[849.367,427.367],[874.519,427.979],[875.273,400.892],[869.208,399.974],[868.488,369.061],[856.186,369.979]]]},"junctions":[]},{"type":"Feature","id":"building_071","properties":{"class":"building"},"geometry":{"type":"Polygon","coordinates":[[[948.864,387.88],[948.864,401.691],[948.864,408.41],[1001.646,408.41],[1001.646,387.88],[958.323,387.88],[948.864,387.88]]]},"junctions":[]},{"type":"Feature","id":"building_072","properties":{"class":"building"},"geometry":{"type":"Polygon","coordinates":[[[901.782,372.279],[902.167,385.884],[900.416,385.884],[900.209,399.162],[901.871,399.325],[911.635,400.141],[911.427,408.902],[901.782,408.902],[901.96,414.181],[922.468,413.473],[922.468,402.916],[921.488,402.971],[920.153,383.217],[923.061,382.999],[923.061,372.769],[901.782,372.279]]]},"junctions":[]},{"type":"Feature","id":"building_073","properties":{"class":"building"},"geometry":{"type":"Polygon","coordinates":[[[440.686,487.144],[440.312,498.676],[446.535,498.197],[476.01,497.328],[476.338,487.429],[440.686,487.144]]]},"junctions":[]},{"type":"Feature","id":"building_074","properties":{"class":"building"},"geometry":{"type":"Polygon","coordinates":[[[511.538,478.57],[511.117,497.873],[557.002,499.3],[557.423,479.997],[511.538,478.57]]]},"junctions":[]},{"type":"Feature","id":"building_075","properties":{"class":"building"},"geometry":{"type":"Polygon","coordinates":[[[387.014,471.402],[387.081,496.955],[397.424,496.48],[397.491,499.364],[438.726,499.255],[438.659,482.864],[438.659,471.256],[404.475,471.365],[387.014,471.402]]]},"junctions":[]},{"type":"Feature","id":"building_076","properties":{"class":"building"},"geometry":{"type":"Polygon","coordinates":[[[439.812,443.48],[438.621,471.284],[438.696,482.89],[494.123,483.2],[495.909,447.865],[463.396,447.865],[463.396,458.904],[455.51,459.265],[454.989,444.306],[439.812,443.48]]]},"junctions":[]},{"type":"Feature","id":"building_077","properties":{"class":"building"},"geometry":{"type":"Polygon","coordinates":[[[408.805,434.291],[404.442,471.379],[438.646,471.282],[439.853,443.491],[440.178,436.459],[408.805,434.291]]]},"junctions":[]},{"type":"Feature","id":"building_078","properties":{"class":"building"},"geometry":{"type":"Polygon","coordinates":[[[546.259,376.113],[545.519,446.804],[520.522,446.433],[520.522,469.627],[575.102,471.107],[575.546,452.232],[573.475,452.725],[573.697,437.798],[575.915,437.304],[576.729,406.091],[576.729,405.845],[572.883,405.228],[572.291,390.917],[577.099,390.794],[577.468,376.113],[546.259,376.113]]]},"junctions":[]},{"type":"Feature","id":"building_079","properties":{"class":"building"},"geometry":{"type":"Polygon","coordinates":[[[572.294,390.848],[572.873,405.208],[576.722,405.821],[576.722,406.067],[578.294,406.067],[578.294,437.118],[575.935,437.364],[573.66,437.732],[573.453,452.705],[575.563,452.215],[575.604,451.969],[577.715,451.846],[577.715,470.011],[602.708,470.747],[604.156,377.225],[580.694,376.243],[580.032,390.48],[577.094,390.725],[572.294,390.848]]]},"junctions":[]},{"type":"Feature","id":"building_008","properties":{"class":"building"},"geometry":{"type":"Polygon","coordinates":[[[944.368,891.699],[929.24,899.091],[933.192,911.711],[917.928,918.742],[926.105,939.475],[1022.872,894.764],[1016.467,873.851],[995.75,883.226],[991.798,870.065],[977.351,876.826],[981.44,889.806],[981.303,889.806],[967.265,896.207],[948.593,904.77],[944.368,891.699]]]},"junctions":[]},{"type":"Feature","id":"building_080","properties":{"class":"building"},"geometry":{"type":"Polygon","coordinates":[[[428.652,378.754],[428.269,388.604],[428.077,395.185],[418.503,394.449],[416.715,404.831],[462.418,410.226],[465.865,394.899],[461.46,393.713],[463.567,383.495],[451.758,381.901],[428.652,378.754]]]},"junctions":[]},{"type":"Feature","id":"building_081","properties":{"class":"building"},"geometry":{"type":"Polygon","coordinates":[[[400.49,351.281],[394.66,383.059],[428.316,388.639],[428.627,378.79],[451.789,381.895],[454.51,357.006],[435.855,355.017],[403.754,351.621],[400.49,351.281]]]},"junctions":[]},{"type":"Feature","id":"building_082","properties":{"class":"building"},"geometry":{"type":"Polygon","coordinates":[[[471.395,331.225],[469.485,351.506],[473.595,352.934],[470.689,377.07],[465.127,375.927],[463.549,383.497],[461.474,393.637],[465.832,394.922],[462.429,410.204],[461.723,413.346],[487.127,416.345],[493.436,378.498],[493.436,306.946],[482.727,306.375],[481.813,314.944],[476.002,315.23],[475.297,331.797],[471.395,331.225]]]},"junctions":[]},{"type":"Feature","id":"building_083","properties":{"class":"building"},"geometry":{"type":"Polygon","coordinates":[[[879.505,372.279],[880.093,386.319],[876.987,386.319],[876.987,398.726],[880.29,398.726],[880.093,413.909],[901.966,414.181],[901.77,408.902],[901.868,399.325],[900.201,399.162],[900.397,385.884],[902.163,385.884],[901.77,372.279],[879.505,372.279]]]},"junctions":[]},{"type":"Feature","id":"building_085","properties":{"class":"building"},"geometry":{"type":"Polygon","coordinates":[[[1007.934,380.911],[1008.139,398.899],[1019.176,398.549],[1018.927,386.004],[1018.825,380.911],[1007.934,380.911]]]},"junctions":[]},{"type":"Feature","id":"building_086","properties":{"class":"building"},"geometry":{"type":"Polygon","coordinates":[[[923.057,371.118],[923.057,372.759],[923.057,383.02],[920.131,383.23],[921.52,402.996],[922.462,402.954],[948.896,401.692],[948.896,387.898],[958.319,387.898],[957.129,370.614],[923.057,371.118]]]},"junctions":[]},{"type":"Feature","id":"building_087","properties":{"class":"building"},"geometry":{"type":"Polygon","coordinates":[[[810.118,335.651],[810.118,352.909],[834.082,352.909],[834.082,335.651],[810.118,335.651]]]},"junctions":[]},{"type":"Feature","id":"building_088","properties":{"class":"building"},"geometry":{"type":"Polygon","coordinates":[[[1012.064,330.769],[1012.204,336.685],[1016.841,336.685],[1016.065,347.608],[1019.741,348.091],[1019.865,352.557],[1024.006,352.671],[1024.006,331.082],[1012.064,330.769]]]},"junctions":[]},{"type":"Feature","id":"building_089","properties":{"class":"building"},"geometry":{"type":"Polygon","coordinates":[[[915.06,317.874],[915.06,350.726],[935.78,350.726],[935.78,317.874],[915.06,317.874]]]},"junctions":[]},{"type":"Feature","id":"building_009","properties":{"class":"building"},"geometry":{"type":"Polygon","coordinates":[[[862.32,866.625],[870.641,881.905],[861.058,887.209],[867.714,905.339],[878.789,899.243],[887.798,918.56],[905.242,908.031],[882.748,857.6],[862.32,866.625]]]},"junctions":[]},{"type":"Feature","id":"building_090","properties":{"class":"building"},"geometry":{"type":"Polygon","coordinates":[[[896.294,313.841],[896.844,352.149],[908.066,351.899],[907.516,313.591],[896.294,313.841]]]},"junctions":[]},{"type":"Feature","id":"building_091","properties":{"class":"building"},"geometry":{"type":"Polygon","coordinates":[[[671.527,314.232],[671.527,314.327],[670.896,348.1],[670.854,350.208],[702.563,351.118],[703.236,315.142],[672.746,314.279],[671.527,314.232]]]},"junctions":[]},{"type":"Feature","id":"building_092","properties":{"class":"building"},"geometry":{"type":"Polygon","coordinates":[[[938.295,311.69],[937.708,350.933],[960.925,351.45],[961.512,312.206],[938.295,311.69]]]},"junctions":[]},{"type":"Feature","id":"building_093","properties":{"class":"building"},"geometry":{"type":"Polygon","coordinates":[[[436.885,338.901],[435.855,355.041],[465.225,355.949],[464.614,340.252],[436.885,338.901]]]},"junctions":[]},{"type":"Feature","id":"building_094","properties":{"class":"building"},"geometry":{"type":"Polygon","coordinates":[[[406.573,332.379],[403.713,351.636],[435.863,355.051],[436.903,338.915],[437.077,336.324],[406.573,332.379]]]},"junctions":[]},{"type":"Feature","id":"building_095","properties":{"class":"building"},"geometry":{"type":"Polygon","coordinates":[[[595.357,317.213],[595.125,350.254],[624.653,350.557],[624.885,317.516],[595.357,317.213]]]},"junctions":[]},{"type":"Feature","id":"building_096","properties":{"class":"building"},"geometry":{"type":"Polygon","coordinates":[[[645.169,315.17],[644.927,349.057],[670.896,348.11],[671.553,314.313],[645.169,315.17]]]},"junctions":[]},{"type":"Feature","id":"building_097","properties":{"class":"building"},"geometry":{"type":"Polygon","coordinates":[[[515.371,308.071],[515.16,335.417],[533.329,336.919],[534.28,346.708],[555.83,347.64],[554.827,307.76],[515.371,308.071]]]},"junctions":[]},{"type":"Feature","id":"building_098","properties":{"class":"building"},"geometry":{"type":"Polygon","coordinates":[[[399.492,299.834],[394.703,322.045],[446.965,330.088],[448.937,307.175],[432.456,306.006],[432.456,295.298],[417.242,294.082],[416.467,302.405],[399.492,299.834]]]},"junctions":[]},{"type":"Feature","id":"building_099","properties":{"class":"building"},"geometry":{"type":"Polygon","coordinates":[[[533.82,277.697],[533.358,301.882],[577.41,303.173],[577.872,278.988],[566.599,278.657],[536.248,277.763],[533.82,277.697]]]},"junctions":[]},{"type":"Feature","id":"water_000","properties":{"class":"water"},"geometry":{"type":"Polygon","coordinates":[[[-0.123,88.678],[27.944,133.939],[-0.123,295.014],[-0.123,599.859],[11.678,629.146],[-0.123,671.744],[-0.123,750.285],[35.28,633.139],[70.045,597.197],[116.291,695.706],[60.476,852.787],[23.479,910.029],[21.565,977.92],[-0.123,1024.512],[166.684,1024.512],[166.046,988.57],[186.777,944.64],[176.89,763.597],[183.907,505.344],[138.617,457.421],[192.199,378.88],[172.744,357.581],[116.61,446.771],[71.32,308.326],[91.095,241.766],[134.152,200.499],[172.744,43.418],[245.463,-0.512],[56.33,-0.512],[-0.123,88.678]]]},"junctions":[]},{"type":"Feature","id":"road_network","properties":{"class":"road","topologyMode":"stitched-graph"},"geometry":{"type":"MultiLineString","coordinates":[[[753,0],[722,32]],[[722,32],[688,0],[703,15],[722,32]],[[722,32],[703,50],[663,92]],[[722,32],[751,58]],[[722,32],[663,92]],[[751,58],[767,69]],[[751,58],[778,75]],[[690,64],[663,92]],[[778,75],[831,75],[959,76]],[[778,75],[895,75],[1023,76]],[[663,92],[640,121]],[[663,92],[635,127]],[[663,92],[631,133]],[[631,133],[630,191],[629,224]],[[631,133],[629,224]],[[629,224],[511,223],[455,223],[575,224],[629,224]],[[629,224],[703,224],[831,225],[916,225],[959,226]],[[640,224],[767,225],[895,225],[1023,226]],[[435,259],[410,278]],[[410,278],[396,319],[382,416]],[[410,278],[395,326],[386,383],[382,416]],[[524,363],[575,363],[631,363]],[[524,363],[631,363]],[[524,363],[521,383],[511,438]],[[524,363],[511,438]],[[631,363],[703,363],[765,363]],[[631,363],[631,383],[630,511],[629,639],[628,720]],[[631,363],[630,447],[629,575],[628,703],[628,720]],[[640,363],[765,363]],[[765,363],[831,363],[959,365]],[[765,363],[895,364],[1023,365]],[[765,363],[764,383],[765,500]],[[765,363],[764,447],[765,500]],[[382,416],[447,428],[511,438]],[[382,416],[511,438]],[[382,416],[377,448]],[[511,438],[502,497]],[[377,448],[377,511],[377,552]],[[377,448],[377,552]],[[510,448],[502,497]],[[502,497],[502,511],[505,582]],[[502,497],[505,575]],[[765,500],[831,500],[959,502]],[[765,500],[895,501],[1023,502]],[[765,500],[764,575],[765,697]],[[764,512],[764,639],[765,697]],[[377,552],[380,575],[398,704],[406,757]],[[377,552],[389,639],[406,757]],[[505,582],[513,639],[526,738]],[[505,582],[521,703],[526,738]],[[1023,653],[895,675],[811,689],[765,697]],[[959,664],[832,686],[765,697]],[[765,697],[703,707],[628,720]],[[765,697],[640,718]],[[628,720],[575,729],[526,738]],[[628,720],[526,738]],[[526,738],[448,752]],[[511,741],[435,755],[406,757]],[[959,824],[832,882]],[[895,853],[1023,795],[943,831],[832,882]],[[895,853],[800,895],[703,939]],[[895,853],[767,910],[673,953],[703,939]],[[832,882],[703,939]]]},"junctions":[[722,32],[751,58],[778,75],[663,92],[631,133],[629,224],[410,278],[524,363],[631,363],[765,363],[382,416],[511,438],[377,448],[502,497],[765,500],[377,552],[505,582],[765,697],[628,720],[526,738],[406,757],[895,853],[832,882],[703,939]]}]}