{"type":"FeatureCollection","coordinateSystem":{"type":"image-pixel","origin":"top-left","x":"right","y":"down","georeferenced":false},"features":[{"type":"Feature","id":"water_028467","properties":{"class":"water"},"geometry":{"type":"Polygon","coordinates":[[[32.97,508.997],[94.03,511.009],[88.004,492.991],[32.97,508.997]]]},"junctions":[]},{"type":"Feature","id":"water_028468","properties":{"class":"water"},"geometry":{"type":"Polygon","coordinates":[[[164.969,507.005],[228.031,511.012],[220.005,487.988],[164.969,507.005]]]},"junctions":[]},{"type":"Feature","id":"water_028469","properties":{"class":"water"},"geometry":{"type":"Polygon","coordinates":[[[225.982,487.013],[233.002,511.016],[262.018,505.982],[260.988,478.984],[225.982,487.013]]]},"junctions":[]},{"type":"Feature","id":"water_028470","properties":{"class":"water"},"geometry":{"type":"Polygon","coordinates":[[[91.97,490.988],[98.99,511.018],[152.03,504.981],[148.988,474.982],[91.97,490.988]]]},"junctions":[]},{"type":"Feature","id":"water_028471","properties":{"class":"water"},"geometry":{"type":"Polygon","coordinates":[[[22.968,475.023],[31.977,505.024],[86.031,489.015],[78.988,457.976],[22.968,475.023]]]},"junctions":[]},{"type":"Feature","id":"water_028472","properties":{"class":"water"},"geometry":{"type":"Polygon","coordinates":[[[155.969,470.003],[163.027,500.023],[217.03,483.997],[209.973,453.977],[155.969,470.003]]]},"junctions":[]},{"type":"Feature","id":"water_028473","properties":{"class":"water"},"geometry":{"type":"Polygon","coordinates":[[[267.97,471.984],[269.998,504.026],[295.036,499.024],[328.03,451.974],[267.97,471.984]]]},"junctions":[]},{"type":"Feature","id":"water_028474","properties":{"class":"water"},"geometry":{"type":"Polygon","coordinates":[[[82.968,456.001],[92.037,485.024],[147.032,469.993],[140.958,437.976],[82.968,456.001]]]},"junctions":[]},{"type":"Feature","id":"water_028475","properties":{"class":"water"},"geometry":{"type":"Polygon","coordinates":[[[214.968,452.024],[223.038,479.022],[279.032,465.008],[272.958,434.978],[214.968,452.024]]]},"junctions":[]},{"type":"Feature","id":"water_028476","properties":{"class":"water"},"geometry":{"type":"Polygon","coordinates":[[[144.969,436.016],[153.996,464.022],[207.031,450.997],[200.019,420.978],[144.969,436.016]]]},"junctions":[]},{"type":"Feature","id":"water_028477","properties":{"class":"water"},"geometry":{"type":"Polygon","coordinates":[[[10.973,428.008],[17.01,459.021],[58.007,448.975],[65.027,416.979],[10.973,428.008]]]},"junctions":[]},{"type":"Feature","id":"water_028478","properties":{"class":"water"},"geometry":{"type":"Polygon","coordinates":[[[276.968,432.007],[286.037,461.022],[331.963,448.971],[341.032,435.985],[331.963,415.978],[276.968,432.007]]]},"junctions":[]},{"type":"Feature","id":"water_028479","properties":{"class":"water"},"geometry":{"type":"Polygon","coordinates":[[[205.969,417.001],[212.981,446.024],[268.031,431.971],[261.986,398.976],[205.969,417.001]]]},"junctions":[]},{"type":"Feature","id":"water_028480","properties":{"class":"water"},"geometry":{"type":"Polygon","coordinates":[[[81.025,408.992],[71.967,449.029],[127.014,434.024],[139.034,390.971],[81.025,408.992]]]},"junctions":[]},{"type":"Feature","id":"water_028481","properties":{"class":"water"},"geometry":{"type":"Polygon","coordinates":[[[0.964,393.014],[4.989,422.019],[64.986,413.986],[73.036,384.981],[0.964,393.014]]]},"junctions":[]},{"type":"Feature","id":"water_028482","properties":{"class":"water"},"geometry":{"type":"Polygon","coordinates":[[[266.97,398.022],[276.961,427.022],[328.031,413.008],[317.008,382.978],[266.97,398.022]]]},"junctions":[]},{"type":"Feature","id":"water_028483","properties":{"class":"water"},"geometry":{"type":"Polygon","coordinates":[[[323.988,380.03],[344.007,429.026],[349.012,377.975],[323.988,380.03]]]},"junctions":[]},{"type":"Feature","id":"water_028484","properties":{"class":"water"},"geometry":{"type":"Polygon","coordinates":[[[143.979,390.016],[133.964,430.03],[206.036,407.02],[205.006,369.97],[143.979,390.016]]]},"junctions":[]},{"type":"Feature","id":"water_028485","properties":{"class":"water"},"geometry":{"type":"Polygon","coordinates":[[[-0.04,358.987],[-0.04,389.017],[71.985,381.981],[81.04,355.983],[-0.04,358.987]]]},"junctions":[]},{"type":"Feature","id":"water_028486","properties":{"class":"water"},"geometry":{"type":"Polygon","coordinates":[[[92.009,367.992],[82.968,404.026],[140.005,385.975],[148.032,350.974],[92.009,367.992]]]},"junctions":[]},{"type":"Feature","id":"water_028487","properties":{"class":"water"},"geometry":{"type":"Polygon","coordinates":[[[214.981,337.967],[217.008,404.033],[254.019,392.021],[253.006,338.997],[214.981,337.967]]]},"junctions":[]},{"type":"Feature","id":"water_028488","properties":{"class":"water"},"geometry":{"type":"Polygon","coordinates":[[[257.97,337.974],[258.984,390.026],[318.03,371.03],[311.01,337.974],[257.97,337.974]]]},"junctions":[]},{"type":"Feature","id":"water_028489","properties":{"class":"water"},"geometry":{"type":"Polygon","coordinates":[[[152.99,350.013],[145.97,382.024],[206.03,366.986],[204.002,333.976],[152.99,350.013]]]},"junctions":[]},{"type":"Feature","id":"water_028490","properties":{"class":"water"},"geometry":{"type":"Polygon","coordinates":[[[-0.02,324.999],[-0.02,354.015],[40.02,354.015],[33.0,323.985],[-0.02,324.999]]]},"junctions":[]},{"type":"Feature","id":"water_028491","properties":{"class":"water"},"geometry":{"type":"Polygon","coordinates":[[[36.974,322.005],[44.966,352.017],[82.034,352.017],[90.027,317.983],[36.974,322.005]]]},"junctions":[]},{"type":"Feature","id":"water_028492","properties":{"class":"water"},"geometry":{"type":"Polygon","coordinates":[[[101.976,327.995],[92.967,364.026],[150.024,346.991],[159.033,311.974],[101.976,327.995]]]},"junctions":[]},{"type":"Feature","id":"water_028493","properties":{"class":"water"},"geometry":{"type":"Polygon","coordinates":[[[318.986,304.009],[324.989,356.027],[346.013,350.973],[330.008,301.973],[318.986,304.009]]]},"junctions":[]},{"type":"Feature","id":"water_028494","properties":{"class":"water"},"geometry":{"type":"Polygon","coordinates":[[[168.019,296.977],[155.976,343.023],[204.024,329.987],[204.024,314.02],[168.019,296.977]]]},"junctions":[]},{"type":"Feature","id":"water_028495","properties":{"class":"water"},"geometry":{"type":"Polygon","coordinates":[[[298.992,294.98],[298.992,334.019],[314.01,334.019],[315.008,294.98],[298.992,294.98]]]},"junctions":[]},{"type":"Feature","id":"water_028496","properties":{"class":"water"},"geometry":{"type":"Polygon","coordinates":[[[255.981,294.98],[256.995,331.991],[291.978,334.019],[295.019,294.98],[255.981,294.98]]]},"junctions":[]},{"type":"Feature","id":"water_028497","properties":{"class":"water"},"geometry":{"type":"Polygon","coordinates":[[[214.981,300.0],[214.981,334.019],[254.019,333.005],[253.006,294.98],[214.981,300.0]]]},"junctions":[]},{"type":"Feature","id":"water_028498","properties":{"class":"water"},"geometry":{"type":"Polygon","coordinates":[[[344.985,293.982],[355.019,330.018],[376.016,328.006],[362.999,295.012],[344.985,293.982]]]},"junctions":[]},{"type":"Feature","id":"water_028499","properties":{"class":"water"},"geometry":{"type":"Polygon","coordinates":[[[-0.014,294.003],[-0.014,322.014],[29.014,318.018],[22.983,292.986],[-0.014,294.003]]]},"junctions":[]},{"type":"Feature","id":"water_028500","properties":{"class":"water"},"geometry":{"type":"Polygon","coordinates":[[[27.965,291.003],[34.972,319.017],[91.028,313.997],[98.035,285.983],[27.965,291.003]]]},"junctions":[]},{"type":"Feature","id":"water_028501","properties":{"class":"water"},"geometry":{"type":"Polygon","coordinates":[[[117.007,269.973],[102.971,324.027],[157.964,308.021],[162.029,292.999],[117.007,269.973]]]},"junctions":[]},{"type":"Feature","id":"water_028502","properties":{"class":"water"},"geometry":{"type":"Polygon","coordinates":[[[241.02,266.991],[227.978,287.011],[272.022,286.01],[268.99,264.989],[241.02,266.991]]]},"junctions":[]},{"type":"Feature","id":"water_028503","properties":{"class":"water"},"geometry":{"type":"Polygon","coordinates":[[[147.972,261.976],[147.972,282.006],[204.028,310.024],[203.009,292.989],[147.972,261.976]]]},"junctions":[]},{"type":"Feature","id":"water_028504","properties":{"class":"water"},"geometry":{"type":"Polygon","coordinates":[[[-0.01,261.986],[-0.01,290.014],[20.01,288.995],[16.994,265.007],[-0.01,261.986]]]},"junctions":[]},{"type":"Feature","id":"water_028505","properties":{"class":"water"},"geometry":{"type":"Polygon","coordinates":[[[300.987,264.989],[305.009,286.013],[327.013,284.013],[317.008,258.986],[300.987,264.989]]]},"junctions":[]},{"type":"Feature","id":"water_028506","properties":{"class":"water"},"geometry":{"type":"Polygon","coordinates":[[[272.986,261.99],[278.006,286.014],[300.013,286.014],[292.993,257.986],[272.986,261.99]]]},"junctions":[]},{"type":"Feature","id":"water_028507","properties":{"class":"water"},"geometry":{"type":"Polygon","coordinates":[[[58.977,247.982],[66.992,283.017],[99.986,280.014],[104.023,259.995],[58.977,247.982]]]},"junctions":[]},{"type":"Feature","id":"water_028508","properties":{"class":"water"},"geometry":{"type":"Polygon","coordinates":[[[123.006,244.983],[117.987,265.978],[143.013,279.017],[145.013,258.994],[123.006,244.983]]]},"junctions":[]},{"type":"Feature","id":"water_028509","properties":{"class":"water"},"geometry":{"type":"Polygon","coordinates":[[[13.976,238.976],[26.019,288.024],[62.024,284.011],[52.976,248.976],[13.976,238.976]]]},"junctions":[]},{"type":"Feature","id":"water_028510","properties":{"class":"water"},"geometry":{"type":"Polygon","coordinates":[[[-0.006,234.989],[-0.006,258.012],[12.006,256.995],[-0.006,234.989]]]},"junctions":[]},{"type":"Feature","id":"water_028511","properties":{"class":"water"},"geometry":{"type":"Polygon","coordinates":[[[292.988,227.984],[298.012,259.015],[316.012,257.0],[292.988,227.984]]]},"junctions":[]},{"type":"Feature","id":"water_028512","properties":{"class":"water"},"geometry":{"type":"Polygon","coordinates":[[[237.974,233.019],[245.966,262.019],[291.026,251.018],[280.967,222.981],[237.974,233.019]]]},"junctions":[]},{"type":"Feature","id":"water_028513","properties":{"class":"water"},"geometry":{"type":"Polygon","coordinates":[[[77.014,211.978],[61.976,244.009],[106.03,255.022],[110.024,232.997],[77.014,211.978]]]},"junctions":[]},{"type":"Feature","id":"water_028514","properties":{"class":"water"},"geometry":{"type":"Polygon","coordinates":[[[-0.013,197.982],[-0.013,231.016],[9.998,233.017],[25.012,211.996],[-0.013,197.982]]]},"junctions":[]},{"type":"Feature","id":"water_028515","properties":{"class":"water"},"geometry":{"type":"Polygon","coordinates":[[[47.002,192.976],[17.973,232.979],[54.008,242.024],[73.028,209.028],[47.002,192.976]]]},"junctions":[]},{"type":"Feature","id":"water_028516","properties":{"class":"water"},"geometry":{"type":"Polygon","coordinates":[[[9.985,161.976],[-0.022,194.986],[28.991,210.024],[43.021,189.994],[9.985,161.976]]]},"junctions":[]},{"type":"Feature","id":"water_028517","properties":{"class":"water"},"geometry":{"type":"Polygon","coordinates":[[[241.857,-0.104],[214.901,34.945],[204.119,109.119],[139.841,69.994],[182.969,137.104],[194.166,199.867],[209.925,209.105],[307.794,183.021],[323.967,153.949],[316.917,136.017],[384.928,49.073],[459.159,-0.104],[241.857,-0.104]]]},"junctions":[]},{"type":"Feature","id":"water_028518","properties":{"class":"water"},"geometry":{"type":"Polygon","coordinates":[[[192.981,-0.011],[212.991,22.011],[230.018,-0.011],[192.981,-0.011]]]},"junctions":[]}]}