{"type":"FeatureCollection","coordinateSystem":{"type":"image-pixel","origin":"top-left","x":"right","y":"down","georeferenced":false},"features":[{"type":"Feature","id":"water_028314","properties":{"class":"water"},"geometry":{"type":"Polygon","coordinates":[[[430.998,474.988],[422.987,485.005],[441.002,498.012],[449.013,487.008],[430.998,474.988]]]},"junctions":[]},{"type":"Feature","id":"water_028315","properties":{"class":"water"},"geometry":{"type":"Polygon","coordinates":[[[433.962,466.995],[511.038,511.029],[511.038,492.028],[457.986,452.971],[433.962,466.995]]]},"junctions":[]},{"type":"Feature","id":"water_028316","properties":{"class":"water"},"geometry":{"type":"Polygon","coordinates":[[[414.966,438.98],[385.973,460.021],[420.02,478.019],[440.027,450.996],[414.966,438.98]]]},"junctions":[]},{"type":"Feature","id":"water_028317","properties":{"class":"water"},"geometry":{"type":"Polygon","coordinates":[[[356.981,436.013],[380.989,455.014],[395.019,443.985],[371.011,426.986],[356.981,436.013]]]},"junctions":[]},{"type":"Feature","id":"water_028318","properties":{"class":"water"},"geometry":{"type":"Polygon","coordinates":[[[433.98,427.009],[455.984,444.016],[473.019,419.997],[452.993,412.985],[433.98,427.009]]]},"junctions":[]},{"type":"Feature","id":"water_028319","properties":{"class":"water"},"geometry":{"type":"Polygon","coordinates":[[[355.958,397.005],[410.012,431.021],[440.042,416.989],[372.993,388.979],[355.958,397.005]]]},"junctions":[]},{"type":"Feature","id":"water_028320","properties":{"class":"water"},"geometry":{"type":"Polygon","coordinates":[[[477.983,348.986],[462.986,366.993],[477.0,376.013],[491.014,356.989],[477.983,348.986]]]},"junctions":[]},{"type":"Feature","id":"water_028321","properties":{"class":"water"},"geometry":{"type":"Polygon","coordinates":[[[238.046,341.973],[227.942,357.988],[322.041,397.028],[344.058,379.01],[238.046,341.973]]]},"junctions":[]},{"type":"Feature","id":"water_028322","properties":{"class":"water"},"geometry":{"type":"Polygon","coordinates":[[[405.016,320.978],[392.962,340.991],[452.044,364.022],[469.038,348.984],[405.016,320.978]]]},"junctions":[]},{"type":"Feature","id":"water_028323","properties":{"class":"water"},"geometry":{"type":"Polygon","coordinates":[[[371.991,313.986],[362.983,334.004],[388.007,343.014],[398.017,322.016],[371.991,313.986]]]},"junctions":[]},{"type":"Feature","id":"water_028324","properties":{"class":"water"},"geometry":{"type":"Polygon","coordinates":[[[158.988,313.973],[129.949,332.997],[208.05,368.027],[232.051,341.983],[158.988,313.973]]]},"junctions":[]},{"type":"Feature","id":"water_028325","properties":{"class":"water"},"geometry":{"type":"Polygon","coordinates":[[[27.029,310.988],[21.967,321.003],[42.988,335.012],[82.971,329.989],[88.033,316.011],[27.029,310.988]]]},"junctions":[]},{"type":"Feature","id":"water_028326","properties":{"class":"water"},"geometry":{"type":"Polygon","coordinates":[[[109.002,297.988],[102.98,312.998],[136.025,321.012],[144.02,308.992],[109.002,297.988]]]},"junctions":[]},{"type":"Feature","id":"water_028327","properties":{"class":"water"},"geometry":{"type":"Polygon","coordinates":[[[326.966,291.98],[302.967,309.995],[356.034,333.021],[368.033,312.98],[326.966,291.98]]]},"junctions":[]},{"type":"Feature","id":"water_028328","properties":{"class":"water"},"geometry":{"type":"Polygon","coordinates":[[[297.012,289.99],[287.99,304.992],[300.002,310.01],[308.01,293.994],[297.012,289.99]]]},"junctions":[]},{"type":"Feature","id":"water_028329","properties":{"class":"water"},"geometry":{"type":"Polygon","coordinates":[[[357.028,270.976],[345.966,293.003],[401.972,319.024],[413.034,280.024],[357.028,270.976]]]},"junctions":[]},{"type":"Feature","id":"water_028330","properties":{"class":"water"},"geometry":{"type":"Polygon","coordinates":[[[255.041,257.978],[237.967,286.991],[281.982,301.022],[304.033,269.997],[255.041,257.978]]]},"junctions":[]},{"type":"Feature","id":"water_028331","properties":{"class":"water"},"geometry":{"type":"Polygon","coordinates":[[[-0.049,256.974],[-0.049,289.012],[47.055,310.026],[99.05,310.026],[99.05,291.975],[-0.049,256.974]]]},"junctions":[]},{"type":"Feature","id":"water_028332","properties":{"class":"water"},"geometry":{"type":"Polygon","coordinates":[[[-0.049,222.974],[-0.049,241.97],[90.941,275.026],[99.05,259.005],[-0.049,222.974]]]},"junctions":[]}]}