{"type":"FeatureCollection","coordinateSystem":{"type":"image-pixel","origin":"top-left","x":"right","y":"down","georeferenced":false},"features":[{"type":"Feature","id":"building_070835","properties":{"class":"building"},"geometry":{"type":"Polygon","coordinates":[[[374.841,478.746],[368.622,493.247],[398.139,505.914],[404.358,491.413],[374.841,478.746]]]},"junctions":[]},{"type":"Feature","id":"building_070836","properties":{"class":"building"},"geometry":{"type":"Polygon","coordinates":[[[403.11,452.512],[390.567,482.201],[460.176,511.534],[476.716,511.534],[496.703,464.21],[447.081,443.296],[440.189,459.779],[423.511,452.778],[420.616,459.868],[403.11,452.512]]]},"junctions":[]},{"type":"Feature","id":"building_070837","properties":{"class":"building"},"geometry":{"type":"Polygon","coordinates":[[[348.157,428.553],[338.635,449.872],[346.769,453.435],[345.975,455.248],[373.618,467.564],[389.555,431.742],[361.913,419.426],[356.292,432.179],[348.157,428.553]]]},"junctions":[]},{"type":"Feature","id":"building_070838","properties":{"class":"building"},"geometry":{"type":"Polygon","coordinates":[[[445.206,406.89],[441.055,416.261],[466.224,427.33],[470.375,417.959],[445.206,406.89]]]},"junctions":[]},{"type":"Feature","id":"building_070839","properties":{"class":"building"},"geometry":{"type":"Polygon","coordinates":[[[469.995,359.481],[451.98,403.155],[491.207,419.331],[487.854,427.317],[512.03,437.326],[512.03,374.039],[510.314,373.433],[509.378,375.758],[469.995,359.481]]]},"junctions":[]},{"type":"Feature","id":"building_070840","properties":{"class":"building"},"geometry":{"type":"Polygon","coordinates":[[[301.944,371.323],[292.261,385.971],[290.036,384.463],[274.677,407.727],[320.196,437.561],[360.373,376.277],[327.319,354.629],[312.072,378.001],[301.944,371.323]]]},"junctions":[]},{"type":"Feature","id":"building_070841","properties":{"class":"building"},"geometry":{"type":"Polygon","coordinates":[[[-0.014,339.647],[-0.014,385.053],[28.534,368.07],[13.815,342.95],[4.583,348.316],[-0.014,339.647]]]},"junctions":[]},{"type":"Feature","id":"building_070842","properties":{"class":"building"},"geometry":{"type":"Polygon","coordinates":[[[408.761,295.906],[397.934,318.43],[428.563,332.479],[425.602,338.946],[453.825,352.029],[469.186,318.876],[416.996,294.791],[415.146,298.88],[408.761,295.906]]]},"junctions":[]},{"type":"Feature","id":"building_070843","properties":{"class":"building"},"geometry":{"type":"Polygon","coordinates":[[[144.374,301.05],[136.172,312.685],[143.415,317.819],[120.939,347.934],[155.772,374.514],[169.833,356.034],[185.172,364.019],[190.924,350.444],[184.746,347.022],[187.196,342.345],[183.041,339.379],[202.961,311.544],[168.128,286.676],[153.322,307.438],[144.374,301.05]]]},"junctions":[]},{"type":"Feature","id":"building_070844","properties":{"class":"building"},"geometry":{"type":"Polygon","coordinates":[[[225.685,267.459],[218.061,285.704],[229.435,290.451],[237.059,272.206],[225.685,267.459]]]},"junctions":[]},{"type":"Feature","id":"building_070845","properties":{"class":"building"},"geometry":{"type":"Polygon","coordinates":[[[315.981,265.87],[318.168,266.784],[306.913,294.754],[311.736,296.695],[297.845,331.287],[314.052,337.795],[313.473,339.165],[328.907,345.444],[343.056,310.052],[337.589,307.769],[343.442,293.27],[341.705,292.585],[347.365,278.428],[337.975,274.661],[341.255,266.327],[319.261,257.536],[315.981,265.87]]]},"junctions":[]},{"type":"Feature","id":"building_070846","properties":{"class":"building"},"geometry":{"type":"Polygon","coordinates":[[[226.256,321.858],[208.884,363.075],[205.627,361.64],[195.39,381.121],[246.885,408.189],[262.55,378.25],[268.134,381.326],[287.056,342.159],[278.215,337.853],[291.709,306.683],[295.277,308.324],[314.82,263.21],[285.04,250.291],[278.06,266.901],[272.011,264.235],[260.379,291.304],[262.705,292.329],[247.04,328.625],[241.146,326.164],[240.37,328.01],[226.256,321.858]]]},"junctions":[]},{"type":"Feature","id":"building_070847","properties":{"class":"building"},"geometry":{"type":"Polygon","coordinates":[[[51.125,244.171],[39.304,286.539],[65.721,293.833],[59.81,315.25],[102.633,327.2],[115.299,281.262],[123.139,283.435],[126.517,271.485],[117.349,269.002],[132.186,215.305],[106.855,207.7],[93.827,255.966],[51.125,244.171]]]},"junctions":[]},{"type":"Feature","id":"building_070848","properties":{"class":"building"},"geometry":{"type":"Polygon","coordinates":[[[150.725,201.032],[139.579,250.708],[169.495,257.448],[180.641,207.772],[150.725,201.032]]]},"junctions":[]},{"type":"Feature","id":"building_070849","properties":{"class":"building"},"geometry":{"type":"Polygon","coordinates":[[[-0.008,185.182],[-0.008,219.952],[2.771,221.558],[16.578,193.638],[-0.008,185.182]]]},"junctions":[]},{"type":"Feature","id":"building_070850","properties":{"class":"building"},"geometry":{"type":"Polygon","coordinates":[[[70.376,157.108],[45.874,208.651],[73.634,221.852],[98.136,170.309],[70.376,157.108]]]},"junctions":[]},{"type":"Feature","id":"building_070851","properties":{"class":"building"},"geometry":{"type":"Polygon","coordinates":[[[31.338,144.688],[16.879,174.006],[45.409,188.102],[59.701,159.235],[31.338,144.688]]]},"junctions":[]},{"type":"Feature","id":"building_070852","properties":{"class":"building"},"geometry":{"type":"Polygon","coordinates":[[[38.942,122.365],[32.7,133.878],[66.848,152.315],[73.09,140.802],[38.942,122.365]]]},"junctions":[]}]}