{"type":"FeatureCollection","coordinateSystem":{"type":"image-pixel","origin":"top-left","x":"right","y":"down","georeferenced":false},"features":[{"type":"Feature","id":"building_070835","properties":{"class":"building"},"geometry":{"type":"Polygon","coordinates":[[[375.073,478.746],[368.622,492.824],[397.907,505.914],[404.358,491.836],[375.073,478.746]]]},"junctions":[]},{"type":"Feature","id":"building_070836","properties":{"class":"building"},"geometry":{"type":"Polygon","coordinates":[[[402.421,447.638],[390.567,480.074],[459.762,511.534],[476.027,511.534],[496.703,463.59],[446.805,443.296],[441.292,457.387],[424.062,450.297],[421.167,457.918],[402.421,447.638]]]},"junctions":[]},{"type":"Feature","id":"building_070837","properties":{"class":"building"},"geometry":{"type":"Polygon","coordinates":[[[347.827,428.241],[338.635,449.934],[347.099,453.685],[346.504,455.123],[373.75,467.564],[389.555,431.867],[360.458,419.426],[355.63,431.117],[347.827,428.241]]]},"junctions":[]},{"type":"Feature","id":"building_070838","properties":{"class":"building"},"geometry":{"type":"Polygon","coordinates":[[[446.082,406.89],[441.055,416.765],[465.348,427.33],[470.375,417.455],[446.082,406.89]]]},"junctions":[]},{"type":"Feature","id":"building_070839","properties":{"class":"building"},"geometry":{"type":"Polygon","coordinates":[[[469.449,359.481],[451.98,402.65],[488.4,418.825],[484.813,427.216],[512.03,437.326],[512.03,374.241],[469.449,359.481]]]},"junctions":[]},{"type":"Feature","id":"building_070840","properties":{"class":"building"},"geometry":{"type":"Polygon","coordinates":[[[289.924,384.032],[274.677,407.512],[320.196,437.561],[325.538,429.268],[335.109,435.838],[343.568,422.375],[333.885,415.697],[360.373,375.308],[327.987,354.629],[302.723,393.079],[289.924,384.032]]]},"junctions":[]},{"type":"Feature","id":"building_070841","properties":{"class":"building"},"geometry":{"type":"Polygon","coordinates":[[[-0.014,339.647],[-0.014,385.053],[28.534,368.542],[13.259,343.775],[4.806,348.61],[-0.014,339.647]]]},"junctions":[]},{"type":"Feature","id":"building_070842","properties":{"class":"building"},"geometry":{"type":"Polygon","coordinates":[[[408.021,294.791],[397.934,320.66],[427.823,333.371],[425.139,340.358],[453.547,352.029],[469.186,310.253],[408.021,294.791]]]},"junctions":[]},{"type":"Feature","id":"building_070843","properties":{"class":"building"},"geometry":{"type":"Polygon","coordinates":[[[143.841,301.962],[134.68,315.423],[141.072,320.1],[135.213,329.112],[131.591,326.374],[120.939,346.68],[156.091,374.514],[171.963,354.323],[184.0,364.589],[192.096,353.182],[174.946,339.151],[184.639,325.233],[188.9,328.542],[202.961,311.544],[166.743,286.676],[153.641,306.639],[143.841,301.962]]]},"junctions":[]},{"type":"Feature","id":"building_070844","properties":{"class":"building"},"geometry":{"type":"Polygon","coordinates":[[[224.254,267.459],[218.061,285.047],[230.866,290.451],[237.059,272.863],[224.254,267.459]]]},"junctions":[]},{"type":"Feature","id":"building_070845","properties":{"class":"building"},"geometry":{"type":"Polygon","coordinates":[[[319.775,257.536],[306.077,295.439],[312.058,297.837],[297.845,333.456],[329.615,345.444],[343.056,311.537],[337.268,309.253],[343.956,291.9],[341.512,290.987],[347.365,275.46],[339.519,272.492],[341.705,266.784],[319.775,257.536]]]},"junctions":[]},{"type":"Feature","id":"building_070846","properties":{"class":"building"},"geometry":{"type":"Polygon","coordinates":[[[229.358,324.113],[214.003,352.207],[210.901,350.156],[204.697,361.64],[207.954,363.69],[195.39,386.247],[247.04,408.189],[261.93,378.455],[264.256,379.685],[278.215,353.027],[274.803,351.387],[283.179,335.392],[290.003,309.144],[295.897,305.658],[314.82,263.005],[308.926,260.134],[310.787,256.033],[301.636,251.522],[299.775,255.828],[286.281,250.291],[267.513,290.688],[264.101,288.843],[247.97,323.703],[252.158,325.959],[244.868,340.313],[229.358,324.113]]]},"junctions":[]},{"type":"Feature","id":"building_070847","properties":{"class":"building"},"geometry":{"type":"Polygon","coordinates":[[[51.849,244.636],[39.304,286.228],[65.721,293.523],[59.569,314.319],[100.582,327.2],[132.186,219.34],[106.493,207.7],[92.862,256.276],[51.849,244.636]]]},"junctions":[]},{"type":"Feature","id":"building_070848","properties":{"class":"building"},"geometry":{"type":"Polygon","coordinates":[[[151.951,201.032],[139.579,249.022],[168.269,257.448],[180.641,209.458],[151.951,201.032]]]},"junctions":[]},{"type":"Feature","id":"building_070849","properties":{"class":"building"},"geometry":{"type":"Polygon","coordinates":[[[-0.008,185.182],[-0.008,219.81],[2.878,221.558],[16.578,194.772],[-0.008,185.182]]]},"junctions":[]},{"type":"Feature","id":"building_070850","properties":{"class":"building"},"geometry":{"type":"Polygon","coordinates":[[[71.055,157.108],[45.874,208.315],[72.955,221.852],[98.136,170.645],[71.055,157.108]]]},"junctions":[]},{"type":"Feature","id":"building_070851","properties":{"class":"building"},"geometry":{"type":"Polygon","coordinates":[[[31.227,144.688],[16.879,172.935],[45.353,188.102],[59.701,159.855],[31.227,144.688]]]},"junctions":[]},{"type":"Feature","id":"building_070852","properties":{"class":"building"},"geometry":{"type":"Polygon","coordinates":[[[38.89,122.365],[32.7,135.24],[66.9,152.315],[73.09,139.44],[38.89,122.365]]]},"junctions":[]}]}