{"type":"FeatureCollection","coordinateSystem":{"type":"image-pixel","origin":"top-left","x":"right","y":"down","georeferenced":false},"features":[{"type":"Feature","id":"building_000","properties":{"class":"building"},"geometry":{"type":"Polygon","coordinates":[[[-0.001,822.783],[-0.001,895.816],[2.381,896.007],[1.67,824.4],[-0.001,822.783]]]},"junctions":[]},{"type":"Feature","id":"building_010","properties":{"class":"building"},"geometry":{"type":"Polygon","coordinates":[[[649.771,907.91],[649.771,910.204],[649.771,947.15],[668.559,945.723],[667.705,908.471],[649.771,907.91]]]},"junctions":[]},{"type":"Feature","id":"building_011","properties":{"class":"building"},"geometry":{"type":"Polygon","coordinates":[[[496.452,905.869],[494.732,912.48],[491.32,940.169],[512.013,940.408],[512.341,909.845],[510.348,908.791],[500.41,904.049],[500.001,903.522],[496.452,905.869]]]},"junctions":[]},{"type":"Feature","id":"building_013","properties":{"class":"building"},"geometry":{"type":"Polygon","coordinates":[[[560.607,884.03],[560.921,903.77],[586.716,903.385],[587.483,884.03],[586.541,884.03],[564.865,884.03],[560.607,884.03]]]},"junctions":[]},{"type":"Feature","id":"building_014","properties":{"class":"building"},"geometry":{"type":"Polygon","coordinates":[[[564.249,866.81],[564.857,884.049],[586.541,884.049],[586.252,866.421],[564.249,866.81]]]},"junctions":[]},{"type":"Feature","id":"building_015","properties":{"class":"building"},"geometry":{"type":"Polygon","coordinates":[[[601.828,748.008],[601.203,869.92],[634.391,871.362],[635.597,748.649],[623.269,748.489],[601.828,748.008]]]},"junctions":[]},{"type":"Feature","id":"building_016","properties":{"class":"building"},"geometry":{"type":"Polygon","coordinates":[[[692.75,738.791],[692.29,755.824],[713.16,756.209],[713.16,743.315],[713.16,739.131],[692.75,738.791]]]},"junctions":[]},{"type":"Feature","id":"building_018","properties":{"class":"building"},"geometry":{"type":"Polygon","coordinates":[[[715.33,743.248],[716.046,808.043],[734.754,807.788],[735.01,742.567],[715.33,743.248]]]},"junctions":[]},{"type":"Feature","id":"building_019","properties":{"class":"building"},"geometry":{"type":"Polygon","coordinates":[[[714.299,722.451],[714.133,724.814],[713.139,739.154],[734.391,740.289],[733.231,722.845],[723.903,722.66],[714.299,722.451]]]},"junctions":[]},{"type":"Feature","id":"building_020","properties":{"class":"building"},"geometry":{"type":"Polygon","coordinates":[[[708.417,704.23],[707.832,725.01],[714.12,724.821],[714.287,722.474],[723.918,722.662],[723.479,704.23],[708.417,704.23]]]},"junctions":[]},{"type":"Feature","id":"building_021","properties":{"class":"building"},"geometry":{"type":"Polygon","coordinates":[[[750.29,676.704],[750.723,682.595],[752.157,702.754],[771.13,701.973],[768.857,675.426],[750.29,676.704]]]},"junctions":[]},{"type":"Feature","id":"building_022","properties":{"class":"building"},"geometry":{"type":"Polygon","coordinates":[[[728.935,668.709],[729.395,674.111],[725.417,674.39],[726.009,684.358],[750.733,682.6],[750.305,676.727],[749.023,667.852],[735.675,668.431],[728.935,668.709]]]},"junctions":[]},{"type":"Feature","id":"building_023","properties":{"class":"building"},"geometry":{"type":"Polygon","coordinates":[[[735.367,657.055],[735.679,668.427],[749.023,667.847],[762.123,665.874],[761.533,654.483],[735.367,657.055]]]},"junctions":[]},{"type":"Feature","id":"building_024","properties":{"class":"building"},"geometry":{"type":"Polygon","coordinates":[[[791.401,606.788],[814.092,705.143],[850.229,696.673],[826.698,599.957],[791.401,606.788]]]},"junctions":[]},{"type":"Feature","id":"building_025","properties":{"class":"building"},"geometry":{"type":"Polygon","coordinates":[[[905.672,617.471],[910.871,642.453],[906.324,642.865],[908.597,651.208],[921.878,647.403],[915.038,615.912],[905.672,617.471]]]},"junctions":[]},{"type":"Feature","id":"building_026","properties":{"class":"building"},"geometry":{"type":"Polygon","coordinates":[[[730.842,616.702],[735.082,653.661],[767.528,650.797],[762.097,611.249],[730.842,616.702]]]},"junctions":[]},{"type":"Feature","id":"building_028","properties":{"class":"building"},"geometry":{"type":"Polygon","coordinates":[[[914.453,554.508],[921.593,590.707],[1009.247,570.549],[1000.137,536.053],[914.453,554.508]]]},"junctions":[]},{"type":"Feature","id":"building_029","properties":{"class":"building"},"geometry":{"type":"Polygon","coordinates":[[[802.578,527.327],[807.508,551.086],[846.212,540.837],[841.622,518.064],[802.578,527.327]]]},"junctions":[]},{"type":"Feature","id":"building_030","properties":{"class":"building"},"geometry":{"type":"Polygon","coordinates":[[[906.214,485.733],[906.052,498.927],[921.618,498.927],[919.718,486.025],[906.214,485.733]]]},"junctions":[]},{"type":"Feature","id":"building_031","properties":{"class":"building"},"geometry":{"type":"Polygon","coordinates":[[[906.827,197.453],[906.716,201.446],[905.851,230.842],[922.929,231.237],[921.775,197.453],[906.827,197.453]]]},"junctions":[]},{"type":"Feature","id":"building_033","properties":{"class":"building"},"geometry":{"type":"Polygon","coordinates":[[[872.096,189.843],[871.822,200.988],[906.7,201.436],[906.836,197.471],[906.928,189.124],[872.096,189.843]]]},"junctions":[]},{"type":"Feature","id":"building_034","properties":{"class":"building"},"geometry":{"type":"Polygon","coordinates":[[[817.892,1014.574],[817.892,1024.005],[833.863,1024.005],[833.988,1014.812],[820.024,1014.335],[817.892,1014.574]]]},"junctions":[]},{"type":"Feature","id":"building_035","properties":{"class":"building"},"geometry":{"type":"Polygon","coordinates":[[[957.313,970.425],[955.893,1024.027],[988.815,1024.027],[990.057,969.933],[957.313,970.425]]]},"junctions":[]},{"type":"Feature","id":"building_036","properties":{"class":"building"},"geometry":{"type":"Polygon","coordinates":[[[930.529,985.873],[930.887,998.302],[937.522,998.556],[937.044,1007.321],[952.705,1007.067],[953.541,985.619],[930.529,985.873]]]},"junctions":[]},{"type":"Feature","id":"building_037","properties":{"class":"building"},"geometry":{"type":"Polygon","coordinates":[[[930.529,976.575],[930.529,985.865],[953.541,985.622],[953.302,976.025],[930.529,976.575]]]},"junctions":[]},{"type":"Feature","id":"building_038","properties":{"class":"building"},"geometry":{"type":"Polygon","coordinates":[[[795.385,1001.059],[794.539,1024.011],[815.997,1024.011],[816.251,1001.297],[795.385,1001.059]]]},"junctions":[]},{"type":"Feature","id":"building_039","properties":{"class":"building"},"geometry":{"type":"Polygon","coordinates":[[[820.667,991.207],[819.986,1014.324],[833.931,1014.797],[897.76,1016.957],[904.676,1017.193],[904.676,1007.71],[907.284,1004.605],[906.49,1000.589],[903.882,997.99],[897.987,997.045],[897.08,992.523],[820.667,991.207]]]},"junctions":[]},{"type":"Feature","id":"building_004","properties":{"class":"building"},"geometry":{"type":"Polygon","coordinates":[[[728.389,861.009],[725.504,957.158],[655.287,1024.081],[698.296,1024.081],[758.482,965.841],[761.093,861.432],[728.389,861.009]]]},"junctions":[]},{"type":"Feature","id":"building_040","properties":{"class":"building"},"geometry":{"type":"Polygon","coordinates":[[[861.276,955.558],[859.828,968.376],[862.201,980.232],[883.059,980.232],[883.552,956.295],[861.276,955.558]]]},"junctions":[]},{"type":"Feature","id":"building_041","properties":{"class":"building"},"geometry":{"type":"Polygon","coordinates":[[[849.282,955.043],[848.694,968.607],[859.846,968.36],[861.266,955.572],[849.282,955.043]]]},"junctions":[]},{"type":"Feature","id":"building_042","properties":{"class":"building"},"geometry":{"type":"Polygon","coordinates":[[[853.951,881.008],[859.105,908.423],[864.034,935.229],[887.56,931.041],[887.709,934.62],[911.459,930.279],[909.89,920.227],[886.439,924.035],[877.104,876.591],[853.951,881.008]]]},"junctions":[]},{"type":"Feature","id":"building_043","properties":{"class":"building"},"geometry":{"type":"Polygon","coordinates":[[[849.475,882.021],[856.449,909.174],[859.065,908.442],[853.971,880.996],[849.475,882.021]]]},"junctions":[]},{"type":"Feature","id":"building_044","properties":{"class":"building"},"geometry":{"type":"Polygon","coordinates":[[[819.763,858.935],[830.57,912.57],[823.622,914.051],[826.71,931.238],[854.727,923.237],[844.193,879.382],[841.65,868.714],[838.925,869.405],[835.792,855.182],[819.763,858.935]]]},"junctions":[]},{"type":"Feature","id":"building_045","properties":{"class":"building"},"geometry":{"type":"Polygon","coordinates":[[[804.41,856.507],[817.511,903.506],[806.492,906.386],[810.301,920.226],[822.081,918.275],[821.472,914.467],[823.655,914.095],[830.612,912.609],[819.796,858.922],[835.791,855.206],[838.94,869.418],[841.631,868.675],[843.51,868.21],[839.143,848.704],[804.41,856.507]]]},"junctions":[]},{"type":"Feature","id":"building_046","properties":{"class":"building"},"geometry":{"type":"Polygon","coordinates":[[[839.1,848.716],[843.496,868.248],[841.612,868.688],[844.229,879.364],[902.952,865.924],[905.778,876.915],[919.7,874.089],[911.326,831.006],[839.1,848.716]]]},"junctions":[]},{"type":"Feature","id":"building_047","properties":{"class":"building"},"geometry":{"type":"Polygon","coordinates":[[[791.21,832.883],[795.062,842.675],[791.516,843.82],[794.551,851.51],[810.85,847.093],[807.662,831.02],[796.184,834.0],[795.266,832.031],[791.21,832.883]]]},"junctions":[]},{"type":"Feature","id":"building_048","properties":{"class":"building"},"geometry":{"type":"Polygon","coordinates":[[[820.02,833.897],[821.502,845.337],[840.77,841.524],[838.614,830.433],[820.02,833.897]]]},"junctions":[]},{"type":"Feature","id":"building_049","properties":{"class":"building"},"geometry":{"type":"Polygon","coordinates":[[[807.013,824.965],[812.333,848.822],[821.697,846.791],[821.507,845.34],[820.019,833.895],[818.741,823.998],[807.013,824.965]]]},"junctions":[]},{"type":"Feature","id":"building_005","properties":{"class":"building"},"geometry":{"type":"Polygon","coordinates":[[[511.286,968.952],[511.286,1023.956],[480.477,1023.956],[480.477,1024.028],[526.782,1024.028],[526.965,1010.724],[527.27,984.259],[527.453,968.952],[511.286,968.952]]]},"junctions":[]},{"type":"Feature","id":"building_050","properties":{"class":"building"},"geometry":{"type":"Polygon","coordinates":[[[838.604,830.453],[840.74,841.546],[842.341,843.252],[889.986,833.013],[887.517,818.918],[838.604,830.453]]]},"junctions":[]},{"type":"Feature","id":"building_051","properties":{"class":"building"},"geometry":{"type":"Polygon","coordinates":[[[835.894,813.922],[839.033,825.307],[848.616,823.725],[845.527,811.923],[835.894,813.922]]]},"junctions":[]},{"type":"Feature","id":"building_052","properties":{"class":"building"},"geometry":{"type":"Polygon","coordinates":[[[805.123,813.114],[807.019,824.967],[818.767,824.007],[817.013,811.283],[805.123,813.114]]]},"junctions":[]},{"type":"Feature","id":"building_053","properties":{"class":"building"},"geometry":{"type":"Polygon","coordinates":[[[845.531,811.92],[848.621,823.732],[849.268,826.249],[863.979,822.553],[860.649,808.791],[845.531,811.92]]]},"junctions":[]},{"type":"Feature","id":"building_054","properties":{"class":"building"},"geometry":{"type":"Polygon","coordinates":[[[833.5,804.723],[835.922,813.91],[845.532,811.936],[860.611,808.785],[863.971,822.565],[893.66,816.301],[888.503,793.335],[833.5,804.723]]]},"junctions":[]},{"type":"Feature","id":"building_055","properties":{"class":"building"},"geometry":{"type":"Polygon","coordinates":[[[757.035,786.859],[756.78,797.116],[761.874,797.116],[762.154,807.921],[776.084,807.62],[776.39,787.16],[757.035,786.859]]]},"junctions":[]},{"type":"Feature","id":"building_056","properties":{"class":"building"},"geometry":{"type":"Polygon","coordinates":[[[886.942,777.737],[888.928,786.612],[894.456,811.508],[903.568,809.406],[896.443,775.542],[886.942,777.737]]]},"junctions":[]},{"type":"Feature","id":"building_057","properties":{"class":"building"},"geometry":{"type":"Polygon","coordinates":[[[827.829,786.538],[829.179,797.04],[888.941,786.588],[886.956,777.74],[827.829,786.538]]]},"junctions":[]},{"type":"Feature","id":"building_058","properties":{"class":"building"},"geometry":{"type":"Polygon","coordinates":[[[999.742,960.819],[1001.217,974.328],[1014.878,973.933],[1014.111,959.142],[999.742,960.819]]]},"junctions":[]},{"type":"Feature","id":"building_059","properties":{"class":"building"},"geometry":{"type":"Polygon","coordinates":[[[1019.047,953.079],[1018.247,974.331],[1024.003,974.331],[1024.003,953.328],[1019.047,953.079]]]},"junctions":[]},{"type":"Feature","id":"building_006","properties":{"class":"building"},"geometry":{"type":"Polygon","coordinates":[[[527.253,984.227],[526.926,1010.719],[553.515,1011.173],[554.934,985.101],[527.253,984.227]]]},"junctions":[]},{"type":"Feature","id":"building_060","properties":{"class":"building"},"geometry":{"type":"Polygon","coordinates":[[[939.939,914.22],[946.355,947.064],[1022.281,931.659],[1015.116,899.616],[939.939,914.22]]]},"junctions":[]},{"type":"Feature","id":"building_061","properties":{"class":"building"},"geometry":{"type":"Polygon","coordinates":[[[896.186,675.912],[943.351,870.834],[1024.064,850.745],[1024.064,806.494],[971.75,816.81],[937.207,666.954],[922.26,670.211],[920.433,661.796],[911.465,663.967],[913.956,672.112],[896.186,675.912]]]},"junctions":[]},{"type":"Feature","id":"building_007","properties":{"class":"building"},"geometry":{"type":"Polygon","coordinates":[[[585.931,983.332],[585.554,1001.219],[617.062,1000.083],[617.816,983.001],[585.931,983.332]]]},"junctions":[]},{"type":"Feature","id":"building_008","properties":{"class":"building"},"geometry":{"type":"Polygon","coordinates":[[[481.025,940.038],[481.907,968.499],[476.213,970.898],[476.213,975.586],[478.111,979.839],[478.111,981.802],[475.738,986.491],[475.264,992.706],[478.111,995.541],[475.738,999.358],[475.264,1006.882],[480.009,1011.135],[480.483,1024.002],[511.324,1024.002],[511.324,968.935],[527.456,968.935],[527.185,955.74],[526.982,940.583],[515.594,940.474],[512.002,940.365],[491.328,940.147],[481.025,940.038]]]},"junctions":[]},{"type":"Feature","id":"building_009","properties":{"class":"building"},"geometry":{"type":"Polygon","coordinates":[[[562.596,909.813],[563.956,963.697],[649.597,962.927],[649.824,947.112],[649.824,910.233],[562.596,909.813]]]},"junctions":[]},{"type":"Feature","id":"water_000","properties":{"class":"water"},"geometry":{"type":"Polygon","coordinates":[[[-0.188,-0.067],[1.765,103.93],[13.973,103.93],[21.786,107.066],[41.807,108.982],[53.038,115.95],[83.801,118.041],[110.169,127.97],[118.959,134.067],[129.213,134.067],[142.886,130.06],[166.813,126.925],[181.95,122.047],[203.924,119.957],[214.179,118.041],[214.179,116.995],[221.015,116.995],[221.015,115.95],[255.196,111.073],[264.962,107.937],[284.983,106.021],[288.889,103.93],[313.793,99.924],[323.071,96.962],[329.907,96.962],[339.185,94.001],[355.787,92.956],[361.159,98.008],[375.808,-0.067],[-0.188,-0.067]]]},"junctions":[]},{"type":"Feature","id":"water_001","properties":{"class":"water"},"geometry":{"type":"Polygon","coordinates":[[[452.644,-0.038],[444.639,75.518],[467.585,71.495],[471.854,67.472],[482.527,68.453],[500.67,62.467],[524.683,59.524],[519.347,38.525],[527.885,29.988],[536.956,36.857],[539.624,56.58],[548.696,53.44],[561.503,52.949],[560.969,18.115],[576.444,9.284],[584.982,17.232],[602.058,21.746],[628.74,22.04],[640.479,27.437],[639.412,41.076],[662.891,39.506],[689.573,31.46],[715.72,29.498],[733.863,24.493],[758.944,21.451],[800.566,10.462],[820.844,8.499],[835.786,2.513],[844.857,2.513],[853.395,-0.038],[452.644,-0.038]]]},"junctions":[]},{"type":"Feature","id":"road_network","properties":{"class":"road","topologyMode":"stitched-graph"},"geometry":{"type":"MultiLineString","coordinates":[[[406,0],[390,127],[377,229]],[[426,0],[409,127],[396,229]],[[576,61],[703,38],[831,15],[917,0],[895,4],[767,26],[639,49],[576,61]],[[576,61],[511,71],[383,93],[307,106],[256,116],[127,141],[68,153],[191,129],[320,104],[447,82],[576,61]],[[398,64],[381,191],[377,229]],[[417,64],[401,191],[396,229]],[[102,221],[87,221],[71,225],[0,252]],[[102,221],[127,222],[255,226],[377,229]],[[102,221],[191,224],[319,228],[377,229]],[[102,221],[95,227]],[[666,223],[639,223],[511,227],[396,229]],[[666,223],[689,224],[705,230],[721,237]],[[666,223],[575,225],[447,228],[396,229]],[[666,223],[680,236],[689,255],[690,269],[687,283],[680,296]],[[95,227],[86,249],[83,258]],[[95,227],[83,258]],[[377,229],[396,229]],[[377,229],[374,255]],[[377,229],[373,269]],[[396,229],[393,255]],[[396,229],[386,319],[371,448],[361,529]],[[721,237],[735,247],[768,273],[787,287]],[[721,237],[747,255],[787,287]],[[721,237],[787,287]],[[83,258],[83,271],[86,282],[91,290]],[[373,269],[366,319],[348,447],[333,555]],[[373,269],[357,383],[339,511],[333,555]],[[392,269],[378,383],[363,512],[361,529]],[[787,287],[807,298]],[[0,289],[91,290]],[[64,289],[91,290]],[[91,290],[127,290],[255,291],[383,293],[511,294],[639,296],[680,296]],[[91,290],[149,290],[191,291],[319,292],[447,293],[575,295],[680,296]],[[680,296],[703,297],[807,298]],[[680,296],[767,298],[807,298]],[[807,298],[831,298],[959,299]],[[807,298],[895,298],[1023,300]],[[0,306],[25,306]],[[25,306],[127,309],[256,312]],[[25,306],[44,316],[69,336]],[[64,307],[191,311],[256,312]],[[256,312],[319,313],[447,313]],[[256,312],[383,313],[462,313]],[[256,312],[223,320],[199,330],[179,341],[166,356],[157,369],[150,384],[144,407],[138,439],[140,463]],[[462,313],[511,314],[639,315],[767,316],[789,316]],[[462,313],[575,314],[703,315],[789,316]],[[462,313],[507,322],[520,329],[533,338]],[[789,316],[831,317],[959,317]],[[789,316],[895,317],[1023,317]],[[789,316],[767,322],[738,333]],[[789,316],[759,325],[738,333]],[[49,320],[69,336]],[[738,333],[715,344]],[[69,336],[81,351]],[[533,338],[543,350],[557,368]],[[533,338],[557,368]],[[715,344],[677,368]],[[715,344],[664,377]],[[81,351],[100,383],[120,419]],[[81,351],[120,419]],[[557,368],[565,384],[572,404],[576,425],[576,441],[569,465]],[[677,368],[703,351],[664,377]],[[677,368],[656,383]],[[664,377],[646,391],[628,408]],[[639,397],[597,440]],[[628,408],[597,440]],[[628,408],[591,447],[560,490]],[[120,419],[128,435],[140,463]],[[120,419],[136,448],[140,463]],[[597,440],[575,469],[560,490]],[[597,440],[560,490]],[[574,448],[569,465]],[[876,458],[895,459],[1023,462]],[[876,458],[959,460]],[[876,458],[849,461],[831,471]],[[140,463],[153,511],[165,561]],[[140,463],[165,561]],[[569,465],[560,490]],[[831,471],[787,511],[758,539]],[[831,471],[768,530]],[[831,471],[758,539]],[[560,490],[549,511],[528,552]],[[560,490],[528,552]],[[361,529],[374,547]],[[361,529],[355,575],[339,703],[323,831],[307,959]],[[361,529],[347,639],[331,767],[315,896],[299,1021]],[[758,539],[720,575],[694,601]],[[758,539],[766,575],[795,704],[808,761]],[[758,539],[704,591]],[[758,539],[694,601]],[[758,539],[780,640],[808,761]],[[374,547],[385,559],[396,570]],[[374,547],[396,570]],[[528,552],[511,568],[499,576],[486,583],[472,589],[457,591],[441,591],[425,587],[410,580],[396,570]],[[528,552],[517,575],[502,611]],[[528,552],[512,588]],[[528,552],[502,611]],[[333,555],[320,575]],[[333,555],[330,575],[315,703],[300,832],[286,959]],[[333,555],[314,587],[299,599],[283,607],[267,613],[248,614],[232,612],[215,607],[202,600],[189,591],[178,581],[165,561]],[[333,555],[323,639],[308,768],[293,895],[279,1021],[276,944]],[[165,561],[172,575]],[[165,561],[189,639],[224,767]],[[172,575],[180,610]],[[172,575],[207,704],[242,831],[276,944]],[[0,581],[8,582]],[[1023,595],[995,602]],[[694,601],[684,618],[682,639]],[[995,602],[927,618],[959,610]],[[995,602],[1004,639],[1022,722]],[[995,602],[1018,703],[1022,722]],[[502,611],[486,639]],[[502,611],[452,703],[384,831]],[[486,639],[447,712]],[[486,639],[418,767]],[[682,639],[682,703],[680,831]],[[682,639],[681,767],[680,843]],[[192,652],[224,767]],[[447,712],[418,767]],[[447,712],[384,831]],[[1022,722],[1023,731]],[[1022,722],[969,734]],[[969,734],[977,767],[985,804]],[[969,734],[985,804]],[[894,748],[901,749]],[[894,748],[832,761],[817,764]],[[894,748],[817,764]],[[901,749],[905,768],[912,800],[901,749]],[[808,761],[817,764]],[[224,767],[255,878],[276,944]],[[224,767],[261,896],[276,944]],[[418,767],[384,831]],[[418,767],[349,895]],[[1023,795],[985,804]],[[384,831],[349,895]],[[384,831],[326,940]],[[514,843],[527,841],[498,846],[485,862],[477,883],[473,959]],[[680,843],[704,844],[763,847]],[[680,843],[763,847]],[[680,843],[678,895],[677,952]],[[680,843],[677,952]],[[763,847],[776,855],[782,866]],[[782,866],[782,895],[781,969],[778,985],[769,1000],[744,1023]],[[782,866],[781,959]],[[349,895],[326,940]],[[476,896],[471,1023]],[[0,938],[11,938]],[[11,938],[10,959]],[[11,938],[8,1023]],[[326,940],[319,958],[299,1021]],[[326,940],[299,1021]],[[276,944],[276,959]],[[920,948],[921,962],[920,1023]],[[677,952],[673,963]],[[673,963],[668,969],[615,1023],[639,998],[673,963]]]},"junctions":[[576,61],[102,221],[666,223],[95,227],[377,229],[396,229],[721,237],[83,258],[373,269],[787,287],[91,290],[680,296],[807,298],[25,306],[256,312],[462,313],[789,316],[738,333],[69,336],[533,338],[715,344],[81,351],[557,368],[677,368],[664,377],[628,408],[120,419],[597,440],[876,458],[140,463],[569,465],[831,471],[560,490],[361,529],[758,539],[374,547],[528,552],[333,555],[165,561],[396,570],[172,575],[694,601],[995,602],[502,611],[486,639],[682,639],[447,712],[1022,722],[969,734],[894,748],[901,749],[808,761],[817,764],[224,767],[418,767],[985,804],[384,831],[680,843],[763,847],[782,866],[349,895],[11,938],[326,940],[276,944],[677,952],[673,963],[299,1021]]}]}