{"type":"FeatureCollection","coordinateSystem":{"type":"image-pixel","origin":"top-left","x":"right","y":"down","georeferenced":false},"features":[{"type":"Feature","id":"building_000","properties":{"class":"building"},"geometry":{"type":"Polygon","coordinates":[[[-0.001,822.879],[-0.001,896.007],[2.381,895.911],[2.05,822.783],[-0.001,822.879]]]},"junctions":[]},{"type":"Feature","id":"building_010","properties":{"class":"building"},"geometry":{"type":"Polygon","coordinates":[[[649.771,907.91],[650.039,946.742],[668.559,947.15],[667.583,908.267],[649.771,907.91]]]},"junctions":[]},{"type":"Feature","id":"building_011","properties":{"class":"building"},"geometry":{"type":"Polygon","coordinates":[[[495.196,903.522],[491.32,938.444],[509.119,940.408],[512.341,909.845],[500.274,904.528],[495.196,903.522]]]},"junctions":[]},{"type":"Feature","id":"building_013","properties":{"class":"building"},"geometry":{"type":"Polygon","coordinates":[[[560.607,884.03],[560.851,901.95],[587.134,903.77],[587.483,884.825],[560.607,884.03]]]},"junctions":[]},{"type":"Feature","id":"building_014","properties":{"class":"building"},"geometry":{"type":"Polygon","coordinates":[[[565.349,866.421],[564.249,882.08],[585.991,884.049],[586.541,867.131],[565.349,866.421]]]},"junctions":[]},{"type":"Feature","id":"building_015","properties":{"class":"building"},"geometry":{"type":"Polygon","coordinates":[[[601.203,748.008],[601.784,775.242],[605.312,775.082],[605.089,785.495],[602.543,785.495],[602.052,839.963],[601.56,871.362],[635.597,871.041],[635.597,748.489],[622.331,748.489],[601.203,748.008]]]},"junctions":[]},{"type":"Feature","id":"building_016","properties":{"class":"building"},"geometry":{"type":"Polygon","coordinates":[[[692.29,738.791],[692.479,756.209],[713.16,756.209],[712.971,739.244],[692.29,738.791]]]},"junctions":[]},{"type":"Feature","id":"building_018","properties":{"class":"building"},"geometry":{"type":"Polygon","coordinates":[[[715.33,743.163],[716.327,808.043],[735.01,807.618],[734.013,742.567],[715.33,743.163]]]},"junctions":[]},{"type":"Feature","id":"building_019","properties":{"class":"building"},"geometry":{"type":"Polygon","coordinates":[[[713.139,722.451],[713.719,740.08],[734.17,740.289],[734.391,722.683],[713.139,722.451]]]},"junctions":[]},{"type":"Feature","id":"building_020","properties":{"class":"building"},"geometry":{"type":"Polygon","coordinates":[[[707.832,704.607],[708.062,725.01],[723.918,725.01],[723.312,704.23],[707.832,704.607]]]},"junctions":[]},{"type":"Feature","id":"building_021","properties":{"class":"building"},"geometry":{"type":"Polygon","coordinates":[[[750.29,676.207],[751.21,702.754],[771.13,701.973],[770.21,675.426],[750.29,676.207]]]},"junctions":[]},{"type":"Feature","id":"building_022","properties":{"class":"building"},"geometry":{"type":"Polygon","coordinates":[[[728.968,668.259],[728.968,675.205],[725.417,675.483],[725.417,684.358],[750.733,684.187],[750.733,667.852],[728.968,668.259]]]},"junctions":[]},{"type":"Feature","id":"building_023","properties":{"class":"building"},"geometry":{"type":"Polygon","coordinates":[[[735.367,657.073],[736.479,668.427],[749.614,667.703],[762.123,666.906],[761.289,654.483],[735.367,657.073]]]},"junctions":[]},{"type":"Feature","id":"building_024","properties":{"class":"building"},"geometry":{"type":"Polygon","coordinates":[[[791.401,606.924],[815.925,705.143],[850.229,695.717],[844.347,670.718],[839.075,672.358],[834.949,653.779],[840.144,652.55],[827.08,599.957],[791.401,606.924]]]},"junctions":[]},{"type":"Feature","id":"building_025","properties":{"class":"building"},"geometry":{"type":"Polygon","coordinates":[[[905.672,618.113],[910.281,642.498],[907.166,643.461],[909.06,651.208],[921.878,647.541],[914.933,615.912],[905.672,618.113]]]},"junctions":[]},{"type":"Feature","id":"building_026","properties":{"class":"building"},"geometry":{"type":"Polygon","coordinates":[[[730.842,616.206],[734.653,653.661],[767.528,652.89],[766.528,631.133],[762.335,631.133],[761.001,611.249],[730.842,616.206]]]},"junctions":[]},{"type":"Feature","id":"building_028","properties":{"class":"building"},"geometry":{"type":"Polygon","coordinates":[[[914.453,556.85],[922.701,590.707],[1009.247,571.259],[1001.122,536.053],[914.453,556.85]]]},"junctions":[]},{"type":"Feature","id":"building_029","properties":{"class":"building"},"geometry":{"type":"Polygon","coordinates":[[[802.578,528.442],[807.225,551.086],[846.212,540.493],[841.735,518.064],[802.578,528.442]]]},"junctions":[]},{"type":"Feature","id":"building_030","properties":{"class":"building"},"geometry":{"type":"Polygon","coordinates":[[[906.052,486.196],[906.416,498.927],[921.618,498.464],[921.254,485.733],[906.052,486.196]]]},"junctions":[]},{"type":"Feature","id":"building_031","properties":{"class":"building"},"geometry":{"type":"Polygon","coordinates":[[[905.851,197.672],[906.029,231.237],[922.929,231.017],[922.751,197.453],[905.851,197.672]]]},"junctions":[]},{"type":"Feature","id":"building_033","properties":{"class":"building"},"geometry":{"type":"Polygon","coordinates":[[[871.822,189.124],[872.187,201.436],[906.928,201.02],[906.198,189.971],[871.822,189.124]]]},"junctions":[]},{"type":"Feature","id":"building_034","properties":{"class":"building"},"geometry":{"type":"Polygon","coordinates":[[[817.892,1014.335],[818.038,1024.005],[833.988,1024.005],[833.988,1020.74],[833.988,1015.629],[819.313,1014.335],[817.892,1014.335]]]},"junctions":[]},{"type":"Feature","id":"building_035","properties":{"class":"building"},"geometry":{"type":"Polygon","coordinates":[[[957.091,969.933],[955.893,1024.027],[988.859,1024.027],[990.057,971.127],[957.091,969.933]]]},"junctions":[]},{"type":"Feature","id":"building_036","properties":{"class":"building"},"geometry":{"type":"Polygon","coordinates":[[[930.529,986.662],[931.634,1007.321],[953.541,1006.25],[952.436,985.619],[930.529,986.662]]]},"junctions":[]},{"type":"Feature","id":"building_037","properties":{"class":"building"},"geometry":{"type":"Polygon","coordinates":[[[930.529,976.025],[930.708,985.865],[953.541,985.75],[953.362,976.14],[930.529,976.025]]]},"junctions":[]},{"type":"Feature","id":"building_038","properties":{"class":"building"},"geometry":{"type":"Polygon","coordinates":[[[794.539,1001.059],[794.539,1024.011],[815.969,1024.011],[816.251,1015.009],[809.907,1014.443],[809.737,1001.297],[794.539,1001.059]]]},"junctions":[]},{"type":"Feature","id":"building_039","properties":{"class":"building"},"geometry":{"type":"Polygon","coordinates":[[[819.986,991.207],[820.893,1014.459],[907.284,1017.193],[906.49,997.147],[889.144,996.809],[889.144,992.489],[819.986,991.207]]]},"junctions":[]},{"type":"Feature","id":"building_004","properties":{"class":"building"},"geometry":{"type":"Polygon","coordinates":[[[729.351,861.009],[727.427,953.558],[655.287,1024.081],[697.609,1024.081],[759.719,964.994],[761.093,861.856],[729.351,861.009]]]},"junctions":[]},{"type":"Feature","id":"building_040","properties":{"class":"building"},"geometry":{"type":"Polygon","coordinates":[[[860.229,955.558],[859.828,979.527],[883.151,980.232],[883.552,956.263],[860.229,955.558]]]},"junctions":[]},{"type":"Feature","id":"building_041","properties":{"class":"building"},"geometry":{"type":"Polygon","coordinates":[[[848.694,955.043],[848.906,968.607],[861.266,968.607],[861.005,955.202],[848.694,955.043]]]},"junctions":[]},{"type":"Feature","id":"building_042","properties":{"class":"building"},"geometry":{"type":"Polygon","coordinates":[[[853.951,881.845],[865.079,935.229],[887.335,932.945],[887.335,927.385],[911.459,924.72],[911.085,919.542],[896.82,919.998],[896.074,914.82],[886.29,915.582],[875.61,876.591],[853.951,881.845]]]},"junctions":[]},{"type":"Feature","id":"building_043","properties":{"class":"building"},"geometry":{"type":"Polygon","coordinates":[[[849.475,882.387],[855.839,909.174],[859.065,907.674],[852.439,880.996],[849.475,882.387]]]},"junctions":[]},{"type":"Feature","id":"building_044","properties":{"class":"building"},"geometry":{"type":"Polygon","coordinates":[[[819.763,859.923],[830.797,910.594],[822.896,913.459],[826.892,931.238],[854.727,922.25],[836.746,855.182],[819.763,859.923]]]},"junctions":[]},{"type":"Feature","id":"building_045","properties":{"class":"building"},"geometry":{"type":"Polygon","coordinates":[[[804.41,856.507],[817.105,904.064],[807.356,906.665],[810.098,920.226],[822.691,916.789],[822.03,913.817],[830.713,911.495],[820.152,860.686],[837.416,856.042],[835.893,848.704],[804.41,856.507]]]},"junctions":[]},{"type":"Feature","id":"building_046","properties":{"class":"building"},"geometry":{"type":"Polygon","coordinates":[[[839.1,849.282],[844.02,879.364],[919.7,868.499],[913.21,831.006],[839.1,849.282]]]},"junctions":[]},{"type":"Feature","id":"building_047","properties":{"class":"building"},"geometry":{"type":"Polygon","coordinates":[[[791.21,834.719],[794.271,851.51],[810.85,847.838],[807.534,831.02],[791.21,834.719]]]},"junctions":[]},{"type":"Feature","id":"building_048","properties":{"class":"building"},"geometry":{"type":"Polygon","coordinates":[[[820.02,833.22],[821.744,845.337],[840.77,842.763],[839.046,830.433],[820.02,833.22]]]},"junctions":[]},{"type":"Feature","id":"building_049","properties":{"class":"building"},"geometry":{"type":"Polygon","coordinates":[[[807.013,825.61],[807.68,831.381],[809.683,831.735],[812.887,848.822],[821.697,847.243],[817.959,823.998],[807.013,825.61]]]},"junctions":[]},{"type":"Feature","id":"building_005","properties":{"class":"building"},"geometry":{"type":"Polygon","coordinates":[[[481.758,968.952],[480.477,1024.028],[527.453,1024.028],[527.453,971.527],[481.758,968.952]]]},"junctions":[]},{"type":"Feature","id":"building_050","properties":{"class":"building"},"geometry":{"type":"Polygon","coordinates":[[[838.604,830.421],[842.008,843.252],[889.986,832.602],[886.582,818.918],[838.604,830.421]]]},"junctions":[]},{"type":"Feature","id":"building_051","properties":{"class":"building"},"geometry":{"type":"Polygon","coordinates":[[[835.894,813.766],[838.62,825.307],[848.616,823.221],[846.204,811.923],[835.894,813.766]]]},"junctions":[]},{"type":"Feature","id":"building_052","properties":{"class":"building"},"geometry":{"type":"Polygon","coordinates":[[[805.123,812.954],[806.08,824.967],[818.767,824.327],[817.349,811.283],[805.123,812.954]]]},"junctions":[]},{"type":"Feature","id":"building_053","properties":{"class":"building"},"geometry":{"type":"Polygon","coordinates":[[[845.531,811.489],[847.879,826.249],[863.979,823.505],[861.128,808.791],[845.531,811.489]]]},"junctions":[]},{"type":"Feature","id":"building_054","properties":{"class":"building"},"geometry":{"type":"Polygon","coordinates":[[[833.5,804.989],[836.625,814.365],[860.299,809.317],[863.424,822.565],[893.66,815.276],[889.285,793.335],[833.5,804.989]]]},"junctions":[]},{"type":"Feature","id":"building_055","properties":{"class":"building"},"geometry":{"type":"Polygon","coordinates":[[[756.78,787.242],[756.882,807.921],[776.39,807.538],[776.288,786.859],[756.78,787.242]]]},"junctions":[]},{"type":"Feature","id":"building_056","properties":{"class":"building"},"geometry":{"type":"Polygon","coordinates":[[[886.942,777.877],[893.225,811.508],[903.568,809.546],[898.17,775.542],[886.942,777.877]]]},"junctions":[]},{"type":"Feature","id":"building_057","properties":{"class":"building"},"geometry":{"type":"Polygon","coordinates":[[[827.829,787.515],[828.861,797.04],[888.941,787.24],[887.829,777.74],[827.829,787.515]]]},"junctions":[]},{"type":"Feature","id":"building_058","properties":{"class":"building"},"geometry":{"type":"Polygon","coordinates":[[[999.742,959.951],[1000.784,974.328],[1014.878,973.775],[1014.367,959.142],[999.742,959.951]]]},"junctions":[]},{"type":"Feature","id":"building_059","properties":{"class":"building"},"geometry":{"type":"Polygon","coordinates":[[[1019.062,953.079],[1018.247,973.944],[1024.003,974.331],[1024.003,953.355],[1019.062,953.079]]]},"junctions":[]},{"type":"Feature","id":"building_006","properties":{"class":"building"},"geometry":{"type":"Polygon","coordinates":[[[527.144,984.227],[526.926,1010.509],[554.716,1011.173],[554.934,984.891],[527.144,984.227]]]},"junctions":[]},{"type":"Feature","id":"building_060","properties":{"class":"building"},"geometry":{"type":"Polygon","coordinates":[[[939.939,914.343],[946.997,947.064],[1022.281,929.933],[1022.281,915.021],[1019.928,899.616],[939.939,914.343]]]},"junctions":[]},{"type":"Feature","id":"building_061","properties":{"class":"building"},"geometry":{"type":"Polygon","coordinates":[[[896.186,676.727],[940.362,870.834],[1016.424,849.116],[1012.439,831.198],[1024.064,827.941],[1024.064,805.951],[971.418,821.154],[941.026,664.782],[922.26,669.94],[919.437,661.796],[913.292,663.424],[914.454,668.583],[896.186,676.727]]]},"junctions":[]},{"type":"Feature","id":"building_007","properties":{"class":"building"},"geometry":{"type":"Polygon","coordinates":[[[585.554,983.001],[585.554,1001.219],[617.816,1001.219],[617.816,983.001],[585.554,983.001]]]},"junctions":[]},{"type":"Feature","id":"building_008","properties":{"class":"building"},"geometry":{"type":"Polygon","coordinates":[[[481.5,940.038],[481.229,967.408],[475.264,967.953],[475.535,984.637],[478.043,984.637],[478.246,994.451],[475.264,994.778],[475.467,1007.536],[480.348,1007.427],[480.415,1024.002],[512.544,1024.002],[512.408,970.243],[527.456,970.461],[526.982,940.583],[512.273,940.147],[512.273,940.474],[481.5,940.038]]]},"junctions":[]},{"type":"Feature","id":"building_009","properties":{"class":"building"},"geometry":{"type":"Polygon","coordinates":[[[562.596,909.813],[562.596,924.159],[562.596,949.421],[562.596,963.697],[649.824,963.697],[649.824,909.813],[562.596,909.813]]]},"junctions":[]},{"type":"Feature","id":"water_000","properties":{"class":"water"},"geometry":{"type":"Polygon","coordinates":[[[-0.188,-0.067],[-0.188,102.537],[48.154,112.815],[50.108,118.563],[112.611,134.067],[362.135,92.782],[375.808,-0.067],[-0.188,-0.067]]]},"junctions":[]},{"type":"Feature","id":"water_001","properties":{"class":"water"},"geometry":{"type":"Polygon","coordinates":[[[454.244,-0.038],[442.505,75.518],[853.395,-0.038],[454.244,-0.038]]]},"junctions":[]},{"type":"Feature","id":"road_network","properties":{"class":"road","topologyMode":"stitched-graph"},"geometry":{"type":"MultiLineString","coordinates":[[[403,0],[390,106],[386,127],[379,180],[370,255],[365,256],[351,384],[336,510]],[[428,0],[411,127],[394,255],[385,256],[373,383],[378,384],[362,511]],[[879,0],[767,21],[640,41],[639,49],[512,72]],[[918,0],[896,4],[891,0],[832,13],[831,19],[704,42],[703,35],[575,60],[448,84]],[[391,64],[377,191],[368,226]],[[319,99],[192,122],[191,128],[64,152]],[[255,114],[128,139]],[[400,191],[417,64],[403,156],[400,191]],[[400,191],[393,227]],[[412,192],[411,227]],[[379,205],[358,226]],[[639,217],[655,214],[678,218]],[[639,217],[661,219]],[[639,217],[512,226],[411,227]],[[678,218],[661,219]],[[678,218],[702,222]],[[661,219],[686,243]],[[102,220],[191,220]],[[102,220],[85,222],[64,228]],[[102,220],[88,238]],[[191,220],[120,221],[93,221]],[[191,220],[319,224],[368,226]],[[93,221],[127,222],[255,225]],[[93,221],[64,228]],[[93,221],[54,231],[14,248]],[[93,221],[88,238]],[[93,221],[84,258]],[[672,221],[629,219],[575,224]],[[672,221],[702,222]],[[672,221],[685,255]],[[702,222],[667,215],[608,216],[575,224]],[[702,222],[716,230]],[[702,222],[725,233],[797,285]],[[702,222],[737,243]],[[575,224],[448,227],[393,227]],[[255,225],[358,226]],[[255,225],[382,228],[368,226]],[[358,226],[368,226]],[[368,226],[393,227]],[[368,226],[360,320],[345,447]],[[393,227],[382,319],[369,448]],[[411,227],[406,294]],[[64,228],[19,243],[0,253]],[[716,230],[743,246]],[[716,230],[769,270],[797,285]],[[88,238],[84,258]],[[746,256],[783,279]],[[84,258],[92,277]],[[85,266],[92,277]],[[92,277],[102,287]],[[92,277],[107,287],[127,288]],[[783,279],[812,293]],[[783,279],[751,324],[704,349]],[[797,285],[812,293]],[[797,285],[830,295]],[[102,287],[121,288],[191,290]],[[102,287],[127,288]],[[102,287],[91,289]],[[102,287],[113,292]],[[39,288],[0,288],[91,289]],[[39,288],[91,289]],[[39,288],[46,306]],[[127,288],[91,289]],[[127,288],[255,292]],[[191,290],[64,287],[113,292]],[[191,290],[113,292]],[[191,290],[319,292]],[[255,292],[373,292],[361,383]],[[255,292],[382,294],[406,294]],[[448,292],[576,295]],[[812,293],[830,295]],[[406,294],[511,295],[639,297],[673,297]],[[406,294],[403,319]],[[576,295],[651,298],[662,295],[674,289],[682,279],[686,268],[673,297]],[[576,295],[703,299],[832,301],[959,302]],[[830,295],[895,298]],[[830,295],[864,299],[895,298]],[[673,297],[767,297],[895,298]],[[895,298],[1023,300],[1023,306],[896,306]],[[394,302],[511,304]],[[46,306],[35,305],[0,305],[127,307]],[[46,306],[56,307],[127,307]],[[64,306],[191,309],[196,314],[217,315],[319,316],[447,316],[575,316]],[[576,306],[703,306]],[[127,307],[178,307]],[[178,307],[255,311],[383,313]],[[178,307],[160,347],[147,384]],[[512,315],[639,318],[767,318],[895,319],[1023,321]],[[704,319],[831,318],[959,319]],[[524,322],[553,360],[568,384]],[[767,324],[742,329]],[[191,329],[171,343]],[[448,329],[522,330],[541,348],[557,370]],[[742,329],[704,349]],[[742,329],[695,352],[657,375],[642,386]],[[67,330],[86,354],[127,429]],[[171,343],[182,327],[182,335],[167,353],[155,383]],[[171,343],[157,362],[147,384]],[[171,343],[155,370],[147,384]],[[704,349],[686,360],[642,386]],[[704,349],[672,361],[642,386]],[[704,349],[651,383]],[[192,358],[248,368],[287,366],[319,365]],[[563,382],[536,339],[512,330],[542,356],[563,382]],[[563,382],[569,400],[574,419]],[[563,382],[574,419]],[[147,384],[136,399],[117,401]],[[147,384],[143,404],[143,423],[147,447]],[[642,386],[609,415],[575,449]],[[642,386],[604,427],[576,461]],[[639,393],[622,407],[606,421],[587,446]],[[631,400],[601,431],[587,446]],[[117,401],[78,337],[96,365],[106,383],[117,401]],[[117,401],[124,420],[154,512]],[[117,401],[135,448]],[[183,404],[171,420],[160,447]],[[574,419],[572,442],[561,482]],[[574,419],[575,449]],[[138,435],[154,512]],[[587,446],[561,482]],[[587,446],[557,504],[525,575]],[[345,447],[336,510]],[[345,447],[332,575]],[[135,448],[151,503],[165,544],[174,575],[166,555]],[[135,448],[166,555]],[[369,448],[361,536]],[[369,448],[355,575]],[[575,449],[563,471],[512,572]],[[575,449],[561,482]],[[575,449],[512,572]],[[895,455],[895,449],[842,467],[787,508],[768,524]],[[895,455],[863,454],[842,456],[827,462],[770,511],[786,591],[791,639],[783,640],[813,765]],[[895,455],[896,462],[1023,461]],[[959,458],[916,456],[873,455],[850,459],[831,466],[707,575]],[[561,482],[545,512]],[[336,510],[332,575]],[[362,511],[363,530]],[[362,511],[350,639]],[[15,512],[15,613]],[[69,512],[68,639]],[[154,512],[169,574]],[[154,512],[176,585]],[[154,512],[193,591]],[[342,512],[332,586]],[[545,512],[516,556],[502,569],[491,577]],[[545,512],[512,572]],[[545,512],[489,639]],[[363,530],[381,554],[397,568],[416,581]],[[363,530],[350,639]],[[361,536],[377,562]],[[361,536],[355,575]],[[166,555],[187,575]],[[511,561],[491,577]],[[169,574],[180,616],[204,704],[244,831],[282,959],[299,832],[314,703],[320,647],[332,575]],[[169,574],[189,639]],[[355,575],[339,703],[323,831],[317,886],[308,959]],[[517,576],[489,639]],[[770,576],[795,704]],[[491,577],[474,583]],[[416,581],[434,586]],[[416,581],[439,589],[457,590],[474,583]],[[474,583],[458,585]],[[193,584],[209,598],[223,608]],[[176,585],[193,591]],[[176,585],[189,639]],[[332,586],[292,602]],[[332,586],[326,639],[310,767],[305,768],[292,895]],[[312,587],[292,602]],[[511,590],[449,704]],[[1023,590],[923,614],[929,619],[959,610],[934,616]],[[193,591],[212,603],[232,610],[256,612]],[[703,598],[686,606]],[[203,600],[223,608]],[[292,602],[319,582],[305,594],[292,602]],[[292,602],[276,609],[256,612]],[[292,602],[267,612],[245,612],[223,608]],[[686,606],[698,593],[720,576],[729,575],[767,544],[767,554],[691,608],[680,620]],[[686,606],[680,620]],[[223,608],[240,612],[256,612]],[[0,613],[15,613]],[[15,613],[17,638]],[[680,620],[679,639],[677,767]],[[680,620],[679,703]],[[1023,621],[924,643]],[[0,636],[17,638]],[[17,638],[19,703]],[[189,639],[222,767]],[[350,639],[332,767],[316,896]],[[489,639],[449,704]],[[489,639],[418,767]],[[1004,640],[1023,730]],[[192,654],[222,767]],[[679,703],[676,831]],[[679,703],[682,831]],[[449,704],[384,832]],[[795,704],[813,765]],[[795,704],[818,772]],[[447,716],[418,767]],[[896,736],[925,831],[902,745]],[[902,745],[832,761]],[[902,745],[909,767],[930,868]],[[895,746],[813,765]],[[813,765],[822,831]],[[222,767],[234,810],[253,895],[246,896],[265,956],[267,979],[264,1023]],[[222,767],[261,895]],[[418,767],[384,832]],[[418,767],[350,895]],[[677,767],[675,841]],[[677,767],[681,842]],[[979,768],[992,801],[1023,794]],[[306,789],[292,895]],[[11,832],[11,959]],[[384,832],[350,895]],[[384,832],[323,959]],[[640,841],[681,842]],[[675,841],[703,841],[766,843]],[[675,841],[680,895]],[[681,842],[766,843]],[[681,842],[680,895]],[[681,842],[679,958]],[[766,843],[778,850],[781,873]],[[782,843],[781,873]],[[780,855],[783,864],[783,959],[777,959],[781,873]],[[781,873],[781,895],[776,896],[777,965],[773,984],[741,1023]],[[479,882],[484,862],[497,850],[511,847],[518,838],[539,840],[557,847],[571,857],[575,860],[580,865],[581,895]],[[479,882],[483,878],[488,871],[495,865],[506,858],[518,854],[530,853],[540,854],[551,857],[560,862],[563,868],[563,875],[560,881],[554,886]],[[479,882],[475,959]],[[292,895],[276,1023]],[[350,895],[330,934]],[[680,895],[683,942],[679,958]],[[77,896],[75,981]],[[316,896],[307,951],[300,1023],[316,896]],[[474,896],[468,1023]],[[718,896],[716,936],[710,957],[640,1021]],[[918,942],[832,943]],[[918,942],[922,959]],[[918,942],[920,1023]],[[639,944],[577,945],[577,959]],[[895,944],[768,946]],[[679,958],[670,965],[632,1003],[612,1023]],[[34,981],[75,981]],[[75,981],[127,981]],[[75,981],[73,1023]],[[1023,1016],[1018,1023]]]},"junctions":[[400,191],[639,217],[678,218],[661,219],[102,220],[191,220],[93,221],[672,221],[702,222],[575,224],[255,225],[358,226],[368,226],[393,227],[411,227],[64,228],[716,230],[88,238],[84,258],[92,277],[783,279],[797,285],[102,287],[39,288],[127,288],[91,289],[191,290],[113,292],[255,292],[812,293],[406,294],[576,295],[830,295],[673,297],[895,298],[46,306],[127,307],[178,307],[742,329],[171,343],[704,349],[563,382],[147,384],[642,386],[117,401],[574,419],[587,446],[345,447],[135,448],[369,448],[575,449],[895,455],[561,482],[336,510],[362,511],[154,512],[545,512],[363,530],[361,536],[166,555],[512,572],[169,574],[332,575],[355,575],[491,577],[416,581],[474,583],[176,585],[332,586],[193,591],[292,602],[686,606],[223,608],[256,612],[15,613],[680,620],[17,638],[189,639],[350,639],[489,639],[679,703],[449,704],[795,704],[902,745],[813,765],[222,767],[418,767],[677,767],[384,832],[675,841],[681,842],[766,843],[781,873],[479,882],[292,895],[350,895],[680,895],[316,896],[918,942],[679,958],[75,981]]}]}