{"type":"FeatureCollection","coordinateSystem":{"type":"image-pixel","origin":"top-left","x":"right","y":"down","georeferenced":false},"features":[{"type":"Feature","id":"building_000","properties":{"class":"building"},"geometry":{"type":"Polygon","coordinates":[[[742.756,170.755],[743.32,209.01],[763.65,208.699],[843.841,207.509],[843.558,191.358],[851.464,191.254],[851.041,169.15],[763.227,170.444],[742.756,170.755]]]},"junctions":[]},{"type":"Feature","id":"building_001","properties":{"class":"building"},"geometry":{"type":"Polygon","coordinates":[[[347.64,412.906],[351.633,417.036],[333.267,434.736],[360.576,463.056],[379.102,445.209],[409.606,476.921],[426.055,494.031],[428.451,496.539],[456.239,468.219],[407.849,418.068],[411.362,414.676],[381.338,383.406],[379.421,385.176],[377.345,382.963],[347.64,412.906]]]},"junctions":[]},{"type":"Feature","id":"building_010","properties":{"class":"building"},"geometry":{"type":"Polygon","coordinates":[[[715.894,56.206],[716.564,81.382],[720.714,81.288],[720.923,91.668],[734.88,91.104],[734.88,88.192],[736.85,88.098],[748.166,87.817],[747.328,57.287],[740.915,57.475],[740.873,55.502],[715.894,56.206]]]},"junctions":[]},{"type":"Feature","id":"building_100","properties":{"class":"building"},"geometry":{"type":"Polygon","coordinates":[[[571.601,891.476],[571.89,910.8],[590.189,910.494],[589.875,891.17],[571.601,891.476]]]},"junctions":[]},{"type":"Feature","id":"building_101","properties":{"class":"building"},"geometry":{"type":"Polygon","coordinates":[[[617.288,955.248],[617.288,979.052],[610.966,979.052],[610.966,995.311],[617.072,995.311],[617.072,997.475],[624.759,997.475],[624.759,1000.282],[632.266,1000.282],[632.302,997.124],[638.588,997.124],[638.624,964.021],[629.177,964.021],[629.177,955.248],[617.288,955.248]]]},"junctions":[]},{"type":"Feature","id":"building_102","properties":{"class":"building"},"geometry":{"type":"Polygon","coordinates":[[[578.757,961.956],[579.673,996.858],[604.873,996.211],[603.957,961.262],[578.757,961.956]]]},"junctions":[]},{"type":"Feature","id":"building_103","properties":{"class":"building"},"geometry":{"type":"Polygon","coordinates":[[[210.026,301.578],[210.246,314.435],[213.074,314.366],[213.294,326.806],[219.685,326.701],[219.721,327.813],[238.304,327.466],[237.827,301.057],[210.026,301.578]]]},"junctions":[]},{"type":"Feature","id":"building_104","properties":{"class":"building"},"geometry":{"type":"Polygon","coordinates":[[[194.957,341.169],[195.017,354.061],[202.23,354.061],[202.23,368.524],[241.243,368.381],[241.123,341.026],[194.957,341.169]]]},"junctions":[]},{"type":"Feature","id":"building_105","properties":{"class":"building"},"geometry":{"type":"Polygon","coordinates":[[[243.974,838.578],[247.562,847.549],[250.509,846.353],[258.028,865.308],[276.866,857.809],[265.802,829.882],[243.974,838.578]]]},"junctions":[]},{"type":"Feature","id":"building_106","properties":{"class":"building"},"geometry":{"type":"Polygon","coordinates":[[[239.621,796.837],[243.333,816.635],[247.738,816.385],[248.476,822.414],[256.839,820.88],[253.44,802.259],[251.271,802.651],[249.862,794.946],[239.621,796.837]]]},"junctions":[]},{"type":"Feature","id":"building_107","properties":{"class":"building"},"geometry":{"type":"Polygon","coordinates":[[[202.976,761.461],[206.727,784.938],[231.296,781.038],[232.484,788.325],[246.425,786.119],[245.175,778.359],[251.114,777.414],[248.051,758.034],[241.361,759.098],[241.174,757.995],[217.042,761.855],[216.667,759.334],[202.976,761.461]]]},"junctions":[]},{"type":"Feature","id":"building_108","properties":{"class":"building"},"geometry":{"type":"Polygon","coordinates":[[[183.461,754.964],[183.705,763.555],[200.489,762.838],[200.245,754.505],[183.461,754.964]]]},"junctions":[]},{"type":"Feature","id":"building_109","properties":{"class":"building"},"geometry":{"type":"Polygon","coordinates":[[[221.277,726.866],[221.539,742.841],[193.715,743.221],[193.911,753.315],[241.965,752.632],[241.899,744.739],[244.125,744.701],[243.994,736.884],[241.048,736.959],[240.852,724.095],[232.603,724.209],[232.472,726.6],[221.277,726.866]]]},"junctions":[]},{"type":"Feature","id":"building_011","properties":{"class":"building"},"geometry":{"type":"Polygon","coordinates":[[[624.665,53.161],[624.907,59.399],[618.374,59.648],[619.342,84.226],[649.426,83.062],[649.103,54.408],[649.022,52.204],[624.665,53.161]]]},"junctions":[]},{"type":"Feature","id":"building_110","properties":{"class":"building"},"geometry":{"type":"Polygon","coordinates":[[[182.01,700.223],[182.321,713.017],[201.96,712.587],[201.649,699.793],[182.01,700.223]]]},"junctions":[]},{"type":"Feature","id":"building_111","properties":{"class":"building"},"geometry":{"type":"Polygon","coordinates":[[[209.222,687.988],[209.724,707.87],[225.832,707.451],[238.426,706.822],[238.243,698.571],[244.358,698.44],[244.129,689.9],[238.061,690.084],[237.969,687.7],[209.222,687.988]]]},"junctions":[]},{"type":"Feature","id":"building_112","properties":{"class":"building"},"geometry":{"type":"Polygon","coordinates":[[[217.059,642.342],[217.612,663.495],[238.321,662.964],[237.575,634.305],[224.294,634.647],[224.487,642.114],[217.059,642.342]]]},"junctions":[]},{"type":"Feature","id":"building_113","properties":{"class":"building"},"geometry":{"type":"Polygon","coordinates":[[[185.37,629.159],[185.751,649.28],[206.36,648.88],[205.979,628.76],[185.37,629.159]]]},"junctions":[]},{"type":"Feature","id":"building_114","properties":{"class":"building"},"geometry":{"type":"Polygon","coordinates":[[[205.081,594.815],[205.33,617.321],[243.409,616.935],[243.16,594.429],[205.081,594.815]]]},"junctions":[]},{"type":"Feature","id":"building_115","properties":{"class":"building"},"geometry":{"type":"Polygon","coordinates":[[[186.363,592.164],[186.467,600.174],[199.687,599.994],[199.566,592.016],[186.363,592.164]]]},"junctions":[]},{"type":"Feature","id":"building_116","properties":{"class":"building"},"geometry":{"type":"Polygon","coordinates":[[[184.51,581.526],[184.473,589.303],[198.81,589.334],[198.847,581.557],[184.51,581.526]]]},"junctions":[]},{"type":"Feature","id":"building_117","properties":{"class":"building"},"geometry":{"type":"Polygon","coordinates":[[[202.999,551.578],[203.106,580.255],[244.091,579.986],[243.45,550.695],[202.999,551.578]]]},"junctions":[]},{"type":"Feature","id":"building_118","properties":{"class":"building"},"geometry":{"type":"Polygon","coordinates":[[[216.328,498.177],[216.375,507.156],[211.537,507.156],[211.537,517.998],[209.782,517.998],[209.877,534.858],[246.308,534.715],[246.213,504.052],[237.58,504.1],[237.532,498.082],[216.328,498.177]]]},"junctions":[]},{"type":"Feature","id":"building_119","properties":{"class":"building"},"geometry":{"type":"Polygon","coordinates":[[[185.563,493.839],[185.599,516.751],[199.607,516.722],[199.607,498.808],[198.093,498.808],[198.057,493.839],[185.563,493.839]]]},"junctions":[]},{"type":"Feature","id":"building_012","properties":{"class":"building"},"geometry":{"type":"Polygon","coordinates":[[[578.355,63.55],[579.342,118.548],[607.575,117.97],[606.588,62.972],[578.355,63.55]]]},"junctions":[]},{"type":"Feature","id":"building_120","properties":{"class":"building"},"geometry":{"type":"Polygon","coordinates":[[[215.711,456.369],[216.555,479.492],[226.305,479.093],[233.759,478.694],[233.759,467.593],[229.728,467.317],[229.704,455.878],[215.711,456.369]]]},"junctions":[]},{"type":"Feature","id":"building_121","properties":{"class":"building"},"geometry":{"type":"Polygon","coordinates":[[[202.74,418.943],[202.953,445.664],[227.465,445.488],[227.465,443.451],[243.77,443.346],[243.557,418.626],[202.74,418.943]]]},"junctions":[]},{"type":"Feature","id":"building_122","properties":{"class":"building"},"geometry":{"type":"Polygon","coordinates":[[[211.93,376.895],[212.328,400.842],[232.37,400.495],[231.945,376.548],[211.93,376.895]]]},"junctions":[]},{"type":"Feature","id":"building_123","properties":{"class":"building"},"geometry":{"type":"Polygon","coordinates":[[[292.283,947.073],[284.451,968.251],[294.203,971.842],[292.03,977.704],[303.804,982.067],[305.825,976.523],[318.812,981.34],[323.359,969.069],[316.891,966.706],[320.328,957.48],[292.283,947.073]]]},"junctions":[]},{"type":"Feature","id":"building_124","properties":{"class":"building"},"geometry":{"type":"Polygon","coordinates":[[[235.08,923.402],[223.176,946.852],[246.289,958.6],[249.328,952.634],[261.296,958.738],[271.934,937.766],[266.869,935.242],[267.882,933.269],[250.468,924.412],[247.745,929.827],[235.08,923.402]]]},"junctions":[]},{"type":"Feature","id":"building_125","properties":{"class":"building"},"geometry":{"type":"Polygon","coordinates":[[[209.59,903.495],[195.142,924.591],[212.906,936.797],[231.618,909.51],[221.765,902.743],[217.549,908.979],[209.59,903.495]]]},"junctions":[]},{"type":"Feature","id":"building_126","properties":{"class":"building"},"geometry":{"type":"Polygon","coordinates":[[[179.535,877.236],[157.706,908.613],[181.869,925.364],[206.284,890.237],[191.017,879.611],[188.367,883.361],[179.535,877.236]]]},"junctions":[]},{"type":"Feature","id":"building_127","properties":{"class":"building"},"geometry":{"type":"Polygon","coordinates":[[[141.716,855.948],[128.635,872.978],[133.756,876.921],[128.281,884.008],[149.068,899.952],[167.32,876.178],[151.552,864.12],[143.592,857.377],[141.716,855.948]]]},"junctions":[]},{"type":"Feature","id":"building_128","properties":{"class":"building"},"geometry":{"type":"Polygon","coordinates":[[[103.205,831.013],[103.285,838.49],[105.21,838.49],[105.33,853.325],[116.961,853.207],[116.92,847.659],[125.022,847.58],[124.982,846.124],[134.085,846.045],[133.885,823.104],[125.142,823.182],[111.587,823.025],[111.587,831.367],[103.205,831.013]]]},"junctions":[]},{"type":"Feature","id":"building_129","properties":{"class":"building"},"geometry":{"type":"Polygon","coordinates":[[[105.484,778.776],[106.15,802.242],[126.582,801.672],[126.415,795.497],[137.526,795.149],[137.027,777.858],[105.484,778.776]]]},"junctions":[]},{"type":"Feature","id":"building_013","properties":{"class":"building"},"geometry":{"type":"Polygon","coordinates":[[[496.666,70.298],[497.552,104.818],[511.403,104.452],[511.084,91.696],[523.944,91.376],[523.377,69.612],[496.666,70.298]]]},"junctions":[]},{"type":"Feature","id":"building_130","properties":{"class":"building"},"geometry":{"type":"Polygon","coordinates":[[[105.332,734.675],[105.647,745.972],[102.053,746.094],[102.367,757.422],[136.647,756.473],[136.288,733.848],[105.332,734.675]]]},"junctions":[]},{"type":"Feature","id":"building_131","properties":{"class":"building"},"geometry":{"type":"Polygon","coordinates":[[[108.955,697.294],[109.178,706.872],[105.418,706.976],[105.8,723.623],[129.952,723.031],[129.315,696.807],[108.955,697.294]]]},"junctions":[]},{"type":"Feature","id":"building_132","properties":{"class":"building"},"geometry":{"type":"Polygon","coordinates":[[[102.89,656.291],[103.578,686.375],[119.917,685.978],[119.758,678.398],[123.28,678.318],[122.751,655.815],[102.89,656.291]]]},"junctions":[]},{"type":"Feature","id":"building_133","properties":{"class":"building"},"geometry":{"type":"Polygon","coordinates":[[[95.548,619.012],[95.707,625.473],[99.308,625.393],[99.849,647.545],[116.195,647.144],[116.004,639.278],[120.082,639.198],[119.541,616.645],[98.957,617.126],[99.021,618.932],[95.548,619.012]]]},"junctions":[]},{"type":"Feature","id":"building_134","properties":{"class":"building"},"geometry":{"type":"Polygon","coordinates":[[[102.759,575.153],[102.841,580.712],[99.569,580.756],[100.064,608.507],[119.806,608.157],[120.741,580.056],[120.631,574.803],[102.759,575.153]]]},"junctions":[]},{"type":"Feature","id":"building_135","properties":{"class":"building"},"geometry":{"type":"Polygon","coordinates":[[[102.102,523.764],[102.175,526.84],[99.466,526.924],[100.333,555.448],[123.518,556.206],[123.446,551.867],[127.274,551.698],[127.129,532.064],[127.129,530.842],[120.593,530.674],[119.184,530.674],[119.22,523.764],[102.102,523.764]]]},"junctions":[]},{"type":"Feature","id":"building_136","properties":{"class":"building"},"geometry":{"type":"Polygon","coordinates":[[[97.852,486.118],[98.019,502.441],[95.027,502.634],[94.944,507.018],[98.102,507.101],[126.936,506.797],[126.894,502.854],[122.947,502.854],[122.781,491.522],[121.493,491.549],[121.452,485.869],[100.138,486.09],[97.852,486.118]]]},"junctions":[]},{"type":"Feature","id":"building_137","properties":{"class":"building"},"geometry":{"type":"Polygon","coordinates":[[[96.497,432.913],[96.618,446.627],[143.443,446.271],[143.382,436.707],[141.797,436.724],[141.797,433.697],[96.497,432.913]]]},"junctions":[]},{"type":"Feature","id":"building_138","properties":{"class":"building"},"geometry":{"type":"Polygon","coordinates":[[[96.3,388.999],[96.379,410.121],[116.65,410.066],[116.571,389.027],[99.207,388.999],[96.3,388.999]]]},"junctions":[]},{"type":"Feature","id":"building_139","properties":{"class":"building"},"geometry":{"type":"Polygon","coordinates":[[[101.191,341.413],[101.412,366.853],[114.262,366.72],[114.262,359.105],[120.109,359.271],[119.987,355.014],[119.864,341.247],[101.191,341.413]]]},"junctions":[]},{"type":"Feature","id":"building_014","properties":{"class":"building"},"geometry":{"type":"Polygon","coordinates":[[[459.416,65.092],[460.34,89.173],[486.784,88.128],[485.86,64.047],[459.416,65.092]]]},"junctions":[]},{"type":"Feature","id":"building_140","properties":{"class":"building"},"geometry":{"type":"Polygon","coordinates":[[[97.738,303.789],[97.911,329.313],[142.302,329.039],[142.129,306.225],[116.027,306.396],[116.027,302.897],[111.281,302.931],[97.738,303.789]]]},"junctions":[]},{"type":"Feature","id":"building_141","properties":{"class":"building"},"geometry":{"type":"Polygon","coordinates":[[[-0.015,306.594],[-0.015,318.161],[10.457,317.953],[10.731,332.593],[30.185,332.179],[29.675,306.007],[-0.015,306.594]]]},"junctions":[]},{"type":"Feature","id":"building_142","properties":{"class":"building"},"geometry":{"type":"Polygon","coordinates":[[[10.774,375.432],[11.343,401.383],[29.259,401.005],[41.771,401.108],[42.056,375.26],[35.352,374.917],[10.774,375.432]]]},"junctions":[]},{"type":"Feature","id":"building_143","properties":{"class":"building"},"geometry":{"type":"Polygon","coordinates":[[[12.168,415.766],[12.256,430.187],[5.113,430.221],[5.157,441.663],[36.171,441.494],[36.127,434.351],[39.277,434.317],[39.233,427.208],[36.571,427.208],[36.482,415.597],[12.168,415.766]]]},"junctions":[]},{"type":"Feature","id":"building_144","properties":{"class":"building"},"geometry":{"type":"Polygon","coordinates":[[[19.53,454.426],[19.893,485.296],[35.262,485.094],[35.133,472.464],[39.52,472.423],[39.364,459.228],[35.366,459.309],[35.314,454.224],[19.53,454.426]]]},"junctions":[]},{"type":"Feature","id":"building_145","properties":{"class":"building"},"geometry":{"type":"Polygon","coordinates":[[[8.945,500.377],[9.172,513.551],[14.34,513.493],[14.491,522.431],[37.995,522.081],[37.655,499.939],[8.945,500.377]]]},"junctions":[]},{"type":"Feature","id":"building_146","properties":{"class":"building"},"geometry":{"type":"Polygon","coordinates":[[[2.66,547.781],[3.169,569.645],[41.82,568.792],[41.311,546.23],[39.48,546.269],[39.328,539.795],[19.189,540.26],[19.392,547.432],[2.66,547.781]]]},"junctions":[]},{"type":"Feature","id":"building_147","properties":{"class":"building"},"geometry":{"type":"Polygon","coordinates":[[[5.538,632.395],[5.6,644.556],[29.282,644.257],[29.128,631.764],[5.538,632.395]]]},"junctions":[]},{"type":"Feature","id":"building_148","properties":{"class":"building"},"geometry":{"type":"Polygon","coordinates":[[[7.953,663.897],[8.128,678.601],[18.377,679.107],[18.377,687.633],[18.421,691.354],[33.163,691.173],[32.945,683.37],[41.537,683.37],[41.45,675.205],[38.222,675.241],[38.091,663.536],[7.953,663.897]]]},"junctions":[]},{"type":"Feature","id":"building_149","properties":{"class":"building"},"geometry":{"type":"Polygon","coordinates":[[[29.631,767.114],[16.082,785.439],[29.266,795.202],[31.045,792.761],[39.438,798.966],[51.208,783.04],[29.631,767.114]]]},"junctions":[]},{"type":"Feature","id":"building_015","properties":{"class":"building"},"geometry":{"type":"Polygon","coordinates":[[[419.586,66.337],[420.244,90.262],[447.754,89.493],[447.059,65.568],[419.586,66.337]]]},"junctions":[]},{"type":"Feature","id":"building_150","properties":{"class":"building"},"geometry":{"type":"Polygon","coordinates":[[[-0.009,753.562],[-0.009,774.974],[6.17,779.654],[18.289,763.701],[3.342,752.356],[1.536,754.732],[-0.009,753.562]]]},"junctions":[]},{"type":"Feature","id":"building_151","properties":{"class":"building"},"geometry":{"type":"Polygon","coordinates":[[[17.929,962.979],[6.919,974.505],[17.591,984.731],[28.601,973.205],[17.929,962.979]]]},"junctions":[]},{"type":"Feature","id":"building_152","properties":{"class":"building"},"geometry":{"type":"Polygon","coordinates":[[[-0.017,894.154],[-0.017,924.56],[12.624,934.487],[33.547,907.76],[27.531,903.039],[31.629,897.833],[10.27,881.033],[-0.017,894.154]]]},"junctions":[]},{"type":"Feature","id":"building_153","properties":{"class":"building"},"geometry":{"type":"Polygon","coordinates":[[[35.211,939.03],[22.253,956.154],[32.69,964.038],[34.371,961.845],[57.415,979.23],[68.622,964.246],[67.291,963.254],[76.187,951.403],[64.209,942.476],[55.314,954.222],[35.211,939.03]]]},"junctions":[]},{"type":"Feature","id":"building_154","properties":{"class":"building"},"geometry":{"type":"Polygon","coordinates":[[[72.857,987.566],[83.135,997.954],[98.303,978.485],[89.149,969.986],[72.857,987.566]]]},"junctions":[]},{"type":"Feature","id":"building_155","properties":{"class":"building"},"geometry":{"type":"Polygon","coordinates":[[[124.437,1005.691],[110.443,1020.227],[114.393,1024.009],[143.497,1024.009],[124.437,1005.691]]]},"junctions":[]},{"type":"Feature","id":"building_156","properties":{"class":"building"},"geometry":{"type":"Polygon","coordinates":[[[931.164,141.674],[932.129,207.204],[1024.046,204.926],[1024.046,139.746],[931.164,141.674]]]},"junctions":[]},{"type":"Feature","id":"building_157","properties":{"class":"building"},"geometry":{"type":"Polygon","coordinates":[[[717.2,288.746],[718.236,349.001],[735.196,348.68],[754.098,348.358],[816.89,347.073],[815.984,287.139],[800.577,287.38],[784.911,287.621],[770.67,287.862],[753.063,288.103],[735.196,288.425],[717.2,288.746]]]},"junctions":[]},{"type":"Feature","id":"building_158","properties":{"class":"building"},"geometry":{"type":"Polygon","coordinates":[[[996.972,961.115],[996.866,975.323],[998.735,975.323],[998.418,983.185],[1021.017,983.384],[1021.687,991.845],[1024.014,991.766],[1024.014,974.045],[1021.334,974.006],[1021.405,966.343],[1019.042,966.463],[1019.078,961.314],[1012.696,961.234],[999.722,961.155],[996.972,961.115]]]},"junctions":[]},{"type":"Feature","id":"building_159","properties":{"class":"building"},"geometry":{"type":"Polygon","coordinates":[[[965.285,981.514],[965.59,993.161],[994.575,993.503],[993.776,967.127],[985.636,967.127],[985.446,981.24],[966.617,981.411],[965.285,981.514]]]},"junctions":[]},{"type":"Feature","id":"building_160","properties":{"class":"building"},"geometry":{"type":"Polygon","coordinates":[[[925.036,970.838],[925.729,993.642],[937.033,993.314],[937.069,995.513],[943.524,995.48],[943.524,993.117],[945.602,993.085],[945.566,991.772],[953.114,991.542],[952.604,975.038],[945.092,975.268],[944.982,970.247],[940.169,970.411],[927.771,970.772],[925.036,970.838]]]},"junctions":[]},{"type":"Feature","id":"building_161","properties":{"class":"building"},"geometry":{"type":"Polygon","coordinates":[[[886.925,966.959],[887.966,992.343],[888.407,992.343],[909.394,991.472],[909.234,988.19],[911.677,988.09],[911.597,985.645],[917.765,985.377],[917.205,972.484],[908.593,972.819],[908.473,969.672],[896.617,970.174],[896.497,966.557],[888.246,966.925],[886.925,966.959]]]},"junctions":[]},{"type":"Feature","id":"building_162","properties":{"class":"building"},"geometry":{"type":"Polygon","coordinates":[[[845.656,951.76],[846.46,988.855],[846.643,988.855],[846.68,991.81],[854.905,991.599],[873.804,991.177],[872.927,951.18],[857.537,951.496],[846.68,951.76],[845.656,951.76]]]},"junctions":[]},{"type":"Feature","id":"building_163","properties":{"class":"building"},"geometry":{"type":"Polygon","coordinates":[[[806.496,952.818],[807.3,990.099],[807.519,990.099],[807.628,993.13],[813.912,992.865],[834.624,992.386],[833.747,952.18],[819.866,952.499],[808.286,952.765],[806.496,952.818]]]},"junctions":[]},{"type":"Feature","id":"building_164","properties":{"class":"building"},"geometry":{"type":"Polygon","coordinates":[[[737.255,970.151],[737.07,979.959],[729.276,979.831],[730.092,1000.126],[747.611,999.405],[747.239,994.649],[757.854,994.055],[756.815,968.622],[747.351,969.005],[747.314,967.434],[742.786,967.858],[742.897,970.024],[737.255,970.151]]]},"junctions":[]},{"type":"Feature","id":"building_165","properties":{"class":"building"},"geometry":{"type":"Polygon","coordinates":[[[778.374,967.588],[778.037,994.851],[782.947,994.922],[782.947,981.184],[799.47,981.574],[799.639,967.837],[778.374,967.588]]]},"junctions":[]},{"type":"Feature","id":"building_166","properties":{"class":"building"},"geometry":{"type":"Polygon","coordinates":[[[380.14,930.453],[380.059,936.085],[391.855,952.499],[389.008,954.59],[398.607,968.027],[408.289,961.107],[410.404,964.004],[408.451,965.452],[412.031,970.44],[413.577,969.314],[425.78,986.371],[442.701,974.141],[415.692,936.488],[412.6,938.74],[402.431,924.58],[391.53,924.419],[392.262,925.465],[391.367,926.028],[386.242,926.028],[380.14,930.453]]]},"junctions":[]},{"type":"Feature","id":"building_167","properties":{"class":"building"},"geometry":{"type":"Polygon","coordinates":[[[455.832,948.654],[456.197,968.643],[460.624,968.58],[460.807,979.466],[453.966,979.593],[454.295,997.354],[471.013,997.036],[470.94,991.498],[482.134,991.307],[481.659,965.524],[473.464,965.715],[473.135,948.336],[455.832,948.654]]]},"junctions":[]},{"type":"Feature","id":"building_168","properties":{"class":"building"},"geometry":{"type":"Polygon","coordinates":[[[494.606,946.943],[495.139,959.653],[494.18,959.653],[494.686,979.284],[494.979,995.014],[514.7,994.448],[514.38,982.241],[510.276,981.738],[509.29,946.566],[494.606,946.943]]]},"junctions":[]},{"type":"Feature","id":"building_169","properties":{"class":"building"},"geometry":{"type":"Polygon","coordinates":[[[512.451,893.047],[512.805,913.55],[530.639,913.226],[530.285,892.75],[512.451,893.047]]]},"junctions":[]},{"type":"Feature","id":"building_017","properties":{"class":"building"},"geometry":{"type":"Polygon","coordinates":[[[381.495,66.134],[382.219,82.71],[390.707,82.325],[390.935,87.751],[410.805,86.921],[409.853,64.919],[381.495,66.134]]]},"junctions":[]},{"type":"Feature","id":"building_170","properties":{"class":"building"},"geometry":{"type":"Polygon","coordinates":[[[647.699,969.203],[648.072,993.322],[648.703,993.322],[648.76,1000.366],[658.511,1000.284],[658.453,996.312],[669.781,996.148],[669.351,968.834],[667.602,968.875],[649.706,969.162],[647.699,969.203]]]},"junctions":[]},{"type":"Feature","id":"building_171","properties":{"class":"building"},"geometry":{"type":"Polygon","coordinates":[[[454.39,831.344],[453.999,842.787],[475.471,843.046],[475.387,832.028],[454.39,831.344]]]},"junctions":[]},{"type":"Feature","id":"building_172","properties":{"class":"building"},"geometry":{"type":"Polygon","coordinates":[[[-0.013,212.784],[-0.013,225.446],[25.873,224.772],[25.537,212.833],[-0.013,212.784]]]},"junctions":[]},{"type":"Feature","id":"building_173","properties":{"class":"building"},"geometry":{"type":"Polygon","coordinates":[[[-0.025,200.401],[-0.025,212.787],[25.545,212.836],[25.481,209.443],[49.075,208.817],[48.819,200.154],[-0.025,200.401]]]},"junctions":[]},{"type":"Feature","id":"building_174","properties":{"class":"building"},"geometry":{"type":"Polygon","coordinates":[[[207.179,200.644],[207.591,212.606],[228.281,211.341],[227.924,199.954],[207.179,200.644]]]},"junctions":[]},{"type":"Feature","id":"building_175","properties":{"class":"building"},"geometry":{"type":"Polygon","coordinates":[[[216.989,91.468],[217.687,115.002],[238.471,114.353],[237.745,90.008],[216.989,91.468]]]},"junctions":[]},{"type":"Feature","id":"building_176","properties":{"class":"building"},"geometry":{"type":"Polygon","coordinates":[[[389.144,174.648],[389.071,180.476],[389.199,187.065],[385.762,187.027],[385.397,191.941],[381.723,192.093],[381.778,197.197],[383.642,197.35],[383.77,203.635],[395.578,203.558],[395.797,200.702],[392.178,200.968],[392.397,174.305],[391.118,174.496],[391.118,174.572],[390.295,174.61],[389.144,174.648]]]},"junctions":[]},{"type":"Feature","id":"building_178","properties":{"class":"building"},"geometry":{"type":"Polygon","coordinates":[[[536.445,145.653],[536.896,179.957],[546.702,179.957],[546.975,145.92],[536.445,145.653]]]},"junctions":[]},{"type":"Feature","id":"building_179","properties":{"class":"building"},"geometry":{"type":"Polygon","coordinates":[[[714.61,111.297],[714.799,121.555],[735.41,120.699],[735.221,110.925],[714.61,111.297]]]},"junctions":[]},{"type":"Feature","id":"building_018","properties":{"class":"building"},"geometry":{"type":"Polygon","coordinates":[[[386.77,-0.005],[387.448,10.295],[396.111,9.72],[395.824,5.372],[406.86,4.663],[406.547,-0.005],[386.77,-0.005]]]},"junctions":[]},{"type":"Feature","id":"building_181","properties":{"class":"building"},"geometry":{"type":"Polygon","coordinates":[[[99.873,477.527],[100.132,486.082],[121.427,485.885],[121.514,491.544],[122.764,491.544],[122.936,502.83],[126.859,502.863],[132.722,502.698],[133.067,477.823],[99.873,477.527]]]},"junctions":[]},{"type":"Feature","id":"building_182","properties":{"class":"building"},"geometry":{"type":"Polygon","coordinates":[[[157.575,473.442],[157.575,487.677],[167.255,487.506],[167.255,473.043],[157.575,473.442]]]},"junctions":[]},{"type":"Feature","id":"building_183","properties":{"class":"building"},"geometry":{"type":"Polygon","coordinates":[[[141.676,342.811],[142.079,356.077],[148.167,356.651],[148.167,372.743],[158.362,373.078],[158.655,363.548],[162.763,363.021],[162.873,372.025],[169.914,372.36],[169.621,336.345],[161.993,336.202],[162.213,340.56],[157.592,343.625],[141.676,342.811]]]},"junctions":[]},{"type":"Feature","id":"building_184","properties":{"class":"building"},"geometry":{"type":"Polygon","coordinates":[[[183.691,763.539],[183.935,771.835],[200.729,771.378],[200.463,762.826],[183.691,763.539]]]},"junctions":[]},{"type":"Feature","id":"building_185","properties":{"class":"building"},"geometry":{"type":"Polygon","coordinates":[[[404.111,476.168],[398.726,483.311],[400.954,486.993],[397.426,490.263],[405.56,500.612],[421.233,498.961],[426.024,494.009],[409.608,476.993],[406.971,479.438],[404.111,476.168]]]},"junctions":[]},{"type":"Feature","id":"building_186","properties":{"class":"building"},"geometry":{"type":"Polygon","coordinates":[[[367.451,477.273],[378.593,491.151],[385.589,484.405],[374.447,469.949],[367.451,477.273]]]},"junctions":[]},{"type":"Feature","id":"building_187","properties":{"class":"building"},"geometry":{"type":"Polygon","coordinates":[[[623.839,635.393],[624.094,653.243],[642.345,653.32],[642.345,644.7],[645.661,644.7],[645.661,633.74],[640.616,633.74],[640.446,635.495],[623.839,635.393]]]},"junctions":[]},{"type":"Feature","id":"building_188","properties":{"class":"building"},"geometry":{"type":"Polygon","coordinates":[[[396.078,715.727],[396.239,727.624],[420.932,727.966],[420.771,715.434],[396.078,715.727]]]},"junctions":[]},{"type":"Feature","id":"building_189","properties":{"class":"building"},"geometry":{"type":"Polygon","coordinates":[[[326.158,727.175],[326.406,735.98],[316.988,736.221],[317.205,743.708],[340.842,743.291],[340.408,726.802],[326.158,727.175]]]},"junctions":[]},{"type":"Feature","id":"building_019","properties":{"class":"building"},"geometry":{"type":"Polygon","coordinates":[[[333.382,70.232],[333.901,115.353],[369.728,114.939],[369.209,69.877],[351.461,69.995],[333.382,70.232]]]},"junctions":[]},{"type":"Feature","id":"building_190","properties":{"class":"building"},"geometry":{"type":"Polygon","coordinates":[[[375.124,738.05],[374.846,757.68],[382.484,757.268],[382.008,737.87],[375.124,738.05]]]},"junctions":[]},{"type":"Feature","id":"building_191","properties":{"class":"building"},"geometry":{"type":"Polygon","coordinates":[[[648.976,847.299],[649.414,869.561],[657.204,869.156],[657.044,847.299],[648.976,847.299]]]},"junctions":[]},{"type":"Feature","id":"building_192","properties":{"class":"building"},"geometry":{"type":"Polygon","coordinates":[[[782.932,981.183],[782.932,994.906],[799.306,995.087],[799.478,981.58],[782.932,981.183]]]},"junctions":[]},{"type":"Feature","id":"building_193","properties":{"class":"building"},"geometry":{"type":"Polygon","coordinates":[[[808.084,940.824],[808.283,952.786],[819.876,952.522],[819.738,940.886],[808.084,940.824]]]},"junctions":[]},{"type":"Feature","id":"building_194","properties":{"class":"building"},"geometry":{"type":"Polygon","coordinates":[[[966.22,958.65],[966.75,965.576],[966.624,981.442],[985.438,981.259],[985.64,967.132],[985.438,957.948],[966.22,958.65]]]},"junctions":[]},{"type":"Feature","id":"building_195","properties":{"class":"building"},"geometry":{"type":"Polygon","coordinates":[[[998.446,983.173],[998.108,991.549],[1000.041,991.514],[1000.041,994.154],[1006.33,993.892],[1006.545,996.637],[1014.0,996.532],[1014.0,993.664],[1021.732,993.367],[1021.701,991.828],[1020.995,983.401],[998.446,983.173]]]},"junctions":[]},{"type":"Feature","id":"building_196","properties":{"class":"building"},"geometry":{"type":"Polygon","coordinates":[[[999.323,947.178],[999.723,961.163],[1012.697,961.257],[1012.297,946.803],[999.323,947.178]]]},"junctions":[]},{"type":"Feature","id":"building_197","properties":{"class":"building"},"geometry":{"type":"Polygon","coordinates":[[[981.994,906.243],[981.994,921.217],[993.656,921.042],[993.656,906.243],[981.994,906.243]]]},"junctions":[]},{"type":"Feature","id":"building_198","properties":{"class":"building"},"geometry":{"type":"Polygon","coordinates":[[[887.181,813.6],[887.27,824.165],[904.249,823.471],[904.116,813.475],[887.181,813.6]]]},"junctions":[]},{"type":"Feature","id":"building_199","properties":{"class":"building"},"geometry":{"type":"Polygon","coordinates":[[[844.769,810.035],[844.532,820.755],[861.178,820.602],[861.07,810.035],[844.769,810.035]]]},"junctions":[]},{"type":"Feature","id":"building_002","properties":{"class":"building"},"geometry":{"type":"Polygon","coordinates":[[[919.818,360.972],[920.224,384.843],[941.206,384.461],[941.612,410.529],[945.267,410.433],[945.538,429.817],[970.446,429.339],[970.04,404.704],[969.904,395.251],[1024.052,394.296],[1024.052,356.293],[967.332,356.484],[967.332,360.113],[955.555,360.304],[919.818,360.972]]]},"junctions":[]},{"type":"Feature","id":"building_020","properties":{"class":"building"},"geometry":{"type":"Polygon","coordinates":[[[290.125,61.766],[290.855,95.127],[314.587,94.597],[314.126,73.829],[319.695,73.696],[319.426,61.103],[290.125,61.766]]]},"junctions":[]},{"type":"Feature","id":"building_200","properties":{"class":"building"},"geometry":{"type":"Polygon","coordinates":[[[762.384,855.274],[762.95,863.096],[765.331,863.436],[765.573,867.517],[783.051,867.176],[783.051,862.585],[793.385,862.755],[793.466,858.249],[779.217,858.47],[779.136,854.423],[769.166,854.764],[762.384,855.274]]]},"junctions":[]},{"type":"Feature","id":"building_201","properties":{"class":"building"},"geometry":{"type":"Polygon","coordinates":[[[771.404,815.474],[771.67,821.085],[769.009,821.26],[769.156,826.696],[791.781,826.331],[791.663,821.435],[789.149,821.26],[789.267,815.984],[771.404,815.474]]]},"junctions":[]},{"type":"Feature","id":"building_202","properties":{"class":"building"},"geometry":{"type":"Polygon","coordinates":[[[872.407,676.102],[873.274,712.551],[879.074,713.128],[879.007,710.099],[898.073,709.81],[897.839,685.382],[889.573,685.094],[889.373,679.371],[882.807,679.131],[882.807,676.102],[872.407,676.102]]]},"junctions":[]},{"type":"Feature","id":"building_203","properties":{"class":"building"},"geometry":{"type":"Polygon","coordinates":[[[935.99,699.28],[935.974,708.85],[940.842,708.797],[940.999,739.229],[948.066,739.821],[947.218,698.419],[935.99,699.28]]]},"junctions":[]},{"type":"Feature","id":"building_204","properties":{"class":"building"},"geometry":{"type":"Polygon","coordinates":[[[883.035,565.507],[882.842,582.018],[899.418,581.801],[899.203,565.312],[883.035,565.507]]]},"junctions":[]},{"type":"Feature","id":"building_205","properties":{"class":"building"},"geometry":{"type":"Polygon","coordinates":[[[757.32,485.974],[757.695,497.246],[777.96,496.572],[777.773,486.648],[757.32,485.974]]]},"junctions":[]},{"type":"Feature","id":"building_206","properties":{"class":"building"},"geometry":{"type":"Polygon","coordinates":[[[756.441,459.226],[756.909,473.117],[773.579,472.499],[773.111,458.683],[756.441,459.226]]]},"junctions":[]},{"type":"Feature","id":"building_207","properties":{"class":"building"},"geometry":{"type":"Polygon","coordinates":[[[741.048,395.858],[741.432,412.017],[763.84,411.802],[763.663,395.471],[741.048,395.858]]]},"junctions":[]},{"type":"Feature","id":"building_208","properties":{"class":"building"},"geometry":{"type":"Polygon","coordinates":[[[120.721,580.05],[119.804,608.164],[131.576,607.944],[131.102,579.866],[120.721,580.05]]]},"junctions":[]},{"type":"Feature","id":"building_209","properties":{"class":"building"},"geometry":{"type":"Polygon","coordinates":[[[925.843,952.081],[926.606,970.514],[927.742,970.464],[927.76,970.79],[940.177,970.414],[939.395,951.53],[925.843,952.081]]]},"junctions":[]},{"type":"Feature","id":"building_021","properties":{"class":"building"},"geometry":{"type":"Polygon","coordinates":[[[217.42,67.839],[217.772,79.194],[213.098,79.352],[213.482,91.592],[217.004,91.466],[237.752,90.011],[237.048,67.238],[217.42,67.839]]]},"junctions":[]},{"type":"Feature","id":"building_210","properties":{"class":"building"},"geometry":{"type":"Polygon","coordinates":[[[918.782,296.588],[919.881,361.002],[955.578,360.327],[954.479,295.998],[918.782,296.588]]]},"junctions":[]},{"type":"Feature","id":"building_211","properties":{"class":"building"},"geometry":{"type":"Polygon","coordinates":[[[966.681,319.064],[967.352,356.489],[1024.029,356.341],[1024.029,319.211],[990.812,319.801],[990.737,318.621],[966.681,319.064]]]},"junctions":[]},{"type":"Feature","id":"building_212","properties":{"class":"building"},"geometry":{"type":"Polygon","coordinates":[[[1000.18,835.758],[1000.521,852.499],[1020.37,852.064],[1019.977,833.871],[1017.171,833.943],[1000.18,835.758]]]},"junctions":[]},{"type":"Feature","id":"building_213","properties":{"class":"building"},"geometry":{"type":"Polygon","coordinates":[[[961.729,837.994],[962.406,856.078],[967.971,856.078],[967.441,861.872],[982.016,862.222],[982.134,854.55],[984.401,854.04],[984.254,837.708],[981.251,837.867],[961.729,837.994]]]},"junctions":[]},{"type":"Feature","id":"building_214","properties":{"class":"building"},"geometry":{"type":"Polygon","coordinates":[[[994.216,714.549],[994.571,732.509],[1003.044,732.321],[1002.735,714.361],[994.216,714.549]]]},"junctions":[]},{"type":"Feature","id":"building_022","properties":{"class":"building"},"geometry":{"type":"Polygon","coordinates":[[[208.197,-0.005],[208.459,10.615],[225.498,10.188],[225.433,6.643],[233.333,6.436],[233.169,-0.005],[208.197,-0.005]]]},"junctions":[]},{"type":"Feature","id":"building_023","properties":{"class":"building"},"geometry":{"type":"Polygon","coordinates":[[[172.135,71.147],[172.255,96.543],[187.198,96.477],[187.158,90.351],[194.71,90.318],[194.71,85.252],[203.065,85.219],[203.025,72.537],[194.429,72.57],[194.429,71.047],[172.135,71.147]]]},"junctions":[]},{"type":"Feature","id":"building_024","properties":{"class":"building"},"geometry":{"type":"Polygon","coordinates":[[[115.284,74.562],[115.411,86.357],[109.344,86.357],[109.513,102.495],[115.624,102.436],[115.708,113.703],[118.551,113.703],[118.636,119.513],[129.584,119.395],[129.541,112.412],[142.016,112.295],[141.634,74.327],[115.284,74.562]]]},"junctions":[]},{"type":"Feature","id":"building_025","properties":{"class":"building"},"geometry":{"type":"Polygon","coordinates":[[[56.976,84.541],[57.386,97.071],[62.311,96.926],[63.654,115.819],[85.704,115.576],[84.585,78.421],[61.901,79.15],[62.05,84.395],[56.976,84.541]]]},"junctions":[]},{"type":"Feature","id":"building_026","properties":{"class":"building"},"geometry":{"type":"Polygon","coordinates":[[[22.616,75.035],[23.376,116.565],[34.709,116.363],[34.89,126.576],[50.494,126.305],[49.553,74.494],[22.616,75.035]]]},"junctions":[]},{"type":"Feature","id":"building_027","properties":{"class":"building"},"geometry":{"type":"Polygon","coordinates":[[[-0.005,78.012],[-0.005,113.838],[7.667,113.698],[7.495,101.04],[10.995,101.04],[10.681,77.872],[-0.005,78.012]]]},"junctions":[]},{"type":"Feature","id":"building_028","properties":{"class":"building"},"geometry":{"type":"Polygon","coordinates":[[[-0.024,163.579],[-0.024,200.429],[48.844,200.181],[47.829,162.291],[-0.024,163.579]]]},"junctions":[]},{"type":"Feature","id":"building_029","properties":{"class":"building"},"geometry":{"type":"Polygon","coordinates":[[[107.695,201.32],[108.321,226.023],[117.745,225.79],[117.21,200.457],[107.695,201.32]]]},"junctions":[]},{"type":"Feature","id":"building_003","properties":{"class":"building"},"geometry":{"type":"Polygon","coordinates":[[[756.89,473.096],[757.323,485.988],[777.76,486.657],[777.462,472.353],[773.559,472.483],[756.89,473.096]]]},"junctions":[]},{"type":"Feature","id":"building_030","properties":{"class":"building"},"geometry":{"type":"Polygon","coordinates":[[[165.765,202.758],[166.369,227.753],[194.805,227.052],[194.201,202.057],[165.765,202.758]]]},"junctions":[]},{"type":"Feature","id":"building_031","properties":{"class":"building"},"geometry":{"type":"Polygon","coordinates":[[[207.566,212.605],[207.976,225.207],[236.254,224.291],[235.807,211.103],[228.281,211.341],[207.566,212.605]]]},"junctions":[]},{"type":"Feature","id":"building_032","properties":{"class":"building"},"geometry":{"type":"Polygon","coordinates":[[[210.16,124.897],[210.579,145.831],[230.31,145.415],[229.865,124.509],[210.16,124.897]]]},"junctions":[]},{"type":"Feature","id":"building_033","properties":{"class":"building"},"geometry":{"type":"Polygon","coordinates":[[[200.922,151.765],[201.449,167.398],[217.148,166.895],[216.621,151.262],[200.922,151.765]]]},"junctions":[]},{"type":"Feature","id":"building_034","properties":{"class":"building"},"geometry":{"type":"Polygon","coordinates":[[[714.78,121.557],[714.996,133.236],[735.62,132.862],[735.404,120.694],[714.78,121.557]]]},"junctions":[]},{"type":"Feature","id":"building_035","properties":{"class":"building"},"geometry":{"type":"Polygon","coordinates":[[[644.41,123.263],[644.73,137.277],[664.93,136.787],[664.584,122.773],[644.41,123.263]]]},"junctions":[]},{"type":"Feature","id":"building_036","properties":{"class":"building"},"geometry":{"type":"Polygon","coordinates":[[[650.44,141.419],[650.624,152.636],[670.7,152.321],[670.516,141.104],[650.44,141.419]]]},"junctions":[]},{"type":"Feature","id":"building_037","properties":{"class":"building"},"geometry":{"type":"Polygon","coordinates":[[[642.447,191.523],[642.782,217.083],[668.253,216.747],[667.918,191.187],[642.447,191.523]]]},"junctions":[]},{"type":"Feature","id":"building_038","properties":{"class":"building"},"geometry":{"type":"Polygon","coordinates":[[[582.716,182.421],[583.29,210.364],[610.354,209.772],[609.78,181.866],[582.716,182.421]]]},"junctions":[]},{"type":"Feature","id":"building_039","properties":{"class":"building"},"geometry":{"type":"Polygon","coordinates":[[[543.557,191.698],[544.044,212.101],[570.363,211.5],[569.876,191.069],[543.557,191.698]]]},"junctions":[]},{"type":"Feature","id":"building_004","properties":{"class":"building"},"geometry":{"type":"Polygon","coordinates":[[[727.44,416.615],[728.302,427.554],[720.407,428.164],[721.544,442.834],[746.953,440.825],[744.919,415.216],[727.44,416.615]]]},"junctions":[]},{"type":"Feature","id":"building_040","properties":{"class":"building"},"geometry":{"type":"Polygon","coordinates":[[[503.977,188.212],[504.044,212.962],[529.763,212.898],[529.696,188.148],[503.977,188.212]]]},"junctions":[]},{"type":"Feature","id":"building_041","properties":{"class":"building"},"geometry":{"type":"Polygon","coordinates":[[[452.756,179.638],[453.119,197.823],[456.751,197.766],[457.151,218.972],[458.931,218.972],[458.967,222.962],[477.891,222.563],[477.818,218.174],[480.724,218.116],[479.961,179.068],[452.756,179.638]]]},"junctions":[]},{"type":"Feature","id":"building_042","properties":{"class":"building"},"geometry":{"type":"Polygon","coordinates":[[[391.056,172.407],[391.092,174.504],[392.408,174.309],[392.188,200.975],[395.805,200.731],[395.586,203.559],[395.513,209.409],[402.49,209.262],[403.22,209.262],[415.239,209.311],[415.056,201.219],[419.184,201.121],[418.892,187.666],[416.006,187.715],[415.677,171.871],[391.056,172.407]]]},"junctions":[]},{"type":"Feature","id":"building_043","properties":{"class":"building"},"geometry":{"type":"Polygon","coordinates":[[[347.336,182.881],[347.943,215.194],[357.585,215.055],[357.621,217.968],[364.977,217.829],[364.906,214.593],[374.834,214.408],[374.727,209.508],[374.584,201.372],[374.227,182.372],[347.336,182.881]]]},"junctions":[]},{"type":"Feature","id":"building_044","properties":{"class":"building"},"geometry":{"type":"Polygon","coordinates":[[[298.781,192.514],[299.57,218.764],[336.729,217.626],[335.891,191.376],[298.781,192.514]]]},"junctions":[]},{"type":"Feature","id":"building_045","properties":{"class":"building"},"geometry":{"type":"Polygon","coordinates":[[[641.028,478.136],[640.939,497.098],[663.822,497.211],[663.911,478.164],[659.168,478.164],[659.198,475.844],[646.398,475.419],[646.368,478.164],[641.028,478.136]]]},"junctions":[]},{"type":"Feature","id":"building_046","properties":{"class":"building"},"geometry":{"type":"Polygon","coordinates":[[[600.105,473.402],[600.582,501.294],[622.479,500.893],[622.439,497.798],[630.705,497.689],[630.427,480.793],[609.881,481.085],[609.762,473.256],[600.105,473.402]]]},"junctions":[]},{"type":"Feature","id":"building_047","properties":{"class":"building"},"geometry":{"type":"Polygon","coordinates":[[[609.887,305.928],[610.192,323.363],[606.837,323.471],[607.676,362.239],[595.551,362.455],[595.932,379.132],[603.939,378.916],[604.168,388.662],[654.269,387.579],[653.736,361.806],[646.796,362.022],[646.033,323.254],[641.916,323.363],[641.534,305.278],[609.887,305.928]]]},"junctions":[]},{"type":"Feature","id":"building_048","properties":{"class":"building"},"geometry":{"type":"Polygon","coordinates":[[[414.698,303.572],[416.271,361.013],[427.281,360.677],[427.337,364.94],[438.516,364.716],[439.19,389.173],[453.402,388.724],[457.952,388.612],[457.221,363.145],[444.414,363.482],[442.785,302.787],[414.698,303.572]]]},"junctions":[]},{"type":"Feature","id":"building_049","properties":{"class":"building"},"geometry":{"type":"Polygon","coordinates":[[[1002.719,714.375],[1003.024,732.316],[1003.217,740.493],[1024.011,740.045],[1024.011,713.927],[1002.719,714.375]]]},"junctions":[]},{"type":"Feature","id":"building_005","properties":{"class":"building"},"geometry":{"type":"Polygon","coordinates":[[[989.703,54.774],[989.792,80.943],[1024.017,80.841],[1024.017,54.637],[989.703,54.774]]]},"junctions":[]},{"type":"Feature","id":"building_050","properties":{"class":"building"},"geometry":{"type":"Polygon","coordinates":[[[920.343,708.896],[920.431,726.932],[918.689,726.932],[918.776,744.968],[941.041,744.827],[941.012,739.238],[940.838,708.802],[935.99,708.849],[920.343,708.896]]]},"junctions":[]},{"type":"Feature","id":"building_051","properties":{"class":"building"},"geometry":{"type":"Polygon","coordinates":[[[879.007,710.081],[879.075,713.134],[879.653,747.059],[900.857,746.719],[900.45,724.571],[905.173,724.474],[904.969,712.407],[900.45,712.504],[900.382,709.741],[898.071,709.79],[879.007,710.081]]]},"junctions":[]},{"type":"Feature","id":"building_052","properties":{"class":"building"},"geometry":{"type":"Polygon","coordinates":[[[841.007,715.135],[841.455,734.287],[841.869,748.091],[854.285,748.425],[854.182,751.338],[860.01,751.291],[860.01,750.144],[867.563,749.81],[867.529,745.894],[867.46,736.723],[862.252,737.201],[862.148,732.854],[863.252,732.807],[867.149,732.711],[866.736,714.562],[841.007,715.135]]]},"junctions":[]},{"type":"Feature","id":"building_053","properties":{"class":"building"},"geometry":{"type":"Polygon","coordinates":[[[799.287,713.713],[799.487,752.31],[824.913,752.152],[824.713,713.081],[822.35,713.133],[822.35,711.71],[805.344,711.815],[805.344,713.661],[799.287,713.713]]]},"junctions":[]},{"type":"Feature","id":"building_054","properties":{"class":"building"},"geometry":{"type":"Polygon","coordinates":[[[764.388,712.278],[764.806,725.676],[768.797,725.612],[769.634,753.625],[789.172,753.048],[787.949,712.022],[782.767,712.15],[782.509,704.265],[768.862,704.714],[769.087,712.15],[764.388,712.278]]]},"junctions":[]},{"type":"Feature","id":"building_055","properties":{"class":"building"},"geometry":{"type":"Polygon","coordinates":[[[738.489,706.177],[740.013,758.046],[750.484,757.705],[750.343,753.48],[760.221,753.207],[758.838,705.564],[738.489,706.177]]]},"junctions":[]},{"type":"Feature","id":"building_056","properties":{"class":"building"},"geometry":{"type":"Polygon","coordinates":[[[737.997,626.941],[738.165,643.268],[763.923,643.048],[762.913,626.302],[737.997,626.941]]]},"junctions":[]},{"type":"Feature","id":"building_057","properties":{"class":"building"},"geometry":{"type":"Polygon","coordinates":[[[748.77,564.648],[749.096,583.969],[746.899,583.969],[747.061,592.115],[768.383,591.722],[768.383,586.724],[809.561,586.055],[809.154,565.514],[798.005,565.711],[798.087,568.937],[793.367,568.977],[793.285,561.815],[770.743,562.208],[770.824,564.294],[748.77,564.648]]]},"junctions":[]},{"type":"Feature","id":"building_058","properties":{"class":"building"},"geometry":{"type":"Polygon","coordinates":[[[850.214,565.89],[850.384,579.065],[860.49,578.944],[860.575,585.848],[872.813,585.727],[872.813,588.712],[882.918,588.591],[882.833,582.019],[883.046,565.498],[850.214,565.89]]]},"junctions":[]},{"type":"Feature","id":"building_059","properties":{"class":"building"},"geometry":{"type":"Polygon","coordinates":[[[913.306,564.176],[914.018,585.851],[922.525,585.59],[922.413,582.539],[935.98,582.103],[935.943,580.854],[942.164,580.679],[941.64,564.932],[934.931,565.135],[934.893,563.479],[913.306,564.176]]]},"junctions":[]},{"type":"Feature","id":"building_006","properties":{"class":"building"},"geometry":{"type":"Polygon","coordinates":[[[940.077,64.208],[940.111,69.799],[941.187,107.692],[958.542,107.183],[966.63,107.466],[966.803,100.859],[965.797,64.942],[940.077,64.208]]]},"junctions":[]},{"type":"Feature","id":"building_060","properties":{"class":"building"},"geometry":{"type":"Polygon","coordinates":[[[949.826,561.949],[950.276,575.771],[956.551,575.543],[956.738,581.673],[967.822,581.33],[968.085,590.355],[978.754,589.86],[978.491,581.94],[978.454,561.035],[949.826,561.949]]]},"junctions":[]},{"type":"Feature","id":"building_061","properties":{"class":"building"},"geometry":{"type":"Polygon","coordinates":[[[645.644,633.19],[645.644,633.767],[645.644,644.699],[642.349,644.699],[642.349,653.322],[642.607,653.322],[664.411,653.322],[664.411,632.228],[658.652,632.324],[658.652,630.593],[654.841,630.369],[654.841,628.638],[652.148,628.766],[651.89,630.689],[647.564,630.593],[647.564,633.19],[645.644,633.19]]]},"junctions":[]},{"type":"Feature","id":"building_062","properties":{"class":"building"},"geometry":{"type":"Polygon","coordinates":[[[642.554,703.991],[643.072,756.816],[654.636,756.679],[654.558,749.319],[653.993,703.854],[642.554,703.991]]]},"junctions":[]},{"type":"Feature","id":"building_063","properties":{"class":"building"},"geometry":{"type":"Polygon","coordinates":[[[609.933,714.114],[610.75,750.584],[623.313,750.295],[623.25,745.917],[634.117,745.724],[633.363,713.536],[609.933,714.114]]]},"junctions":[]},{"type":"Feature","id":"building_064","properties":{"class":"building"},"geometry":{"type":"Polygon","coordinates":[[[569.627,716.23],[570.177,757.711],[596.103,757.33],[595.519,715.849],[569.627,716.23]]]},"junctions":[]},{"type":"Feature","id":"building_065","properties":{"class":"building"},"geometry":{"type":"Polygon","coordinates":[[[532.449,712.261],[533.25,759.063],[554.471,758.697],[553.842,722.404],[544.318,722.587],[544.146,712.017],[532.449,712.261]]]},"junctions":[]},{"type":"Feature","id":"building_066","properties":{"class":"building"},"geometry":{"type":"Polygon","coordinates":[[[489.708,722.329],[489.708,724.039],[485.389,727.868],[484.204,727.909],[484.627,753.446],[506.898,753.038],[506.814,745.381],[516.806,745.218],[516.51,726.198],[503.088,726.442],[503.045,722.084],[489.708,722.329]]]},"junctions":[]},{"type":"Feature","id":"building_067","properties":{"class":"building"},"geometry":{"type":"Polygon","coordinates":[[[435.386,724.295],[435.458,745.106],[441.692,745.061],[441.692,752.057],[462.974,751.968],[462.902,734.969],[458.639,735.014],[458.567,717.523],[452.834,717.523],[452.87,720.124],[441.262,720.124],[441.262,724.295],[435.386,724.295]]]},"junctions":[]},{"type":"Feature","id":"building_068","properties":{"class":"building"},"geometry":{"type":"Polygon","coordinates":[[[396.238,727.615],[396.274,732.661],[394.626,732.7],[394.919,754.671],[405.982,754.555],[405.982,757.505],[413.126,757.388],[413.126,754.904],[422.834,754.788],[422.541,731.264],[420.966,731.303],[420.929,727.964],[396.238,727.615]]]},"junctions":[]},{"type":"Feature","id":"building_069","properties":{"class":"building"},"geometry":{"type":"Polygon","coordinates":[[[355.451,725.88],[355.48,732.968],[351.729,732.968],[351.816,755.102],[359.115,755.059],[359.144,759.277],[366.967,759.277],[366.938,754.667],[374.121,754.667],[374.063,738.1],[374.034,736.186],[366.153,736.23],[366.095,725.793],[355.451,725.88]]]},"junctions":[]},{"type":"Feature","id":"building_007","properties":{"class":"building"},"geometry":{"type":"Polygon","coordinates":[[[911.587,65.744],[911.825,92.986],[937.773,92.774],[937.501,60.364],[928.081,60.448],[928.149,65.617],[911.587,65.744]]]},"junctions":[]},{"type":"Feature","id":"building_070","properties":{"class":"building"},"geometry":{"type":"Polygon","coordinates":[[[310.545,743.88],[310.903,757.689],[325.596,757.29],[325.676,760.349],[332.804,760.171],[332.764,757.489],[341.205,757.29],[340.807,743.281],[317.194,743.703],[310.545,743.88]]]},"junctions":[]},{"type":"Feature","id":"building_071","properties":{"class":"building"},"geometry":{"type":"Polygon","coordinates":[[[305.715,578.52],[306.067,592.841],[310.179,592.736],[310.609,612.394],[322.63,612.13],[322.748,615.67],[334.925,615.353],[334.495,598.073],[335.865,598.073],[335.356,577.305],[328.19,577.463],[328.112,574.98],[320.203,575.191],[320.281,578.15],[305.715,578.52]]]},"junctions":[]},{"type":"Feature","id":"building_072","properties":{"class":"building"},"geometry":{"type":"Polygon","coordinates":[[[349.99,574.632],[350.704,596.822],[359.091,596.609],[368.371,596.397],[369.62,596.306],[368.6,573.448],[361.258,574.146],[349.99,574.632]]]},"junctions":[]},{"type":"Feature","id":"building_073","properties":{"class":"building"},"geometry":{"type":"Polygon","coordinates":[[[345.17,635.568],[345.17,660.262],[365.32,660.262],[365.32,635.568],[345.17,635.568]]]},"junctions":[]},{"type":"Feature","id":"building_074","properties":{"class":"building"},"geometry":{"type":"Polygon","coordinates":[[[398.373,618.744],[398.496,622.86],[399.023,636.539],[411.897,636.04],[411.229,618.221],[398.373,618.744]]]},"junctions":[]},{"type":"Feature","id":"building_075","properties":{"class":"building"},"geometry":{"type":"Polygon","coordinates":[[[414.826,617.275],[415.493,636.51],[423.534,636.205],[422.867,616.97],[414.826,617.275]]]},"junctions":[]},{"type":"Feature","id":"building_076","properties":{"class":"building"},"geometry":{"type":"Polygon","coordinates":[[[380.529,575.645],[380.952,591.05],[382.162,591.001],[382.754,612.549],[396.467,612.061],[400.944,611.866],[400.521,595.925],[402.211,595.876],[401.62,575.011],[380.529,575.645]]]},"junctions":[]},{"type":"Feature","id":"building_077","properties":{"class":"building"},"geometry":{"type":"Polygon","coordinates":[[[416.501,576.022],[416.985,591.61],[415.338,591.703],[415.725,604.304],[426.677,603.977],[426.903,611.258],[440.212,610.838],[439.146,575.322],[416.501,576.022]]]},"junctions":[]},{"type":"Feature","id":"building_078","properties":{"class":"building"},"geometry":{"type":"Polygon","coordinates":[[[446.835,573.338],[447.309,587.765],[453.077,587.631],[453.314,595.653],[450.232,595.721],[451.102,624.306],[474.529,623.564],[474.213,613.249],[475.477,613.182],[474.885,594.103],[477.255,594.035],[476.584,572.394],[446.835,573.338]]]},"junctions":[]},{"type":"Feature","id":"building_079","properties":{"class":"building"},"geometry":{"type":"Polygon","coordinates":[[[489.525,571.593],[490.326,593.404],[497.797,593.154],[498.406,609.349],[510.489,608.848],[509.803,590.396],[512.662,590.246],[512.586,587.538],[518.875,587.287],[518.379,573.95],[512.319,574.2],[512.166,570.741],[489.525,571.593]]]},"junctions":[]},{"type":"Feature","id":"building_008","properties":{"class":"building"},"geometry":{"type":"Polygon","coordinates":[[[828.397,51.585],[829.641,84.867],[854.215,83.915],[873.045,83.326],[873.993,83.28],[872.749,49.953],[828.397,51.585]]]},"junctions":[]},{"type":"Feature","id":"building_080","properties":{"class":"building"},"geometry":{"type":"Polygon","coordinates":[[[530.362,572.036],[530.454,580.7],[527.528,580.743],[527.681,592.847],[531.551,592.804],[531.672,604.526],[550.961,604.314],[550.992,593.272],[550.748,571.824],[530.362,572.036]]]},"junctions":[]},{"type":"Feature","id":"building_081","properties":{"class":"building"},"geometry":{"type":"Polygon","coordinates":[[[470.954,699.904],[471.312,722.221],[483.476,722.046],[483.118,699.699],[470.954,699.904]]]},"junctions":[]},{"type":"Feature","id":"building_082","properties":{"class":"building"},"geometry":{"type":"Polygon","coordinates":[[[998.241,810.993],[998.757,835.803],[1000.184,835.77],[1017.179,833.935],[1016.688,810.567],[998.241,810.993]]]},"junctions":[]},{"type":"Feature","id":"building_083","properties":{"class":"building"},"geometry":{"type":"Polygon","coordinates":[[[959.539,810.906],[960.075,838.034],[961.739,837.998],[981.251,837.855],[980.687,810.476],[959.539,810.906]]]},"junctions":[]},{"type":"Feature","id":"building_084","properties":{"class":"building"},"geometry":{"type":"Polygon","coordinates":[[[924.597,812.931],[924.671,815.752],[924.413,815.752],[924.339,823.077],[923.309,823.077],[919.886,823.077],[919.776,832.579],[923.493,832.727],[923.677,843.566],[930.706,843.467],[930.817,851.039],[948.114,850.742],[947.673,822.433],[940.128,823.027],[940.017,813.277],[924.597,812.931]]]},"junctions":[]},{"type":"Feature","id":"building_085","properties":{"class":"building"},"geometry":{"type":"Polygon","coordinates":[[[887.249,824.161],[887.36,839.982],[890.834,839.982],[908.481,840.288],[908.37,823.462],[904.234,823.462],[887.249,824.161]]]},"junctions":[]},{"type":"Feature","id":"building_086","properties":{"class":"building"},"geometry":{"type":"Polygon","coordinates":[[[844.528,820.739],[844.87,858.709],[868.482,858.511],[868.171,824.551],[861.202,824.601],[861.171,820.591],[844.528,820.739]]]},"junctions":[]},{"type":"Feature","id":"building_087","properties":{"class":"building"},"geometry":{"type":"Polygon","coordinates":[[[806.739,813.707],[806.886,829.497],[807.151,861.584],[829.421,861.204],[827.654,812.756],[806.739,813.707]]]},"junctions":[]},{"type":"Feature","id":"building_088","properties":{"class":"building"},"geometry":{"type":"Polygon","coordinates":[[[769.148,826.68],[769.179,843.989],[769.148,854.775],[779.158,854.441],[779.189,858.496],[793.462,858.245],[792.957,826.304],[791.789,826.346],[769.148,826.68]]]},"junctions":[]},{"type":"Feature","id":"building_089","properties":{"class":"building"},"geometry":{"type":"Polygon","coordinates":[[[734.74,822.387],[734.979,836.251],[740.786,836.177],[740.999,850.824],[744.809,850.75],[755.25,850.601],[754.984,824.846],[748.271,824.958],[748.218,822.126],[734.74,822.387]]]},"junctions":[]},{"type":"Feature","id":"building_009","properties":{"class":"building"},"geometry":{"type":"Polygon","coordinates":[[[785.672,56.723],[785.958,64.194],[775.388,64.644],[776.188,82.242],[786.586,81.747],[786.815,85.887],[803.898,85.077],[803.727,81.252],[810.583,80.937],[810.298,74.276],[819.382,73.871],[818.639,57.759],[810.126,58.119],[809.955,55.553],[803.384,55.868],[803.156,51.233],[793.1,51.728],[793.271,56.363],[785.672,56.723]]]},"junctions":[]},{"type":"Feature","id":"building_090","properties":{"class":"building"},"geometry":{"type":"Polygon","coordinates":[[[741.505,895.314],[741.422,906.617],[757.405,906.706],[757.488,895.433],[741.505,895.314]]]},"junctions":[]},{"type":"Feature","id":"building_091","properties":{"class":"building"},"geometry":{"type":"Polygon","coordinates":[[[648.476,814.584],[648.535,820.555],[646.309,820.593],[646.576,843.495],[666.232,843.268],[666.173,836.276],[669.171,836.239],[669.082,829.134],[665.787,829.172],[665.697,820.593],[663.025,820.631],[662.936,814.395],[648.476,814.584]]]},"junctions":[]},{"type":"Feature","id":"building_092","properties":{"class":"building"},"geometry":{"type":"Polygon","coordinates":[[[613.057,818.227],[613.294,830.857],[619.918,830.719],[620.223,846.85],[614.984,846.987],[615.423,870.736],[633.168,870.393],[632.762,848.84],[639.083,848.703],[638.61,823.032],[629.551,823.238],[629.416,817.884],[613.057,818.227]]]},"junctions":[]},{"type":"Feature","id":"building_093","properties":{"class":"building"},"geometry":{"type":"Polygon","coordinates":[[[572.429,819.51],[572.033,862.186],[575.652,862.069],[575.688,864.232],[585.897,863.999],[585.447,845.642],[580.477,845.759],[580.171,832.664],[585.717,832.547],[585.393,819.218],[572.429,819.51]]]},"junctions":[]},{"type":"Feature","id":"building_094","properties":{"class":"building"},"geometry":{"type":"Polygon","coordinates":[[[531.696,815.359],[532.26,845.466],[540.072,845.316],[540.177,853.179],[557.632,852.831],[557.456,844.023],[558.794,844.023],[558.266,814.861],[531.696,815.359]]]},"junctions":[]},{"type":"Feature","id":"building_095","properties":{"class":"building"},"geometry":{"type":"Polygon","coordinates":[[[495.749,829.379],[496.637,863.002],[518.561,863.497],[517.643,828.793],[495.749,829.379]]]},"junctions":[]},{"type":"Feature","id":"building_096","properties":{"class":"building"},"geometry":{"type":"Polygon","coordinates":[[[346.71,829.116],[346.781,835.198],[340.196,835.253],[340.338,849.98],[367.454,849.708],[367.277,830.452],[358.214,830.534],[358.214,828.98],[346.71,829.116]]]},"junctions":[]},{"type":"Feature","id":"building_097","properties":{"class":"building"},"geometry":{"type":"Polygon","coordinates":[[[384.333,828.562],[384.437,833.232],[381.337,833.288],[381.58,847.804],[383.462,847.748],[383.671,859.845],[387.608,859.789],[387.817,871.492],[401.579,871.267],[401.37,859.845],[406.805,859.789],[406.63,848.03],[408.163,847.973],[407.815,828.168],[384.333,828.562]]]},"junctions":[]},{"type":"Feature","id":"building_098","properties":{"class":"building"},"geometry":{"type":"Polygon","coordinates":[[[371.596,871.755],[371.734,887.418],[379.794,887.316],[379.677,871.652],[371.596,871.755]]]},"junctions":[]},{"type":"Feature","id":"building_099","properties":{"class":"building"},"geometry":{"type":"Polygon","coordinates":[[[352.902,870.593],[353.177,880.375],[369.168,879.937],[368.894,870.155],[352.902,870.593]]]},"junctions":[]},{"type":"Feature","id":"road_network","properties":{"class":"road","topologyMode":"stitched-graph"},"geometry":{"type":"MultiLineString","coordinates":[[[265,0],[266,36]],[[689,0],[690,26]],[[1023,19],[895,22],[767,24],[690,26]],[[959,20],[831,23],[704,26]],[[690,26],[639,27],[511,30],[383,33],[266,36]],[[690,26],[575,29],[447,32],[319,35],[287,35],[266,36]],[[690,26],[692,127],[694,240]],[[255,36],[127,38],[0,41]],[[266,36],[191,37],[64,40]],[[266,36],[269,128],[272,255]],[[267,64],[271,192],[273,264]],[[691,64],[693,191],[694,240]],[[877,214],[877,251]],[[768,216],[768,254]],[[694,240],[695,255]],[[1023,248],[910,250]],[[959,249],[910,250]],[[910,250],[877,251]],[[910,250],[911,300],[911,383],[911,426]],[[910,250],[911,319],[911,426]],[[877,251],[895,251]],[[877,251],[858,252]],[[858,252],[831,253],[768,254]],[[858,252],[768,254]],[[858,252],[859,319],[862,427]],[[858,252],[861,383],[862,427]],[[768,254],[695,255]],[[81,255],[81,165],[81,191],[81,268]],[[695,255],[639,257],[511,260],[383,262],[273,264]],[[695,255],[575,258],[447,261],[319,263],[273,264]],[[695,255],[695,281],[698,382]],[[695,255],[696,319],[698,382]],[[273,264],[253,265]],[[273,264],[273,289],[276,383],[280,511],[281,541]],[[273,264],[274,319],[278,447],[281,541]],[[253,265],[191,265],[81,268]],[[253,265],[127,267],[81,268]],[[66,268],[81,268]],[[66,268],[0,269]],[[66,268],[66,319],[69,447],[71,575],[74,703],[76,831],[77,891]],[[66,268],[68,383],[70,511],[73,639],[75,767],[77,891]],[[698,382],[698,447],[699,530]],[[698,382],[699,511],[699,530]],[[911,426],[895,426],[862,427]],[[911,426],[862,427]],[[1023,525],[895,527],[767,529],[699,530]],[[959,526],[831,528],[699,530]],[[699,530],[639,532],[511,537],[383,539],[281,541]],[[699,530],[575,535],[447,538],[319,540],[281,541]],[[699,530],[700,575],[702,703],[703,784]],[[699,530],[701,639],[703,767],[703,784]],[[281,541],[282,575],[284,703],[285,743]],[[281,541],[283,639],[285,743]],[[285,743],[289,767],[293,793]],[[285,743],[293,793]],[[1023,778],[895,780],[767,782],[703,784]],[[959,779],[831,781],[723,783],[703,784]],[[703,784],[691,786]],[[703,784],[704,802]],[[691,786],[639,787],[511,789],[383,792],[293,793]],[[691,786],[575,788],[447,790],[319,793],[293,793]],[[293,793],[303,831],[313,871]],[[293,793],[313,871]],[[704,802],[704,831],[707,959]],[[704,802],[706,895],[708,1023]],[[1,831],[77,891]],[[313,871],[326,896],[364,969]],[[313,871],[360,959],[333,909]],[[77,891],[127,931],[163,959],[77,891]],[[77,891],[142,942],[194,986]],[[364,969],[383,994],[405,1021],[364,969]],[[194,986],[255,1009],[298,1023],[194,986]],[[194,986],[212,1023]]]},"junctions":[[690,26],[266,36],[694,240],[910,250],[877,251],[858,252],[768,254],[695,255],[273,264],[253,265],[66,268],[81,268],[698,382],[911,426],[862,427],[699,530],[281,541],[285,743],[703,784],[691,786],[293,793],[704,802],[313,871],[77,891],[364,969],[194,986]]}]}