{"type":"FeatureCollection","coordinateSystem":{"type":"image-pixel","origin":"top-left","x":"right","y":"down","georeferenced":false},"features":[{"type":"Feature","id":"building_000","properties":{"class":"building"},"geometry":{"type":"Polygon","coordinates":[[[742.756,171.687],[743.462,209.01],[851.464,206.473],[850.758,169.15],[742.756,171.687]]]},"junctions":[]},{"type":"Feature","id":"building_001","properties":{"class":"building"},"geometry":{"type":"Polygon","coordinates":[[[347.959,412.463],[351.154,416.298],[333.267,433.113],[359.458,461.729],[379.421,443.144],[428.451,496.539],[456.239,470.579],[405.453,414.823],[407.05,413.348],[380.699,382.963],[347.959,412.463]]]},"junctions":[]},{"type":"Feature","id":"building_010","properties":{"class":"building"},"geometry":{"type":"Polygon","coordinates":[[[715.894,56.347],[716.9,91.668],[748.166,90.776],[747.16,55.502],[715.894,56.347]]]},"junctions":[]},{"type":"Feature","id":"building_100","properties":{"class":"building"},"geometry":{"type":"Polygon","coordinates":[[[571.601,891.17],[571.601,910.8],[590.189,910.8],[590.189,891.17],[571.601,891.17]]]},"junctions":[]},{"type":"Feature","id":"building_101","properties":{"class":"building"},"geometry":{"type":"Polygon","coordinates":[[[610.966,955.423],[611.218,1000.282],[638.624,1000.107],[638.372,955.248],[610.966,955.423]]]},"junctions":[]},{"type":"Feature","id":"building_102","properties":{"class":"building"},"geometry":{"type":"Polygon","coordinates":[[[578.757,962.325],[580.215,996.858],[604.873,995.795],[603.415,961.262],[578.757,962.325]]]},"junctions":[]},{"type":"Feature","id":"building_103","properties":{"class":"building"},"geometry":{"type":"Polygon","coordinates":[[[210.026,301.682],[210.503,327.813],[238.304,327.188],[237.827,301.057],[210.026,301.682]]]},"junctions":[]},{"type":"Feature","id":"building_104","properties":{"class":"building"},"geometry":{"type":"Polygon","coordinates":[[[195.498,341.026],[194.957,368.059],[241.243,368.524],[241.003,341.383],[195.498,341.026]]]},"junctions":[]},{"type":"Feature","id":"building_105","properties":{"class":"building"},"geometry":{"type":"Polygon","coordinates":[[[243.974,837.934],[254.269,865.308],[276.866,857.256],[266.571,829.882],[243.974,837.934]]]},"junctions":[]},{"type":"Feature","id":"building_106","properties":{"class":"building"},"geometry":{"type":"Polygon","coordinates":[[[239.621,796.587],[242.774,822.414],[256.839,820.808],[253.686,794.946],[239.621,796.587]]]},"junctions":[]},{"type":"Feature","id":"building_107","properties":{"class":"building"},"geometry":{"type":"Polygon","coordinates":[[[202.976,761.185],[206.477,788.325],[251.114,785.135],[247.613,757.995],[202.976,761.185]]]},"junctions":[]},{"type":"Feature","id":"building_108","properties":{"class":"building"},"geometry":{"type":"Polygon","coordinates":[[[183.461,754.764],[183.705,763.555],[200.489,763.296],[200.245,754.505],[183.461,754.764]]]},"junctions":[]},{"type":"Feature","id":"building_109","properties":{"class":"building"},"geometry":{"type":"Polygon","coordinates":[[[193.715,724.095],[193.715,753.315],[244.125,753.315],[244.125,724.095],[193.715,724.095]]]},"junctions":[]},{"type":"Feature","id":"building_011","properties":{"class":"building"},"geometry":{"type":"Polygon","coordinates":[[[618.374,53.41],[619.786,84.226],[649.426,83.02],[648.014,52.204],[618.374,53.41]]]},"junctions":[]},{"type":"Feature","id":"building_110","properties":{"class":"building"},"geometry":{"type":"Polygon","coordinates":[[[182.01,700.978],[182.502,713.017],[201.96,711.832],[201.468,699.793],[182.01,700.978]]]},"junctions":[]},{"type":"Feature","id":"building_111","properties":{"class":"building"},"geometry":{"type":"Polygon","coordinates":[[[209.222,688.198],[209.359,707.87],[244.358,707.372],[244.221,687.7],[209.222,688.198]]]},"junctions":[]},{"type":"Feature","id":"building_112","properties":{"class":"building"},"geometry":{"type":"Polygon","coordinates":[[[217.059,641.887],[217.059,663.495],[238.321,663.495],[238.321,634.305],[231.473,634.305],[231.473,641.887],[217.059,641.887]]]},"junctions":[]},{"type":"Feature","id":"building_113","properties":{"class":"building"},"geometry":{"type":"Polygon","coordinates":[[[185.37,629.266],[185.887,649.28],[206.36,648.774],[205.843,628.76],[185.37,629.266]]]},"junctions":[]},{"type":"Feature","id":"building_114","properties":{"class":"building"},"geometry":{"type":"Polygon","coordinates":[[[205.628,594.429],[205.081,616.251],[242.862,617.321],[243.409,595.499],[205.628,594.429]]]},"junctions":[]},{"type":"Feature","id":"building_115","properties":{"class":"building"},"geometry":{"type":"Polygon","coordinates":[[[186.363,592.016],[186.363,600.174],[199.687,600.174],[199.687,592.016],[186.363,592.016]]]},"junctions":[]},{"type":"Feature","id":"building_116","properties":{"class":"building"},"geometry":{"type":"Polygon","coordinates":[[[184.473,581.922],[184.678,589.334],[198.847,588.949],[198.642,581.526],[184.473,581.922]]]},"junctions":[]},{"type":"Feature","id":"building_117","properties":{"class":"building"},"geometry":{"type":"Polygon","coordinates":[[[202.999,551.463],[203.853,580.255],[244.091,579.487],[243.237,550.695],[202.999,551.463]]]},"junctions":[]},{"type":"Feature","id":"building_118","properties":{"class":"building"},"geometry":{"type":"Polygon","coordinates":[[[209.782,498.798],[210.683,534.858],[246.308,534.142],[245.407,498.082],[209.782,498.798]]]},"junctions":[]},{"type":"Feature","id":"building_119","properties":{"class":"building"},"geometry":{"type":"Polygon","coordinates":[[[185.563,493.839],[185.563,516.751],[199.607,516.751],[199.607,493.839],[185.563,493.839]]]},"junctions":[]},{"type":"Feature","id":"building_012","properties":{"class":"building"},"geometry":{"type":"Polygon","coordinates":[[[578.355,63.261],[578.773,118.548],[607.575,118.259],[607.157,62.972],[578.355,63.261]]]},"junctions":[]},{"type":"Feature","id":"building_120","properties":{"class":"building"},"geometry":{"type":"Polygon","coordinates":[[[215.711,456.829],[216.883,479.492],[233.759,478.572],[232.587,455.878],[215.711,456.829]]]},"junctions":[]},{"type":"Feature","id":"building_121","properties":{"class":"building"},"geometry":{"type":"Polygon","coordinates":[[[202.74,428.037],[204.072,445.664],[243.77,443.17],[242.278,418.626],[233.06,419.223],[233.486,426.0],[202.74,428.037]]]},"junctions":[]},{"type":"Feature","id":"building_122","properties":{"class":"building"},"geometry":{"type":"Polygon","coordinates":[[[211.93,377.747],[213.39,400.842],[232.37,399.643],[230.91,376.548],[211.93,377.747]]]},"junctions":[]},{"type":"Feature","id":"building_123","properties":{"class":"building"},"geometry":{"type":"Polygon","coordinates":[[[292.182,947.073],[284.451,972.296],[315.628,982.067],[323.359,956.844],[292.182,947.073]]]},"junctions":[]},{"type":"Feature","id":"building_124","properties":{"class":"building"},"geometry":{"type":"Polygon","coordinates":[[[234.574,923.402],[223.176,944.604],[251.354,958.738],[254.774,952.313],[264.969,957.407],[271.934,944.787],[269.908,943.732],[271.934,940.152],[258.193,933.36],[256.23,936.986],[234.574,923.402]]]},"junctions":[]},{"type":"Feature","id":"building_125","properties":{"class":"building"},"geometry":{"type":"Polygon","coordinates":[[[208.832,902.743],[195.142,924.281],[217.928,936.797],[231.618,915.259],[208.832,902.743]]]},"junctions":[]},{"type":"Feature","id":"building_126","properties":{"class":"building"},"geometry":{"type":"Polygon","coordinates":[[[177.894,877.236],[157.706,907.55],[186.096,925.364],[206.284,888.799],[177.894,877.236]]]},"junctions":[]},{"type":"Feature","id":"building_127","properties":{"class":"building"},"geometry":{"type":"Polygon","coordinates":[[[141.97,855.948],[128.281,873.892],[134.365,877.321],[128.281,885.093],[148.561,899.952],[167.32,876.293],[141.97,855.948]]]},"junctions":[]},{"type":"Feature","id":"building_128","properties":{"class":"building"},"geometry":{"type":"Polygon","coordinates":[[[103.485,823.025],[103.205,853.01],[133.805,853.325],[134.085,823.34],[103.485,823.025]]]},"junctions":[]},{"type":"Feature","id":"building_129","properties":{"class":"building"},"geometry":{"type":"Polygon","coordinates":[[[105.484,778.238],[105.734,802.242],[127.497,801.704],[127.414,798.727],[137.526,798.727],[137.235,777.858],[105.484,778.238]]]},"junctions":[]},{"type":"Feature","id":"building_013","properties":{"class":"building"},"geometry":{"type":"Polygon","coordinates":[[[497.056,69.612],[496.666,104.635],[512.962,104.818],[513.104,90.415],[523.766,90.553],[523.944,69.887],[497.056,69.612]]]},"junctions":[]},{"type":"Feature","id":"building_130","properties":{"class":"building"},"geometry":{"type":"Polygon","coordinates":[[[102.232,733.848],[102.053,757.422],[136.647,757.085],[136.647,734.216],[102.232,733.848]]]},"junctions":[]},{"type":"Feature","id":"building_131","properties":{"class":"building"},"geometry":{"type":"Polygon","coordinates":[[[105.418,697.259],[105.8,723.623],[129.952,723.171],[129.57,696.807],[105.418,697.259]]]},"junctions":[]},{"type":"Feature","id":"building_132","properties":{"class":"building"},"geometry":{"type":"Polygon","coordinates":[[[102.89,656.331],[104.028,686.375],[123.28,685.859],[122.142,655.815],[102.89,656.331]]]},"junctions":[]},{"type":"Feature","id":"building_133","properties":{"class":"building"},"geometry":{"type":"Polygon","coordinates":[[[95.771,616.645],[95.548,647.385],[119.859,647.545],[120.082,616.805],[95.771,616.645]]]},"junctions":[]},{"type":"Feature","id":"building_134","properties":{"class":"building"},"geometry":{"type":"Polygon","coordinates":[[[99.569,574.803],[99.569,608.507],[120.741,608.507],[120.741,574.803],[99.569,574.803]]]},"junctions":[]},{"type":"Feature","id":"building_135","properties":{"class":"building"},"geometry":{"type":"Polygon","coordinates":[[[99.466,524.564],[100.513,556.206],[127.274,555.406],[126.227,523.764],[99.466,524.564]]]},"junctions":[]},{"type":"Feature","id":"building_136","properties":{"class":"building"},"geometry":{"type":"Polygon","coordinates":[[[94.944,485.869],[94.944,507.101],[126.936,507.101],[126.936,485.869],[94.944,485.869]]]},"junctions":[]},{"type":"Feature","id":"building_137","properties":{"class":"building"},"geometry":{"type":"Polygon","coordinates":[[[96.497,434.195],[96.74,446.627],[143.443,445.345],[143.2,432.913],[96.497,434.195]]]},"junctions":[]},{"type":"Feature","id":"building_138","properties":{"class":"building"},"geometry":{"type":"Polygon","coordinates":[[[96.3,389.383],[96.591,410.121],[116.65,409.737],[116.359,388.999],[96.3,389.383]]]},"junctions":[]},{"type":"Feature","id":"building_139","properties":{"class":"building"},"geometry":{"type":"Polygon","coordinates":[[[101.191,341.879],[104.458,366.853],[120.109,366.221],[116.842,341.247],[101.191,341.879]]]},"junctions":[]},{"type":"Feature","id":"building_014","properties":{"class":"building"},"geometry":{"type":"Polygon","coordinates":[[[459.416,64.7],[460.447,89.173],[486.784,88.52],[485.753,64.047],[459.416,64.7]]]},"junctions":[]},{"type":"Feature","id":"building_140","properties":{"class":"building"},"geometry":{"type":"Polygon","coordinates":[[[98.085,302.897],[97.738,328.627],[141.955,329.313],[142.302,303.583],[98.085,302.897]]]},"junctions":[]},{"type":"Feature","id":"building_141","properties":{"class":"building"},"geometry":{"type":"Polygon","coordinates":[[[-0.015,306.007],[-0.015,332.593],[30.185,332.593],[30.185,306.007],[-0.015,306.007]]]},"junctions":[]},{"type":"Feature","id":"building_142","properties":{"class":"building"},"geometry":{"type":"Polygon","coordinates":[[[10.774,375.226],[11.059,401.383],[42.056,401.074],[41.771,374.917],[10.774,375.226]]]},"junctions":[]},{"type":"Feature","id":"building_143","properties":{"class":"building"},"geometry":{"type":"Polygon","coordinates":[[[11.28,415.868],[11.28,430.56],[5.113,430.56],[5.113,441.663],[35.905,441.663],[35.905,436.111],[39.277,436.111],[39.277,427.851],[35.905,427.851],[35.905,415.597],[11.28,415.868]]]},"junctions":[]},{"type":"Feature","id":"building_144","properties":{"class":"building"},"geometry":{"type":"Polygon","coordinates":[[[19.53,454.507],[20.049,485.296],[39.52,485.013],[39.001,454.224],[19.53,454.507]]]},"junctions":[]},{"type":"Feature","id":"building_145","properties":{"class":"building"},"geometry":{"type":"Polygon","coordinates":[[[8.945,499.939],[9.21,515.421],[14.265,515.333],[14.378,522.431],[37.995,522.051],[37.73,506.482],[37.693,500.172],[31.279,500.289],[18.905,500.494],[8.945,499.939]]]},"junctions":[]},{"type":"Feature","id":"building_146","properties":{"class":"building"},"geometry":{"type":"Polygon","coordinates":[[[2.66,545.3],[3.118,558.054],[13.238,557.86],[13.747,569.645],[41.82,569.063],[40.802,539.795],[16.544,540.299],[16.748,545.029],[2.66,545.3]]]},"junctions":[]},{"type":"Feature","id":"building_147","properties":{"class":"building"},"geometry":{"type":"Polygon","coordinates":[[[5.538,632.412],[6.093,644.556],[29.282,643.908],[28.727,631.764],[5.538,632.412]]]},"junctions":[]},{"type":"Feature","id":"building_148","properties":{"class":"building"},"geometry":{"type":"Polygon","coordinates":[[[7.953,664.584],[8.433,679.035],[17.592,678.782],[17.897,691.354],[33.25,690.92],[33.032,682.25],[41.537,682.033],[41.101,663.536],[7.953,664.584]]]},"junctions":[]},{"type":"Feature","id":"building_149","properties":{"class":"building"},"geometry":{"type":"Polygon","coordinates":[[[27.578,767.114],[16.082,786.184],[39.712,798.966],[51.208,779.896],[27.578,767.114]]]},"junctions":[]},{"type":"Feature","id":"building_015","properties":{"class":"building"},"geometry":{"type":"Polygon","coordinates":[[[419.586,65.985],[419.988,90.262],[447.754,89.813],[447.352,65.568],[419.586,65.985]]]},"junctions":[]},{"type":"Feature","id":"building_150","properties":{"class":"building"},"geometry":{"type":"Polygon","coordinates":[[[-0.009,756.93],[-0.009,777.172],[4.791,779.654],[18.289,761.999],[2.914,752.356],[-0.009,756.93]]]},"junctions":[]},{"type":"Feature","id":"building_151","properties":{"class":"building"},"geometry":{"type":"Polygon","coordinates":[[[6.919,970.606],[16.803,984.731],[28.601,977.104],[18.717,962.979],[6.919,970.606]]]},"junctions":[]},{"type":"Feature","id":"building_152","properties":{"class":"building"},"geometry":{"type":"Polygon","coordinates":[[[-0.017,881.033],[-0.017,930.877],[2.511,928.655],[7.045,934.487],[33.547,914.91],[20.339,898.527],[14.455,903.109],[-0.017,881.033]]]},"junctions":[]},{"type":"Feature","id":"building_153","properties":{"class":"building"},"geometry":{"type":"Polygon","coordinates":[[[36.332,939.03],[22.253,957.616],[62.108,979.23],[76.187,960.644],[36.332,939.03]]]},"junctions":[]},{"type":"Feature","id":"building_154","properties":{"class":"building"},"geometry":{"type":"Polygon","coordinates":[[[87.794,969.986],[72.857,987.747],[83.366,997.954],[98.303,980.193],[87.794,969.986]]]},"junctions":[]},{"type":"Feature","id":"building_155","properties":{"class":"building"},"geometry":{"type":"Polygon","coordinates":[[[125.94,1005.691],[110.443,1024.009],[143.497,1024.009],[125.94,1005.691]]]},"junctions":[]},{"type":"Feature","id":"building_156","properties":{"class":"building"},"geometry":{"type":"Polygon","coordinates":[[[931.164,141.849],[933.094,207.204],[1024.046,205.014],[1024.046,139.746],[931.164,141.849]]]},"junctions":[]},{"type":"Feature","id":"building_157","properties":{"class":"building"},"geometry":{"type":"Polygon","coordinates":[[[717.2,288.907],[718.106,349.001],[816.89,347.233],[815.984,287.139],[717.2,288.907]]]},"junctions":[]},{"type":"Feature","id":"building_158","properties":{"class":"building"},"geometry":{"type":"Polygon","coordinates":[[[996.866,961.514],[997.29,991.845],[1024.014,991.446],[1023.59,961.115],[996.866,961.514]]]},"junctions":[]},{"type":"Feature","id":"building_159","properties":{"class":"building"},"geometry":{"type":"Polygon","coordinates":[[[965.514,967.127],[965.285,993.229],[994.384,993.503],[994.575,967.401],[965.514,967.127]]]},"junctions":[]},{"type":"Feature","id":"building_160","properties":{"class":"building"},"geometry":{"type":"Polygon","coordinates":[[[925.036,970.543],[925.145,995.513],[945.785,995.381],[945.785,987.9],[953.114,987.867],[953.041,982.093],[945.238,982.158],[945.128,970.247],[925.036,970.543]]]},"junctions":[]},{"type":"Feature","id":"building_161","properties":{"class":"building"},"geometry":{"type":"Polygon","coordinates":[[[886.925,966.992],[887.445,992.343],[917.765,991.908],[917.245,966.557],[886.925,966.992]]]},"junctions":[]},{"type":"Feature","id":"building_162","properties":{"class":"building"},"geometry":{"type":"Polygon","coordinates":[[[845.656,951.76],[846.314,991.81],[873.804,991.23],[873.146,951.18],[845.656,951.76]]]},"junctions":[]},{"type":"Feature","id":"building_163","properties":{"class":"building"},"geometry":{"type":"Polygon","coordinates":[[[806.496,952.711],[807.153,993.13],[834.624,992.599],[833.967,952.18],[806.496,952.711]]]},"junctions":[]},{"type":"Feature","id":"building_164","properties":{"class":"building"},"geometry":{"type":"Polygon","coordinates":[[[735.363,967.434],[735.14,978.6],[729.387,978.6],[729.276,1000.126],[745.755,1000.126],[745.792,994.097],[757.854,994.012],[757.632,967.561],[735.363,967.434]]]},"junctions":[]},{"type":"Feature","id":"building_165","properties":{"class":"building"},"geometry":{"type":"Polygon","coordinates":[[[778.037,968.582],[778.935,994.922],[799.639,993.928],[798.741,967.588],[778.037,968.582]]]},"junctions":[]},{"type":"Feature","id":"building_166","properties":{"class":"building"},"geometry":{"type":"Polygon","coordinates":[[[380.059,936.729],[416.505,986.371],[442.701,966.015],[406.255,924.419],[380.059,936.729]]]},"junctions":[]},{"type":"Feature","id":"building_167","properties":{"class":"building"},"geometry":{"type":"Polygon","coordinates":[[[453.966,950.818],[456.088,997.354],[482.134,994.872],[480.012,948.336],[453.966,950.818]]]},"junctions":[]},{"type":"Feature","id":"building_168","properties":{"class":"building"},"geometry":{"type":"Polygon","coordinates":[[[494.18,947.069],[495.272,995.014],[514.7,994.511],[513.608,946.566],[494.18,947.069]]]},"junctions":[]},{"type":"Feature","id":"building_169","properties":{"class":"building"},"geometry":{"type":"Polygon","coordinates":[[[512.451,892.75],[517.388,913.55],[530.639,913.118],[530.639,893.101],[512.451,892.75]]]},"junctions":[]},{"type":"Feature","id":"building_017","properties":{"class":"building"},"geometry":{"type":"Polygon","coordinates":[[[381.495,64.919],[381.495,87.751],[410.805,87.751],[410.805,64.919],[381.495,64.919]]]},"junctions":[]},{"type":"Feature","id":"building_170","properties":{"class":"building"},"geometry":{"type":"Polygon","coordinates":[[[647.699,969.244],[648.387,1000.366],[669.781,999.956],[669.093,968.834],[647.699,969.244]]]},"junctions":[]},{"type":"Feature","id":"building_171","properties":{"class":"building"},"geometry":{"type":"Polygon","coordinates":[[[454.362,831.922],[453.999,843.046],[475.471,842.712],[475.22,831.344],[454.362,831.922]]]},"junctions":[]},{"type":"Feature","id":"building_172","properties":{"class":"building"},"geometry":{"type":"Polygon","coordinates":[[[-0.013,213.096],[-0.013,225.446],[25.873,225.117],[25.705,212.784],[-0.013,213.096]]]},"junctions":[]},{"type":"Feature","id":"building_173","properties":{"class":"building"},"geometry":{"type":"Polygon","coordinates":[[[-0.025,201.01],[-0.025,212.836],[49.075,211.98],[48.756,200.154],[-0.025,201.01]]]},"junctions":[]},{"type":"Feature","id":"building_174","properties":{"class":"building"},"geometry":{"type":"Polygon","coordinates":[[[207.179,199.954],[207.453,212.606],[228.281,212.278],[227.979,199.954],[207.179,199.954]]]},"junctions":[]},{"type":"Feature","id":"building_175","properties":{"class":"building"},"geometry":{"type":"Polygon","coordinates":[[[216.989,90.981],[217.91,115.002],[238.471,114.029],[237.55,90.008],[216.989,90.981]]]},"junctions":[]},{"type":"Feature","id":"building_176","properties":{"class":"building"},"geometry":{"type":"Polygon","coordinates":[[[381.723,174.305],[382.308,203.635],[395.797,203.292],[395.669,200.207],[395.395,174.305],[381.723,174.305]]]},"junctions":[]},{"type":"Feature","id":"building_178","properties":{"class":"building"},"geometry":{"type":"Polygon","coordinates":[[[536.445,145.876],[537.265,179.957],[546.975,179.734],[546.975,145.653],[536.445,145.876]]]},"junctions":[]},{"type":"Feature","id":"building_179","properties":{"class":"building"},"geometry":{"type":"Polygon","coordinates":[[[714.61,110.925],[714.61,121.555],[735.41,121.555],[735.41,110.925],[714.61,110.925]]]},"junctions":[]},{"type":"Feature","id":"building_018","properties":{"class":"building"},"geometry":{"type":"Polygon","coordinates":[[[386.77,-0.005],[386.979,10.295],[395.693,9.947],[395.537,3.5],[406.86,3.031],[406.703,-0.005],[386.77,-0.005]]]},"junctions":[]},{"type":"Feature","id":"building_181","properties":{"class":"building"},"geometry":{"type":"Polygon","coordinates":[[[100.046,477.527],[99.873,502.632],[132.894,502.863],[133.067,477.758],[100.046,477.527]]]},"junctions":[]},{"type":"Feature","id":"building_182","properties":{"class":"building"},"geometry":{"type":"Polygon","coordinates":[[[157.575,473.499],[157.965,487.677],[167.255,487.316],[167.255,473.043],[157.575,473.499]]]},"junctions":[]},{"type":"Feature","id":"building_183","properties":{"class":"building"},"geometry":{"type":"Polygon","coordinates":[[[141.676,338.644],[144.206,373.078],[169.914,370.636],[167.384,336.202],[141.676,338.644]]]},"junctions":[]},{"type":"Feature","id":"building_184","properties":{"class":"building"},"geometry":{"type":"Polygon","coordinates":[[[183.691,764.007],[184.355,771.835],[200.729,770.653],[200.065,762.826],[183.691,764.007]]]},"junctions":[]},{"type":"Feature","id":"building_185","properties":{"class":"building"},"geometry":{"type":"Polygon","coordinates":[[[405.634,476.168],[398.911,483.247],[401.288,485.977],[397.426,490.644],[405.634,500.612],[420.156,500.612],[426.024,495.533],[408.902,477.692],[407.528,479.088],[405.634,476.168]]]},"junctions":[]},{"type":"Feature","id":"building_186","properties":{"class":"building"},"geometry":{"type":"Polygon","coordinates":[[[367.451,477.962],[378.593,491.151],[385.589,483.138],[374.447,469.949],[367.451,477.962]]]},"junctions":[]},{"type":"Feature","id":"building_187","properties":{"class":"building"},"geometry":{"type":"Polygon","coordinates":[[[623.839,634.478],[624.604,653.32],[645.661,652.735],[645.179,633.74],[623.839,634.478]]]},"junctions":[]},{"type":"Feature","id":"building_188","properties":{"class":"building"},"geometry":{"type":"Polygon","coordinates":[[[396.078,715.434],[396.078,727.966],[420.932,727.966],[420.932,715.434],[396.078,715.434]]]},"junctions":[]},{"type":"Feature","id":"building_189","properties":{"class":"building"},"geometry":{"type":"Polygon","coordinates":[[[324.919,726.802],[325.012,734.684],[316.988,734.75],[317.143,743.708],[340.842,743.445],[340.687,726.802],[324.919,726.802]]]},"junctions":[]},{"type":"Feature","id":"building_019","properties":{"class":"building"},"geometry":{"type":"Polygon","coordinates":[[[333.382,70.114],[333.712,115.353],[369.728,115.116],[369.398,69.877],[333.382,70.114]]]},"junctions":[]},{"type":"Feature","id":"building_190","properties":{"class":"building"},"geometry":{"type":"Polygon","coordinates":[[[374.846,737.999],[375.094,757.68],[382.484,757.474],[382.087,737.87],[374.846,737.999]]]},"junctions":[]},{"type":"Feature","id":"building_191","properties":{"class":"building"},"geometry":{"type":"Polygon","coordinates":[[[648.976,847.675],[649.403,869.561],[657.204,869.185],[656.777,847.299],[648.976,847.675]]]},"junctions":[]},{"type":"Feature","id":"building_192","properties":{"class":"building"},"geometry":{"type":"Polygon","coordinates":[[[782.932,981.183],[783.061,995.087],[799.478,994.942],[799.478,981.273],[782.932,981.183]]]},"junctions":[]},{"type":"Feature","id":"building_193","properties":{"class":"building"},"geometry":{"type":"Polygon","coordinates":[[[808.084,940.824],[808.222,952.786],[819.876,952.631],[819.738,940.871],[808.084,940.824]]]},"junctions":[]},{"type":"Feature","id":"building_194","properties":{"class":"building"},"geometry":{"type":"Polygon","coordinates":[[[966.22,958.131],[966.397,981.442],[985.64,981.259],[985.463,957.948],[966.22,958.131]]]},"junctions":[]},{"type":"Feature","id":"building_195","properties":{"class":"building"},"geometry":{"type":"Polygon","coordinates":[[[998.108,983.173],[998.108,996.637],[1021.732,996.637],[1021.732,983.173],[998.108,983.173]]]},"junctions":[]},{"type":"Feature","id":"building_196","properties":{"class":"building"},"geometry":{"type":"Polygon","coordinates":[[[999.323,946.803],[999.671,961.257],[1012.54,961.107],[1012.697,946.878],[999.323,946.803]]]},"junctions":[]},{"type":"Feature","id":"building_197","properties":{"class":"building"},"geometry":{"type":"Polygon","coordinates":[[[981.994,906.631],[982.282,921.217],[993.656,920.829],[993.368,906.243],[981.994,906.631]]]},"junctions":[]},{"type":"Feature","id":"building_198","properties":{"class":"building"},"geometry":{"type":"Polygon","coordinates":[[[887.181,813.475],[887.181,824.165],[904.249,824.165],[904.249,813.475],[887.181,813.475]]]},"junctions":[]},{"type":"Feature","id":"building_199","properties":{"class":"building"},"geometry":{"type":"Polygon","coordinates":[[[844.532,810.619],[844.661,820.755],[861.178,820.171],[861.049,810.035],[844.532,810.619]]]},"junctions":[]},{"type":"Feature","id":"building_002","properties":{"class":"building"},"geometry":{"type":"Polygon","coordinates":[[[919.818,360.208],[920.63,385.321],[939.04,384.079],[940.529,429.817],[970.852,428.003],[969.904,399.262],[1024.052,396.111],[1024.052,356.293],[966.926,360.017],[967.062,358.489],[963.001,358.776],[963.001,359.922],[919.818,360.208]]]},"junctions":[]},{"type":"Feature","id":"building_020","properties":{"class":"building"},"geometry":{"type":"Polygon","coordinates":[[[290.125,68.526],[292.237,95.127],[319.695,92.122],[317.583,61.103],[309.672,61.898],[304.756,68.968],[290.125,68.526]]]},"junctions":[]},{"type":"Feature","id":"building_200","properties":{"class":"building"},"geometry":{"type":"Polygon","coordinates":[[[762.384,855.427],[762.627,867.517],[793.466,866.513],[793.223,854.423],[762.384,855.427]]]},"junctions":[]},{"type":"Feature","id":"building_201","properties":{"class":"building"},"geometry":{"type":"Polygon","coordinates":[[[769.009,815.474],[769.009,826.696],[791.781,826.696],[791.426,815.912],[769.009,815.474]]]},"junctions":[]},{"type":"Feature","id":"building_202","properties":{"class":"building"},"geometry":{"type":"Polygon","coordinates":[[[872.407,676.102],[872.407,713.128],[898.073,713.128],[898.073,676.102],[872.407,676.102]]]},"junctions":[]},{"type":"Feature","id":"building_203","properties":{"class":"building"},"geometry":{"type":"Polygon","coordinates":[[[935.974,698.849],[936.1,707.184],[940.23,707.184],[940.528,726.486],[940.669,735.143],[940.811,739.821],[948.066,739.444],[947.94,725.949],[947.925,722.669],[947.768,710.141],[947.768,706.807],[947.752,703.312],[947.736,698.419],[935.974,698.849]]]},"junctions":[]},{"type":"Feature","id":"building_204","properties":{"class":"building"},"geometry":{"type":"Polygon","coordinates":[[[882.842,565.811],[883.186,582.018],[899.418,581.519],[899.074,565.312],[882.842,565.811]]]},"junctions":[]},{"type":"Feature","id":"building_205","properties":{"class":"building"},"geometry":{"type":"Polygon","coordinates":[[[757.32,486.56],[757.454,497.246],[777.96,497.246],[777.826,485.974],[757.32,486.56]]]},"junctions":[]},{"type":"Feature","id":"building_206","properties":{"class":"building"},"geometry":{"type":"Polygon","coordinates":[[[756.441,458.683],[756.597,473.117],[773.579,473.117],[773.579,458.683],[756.441,458.683]]]},"junctions":[]},{"type":"Feature","id":"building_207","properties":{"class":"building"},"geometry":{"type":"Polygon","coordinates":[[[741.048,395.471],[741.048,412.017],[763.84,412.017],[763.84,395.471],[741.048,395.471]]]},"junctions":[]},{"type":"Feature","id":"building_208","properties":{"class":"building"},"geometry":{"type":"Polygon","coordinates":[[[119.804,579.866],[119.804,608.164],[131.576,608.164],[131.576,579.866],[119.804,579.866]]]},"junctions":[]},{"type":"Feature","id":"building_209","properties":{"class":"building"},"geometry":{"type":"Polygon","coordinates":[[[925.843,951.53],[925.843,970.79],[940.177,970.79],[940.177,951.53],[925.843,951.53]]]},"junctions":[]},{"type":"Feature","id":"building_021","properties":{"class":"building"},"geometry":{"type":"Polygon","coordinates":[[[213.482,67.238],[213.098,91.244],[237.368,91.592],[237.752,67.586],[213.482,67.238]]]},"junctions":[]},{"type":"Feature","id":"building_210","properties":{"class":"building"},"geometry":{"type":"Polygon","coordinates":[[[918.782,297.517],[920.789,361.002],[955.578,359.483],[953.571,295.998],[918.782,297.517]]]},"junctions":[]},{"type":"Feature","id":"building_211","properties":{"class":"building"},"geometry":{"type":"Polygon","coordinates":[[[966.681,319.26],[966.905,356.489],[1024.029,355.948],[1024.029,318.621],[966.681,319.26]]]},"junctions":[]},{"type":"Feature","id":"building_212","properties":{"class":"building"},"geometry":{"type":"Polygon","coordinates":[[[1000.18,833.871],[1000.18,852.499],[1020.37,852.257],[1020.187,833.871],[1000.18,833.871]]]},"junctions":[]},{"type":"Feature","id":"building_213","properties":{"class":"building"},"geometry":{"type":"Polygon","coordinates":[[[961.729,837.708],[961.729,862.222],[984.401,862.222],[984.401,837.708],[961.729,837.708]]]},"junctions":[]},{"type":"Feature","id":"building_214","properties":{"class":"building"},"geometry":{"type":"Polygon","coordinates":[[[994.216,714.526],[994.376,732.509],[1003.044,732.344],[1002.884,714.361],[994.216,714.526]]]},"junctions":[]},{"type":"Feature","id":"building_022","properties":{"class":"building"},"geometry":{"type":"Polygon","coordinates":[[[208.197,-0.005],[208.557,10.615],[226.445,10.202],[226.314,4.836],[233.333,4.533],[233.333,-0.005],[208.197,-0.005]]]},"junctions":[]},{"type":"Feature","id":"building_023","properties":{"class":"building"},"geometry":{"type":"Polygon","coordinates":[[[172.135,71.643],[172.938,96.543],[203.065,95.947],[202.262,71.047],[172.135,71.643]]]},"junctions":[]},{"type":"Feature","id":"building_024","properties":{"class":"building"},"geometry":{"type":"Polygon","coordinates":[[[115.454,74.327],[115.242,88.352],[109.513,88.235],[109.344,101.439],[115.284,101.497],[115.072,119.16],[141.422,119.513],[142.016,74.503],[115.454,74.327]]]},"junctions":[]},{"type":"Feature","id":"building_025","properties":{"class":"building"},"geometry":{"type":"Polygon","coordinates":[[[56.976,79.927],[58.916,115.819],[85.704,114.313],[83.764,78.421],[56.976,79.927]]]},"junctions":[]},{"type":"Feature","id":"building_026","properties":{"class":"building"},"geometry":{"type":"Polygon","coordinates":[[[22.616,75.17],[23.413,126.576],[50.494,125.9],[49.697,74.494],[22.616,75.17]]]},"junctions":[]},{"type":"Feature","id":"building_027","properties":{"class":"building"},"geometry":{"type":"Polygon","coordinates":[[[-0.005,77.872],[-0.005,113.371],[4.266,113.838],[4.266,107.953],[6.324,107.953],[6.324,100.526],[10.995,100.526],[10.995,78.339],[-0.005,77.872]]]},"junctions":[]},{"type":"Feature","id":"building_028","properties":{"class":"building"},"geometry":{"type":"Polygon","coordinates":[[[-0.024,162.291],[-0.024,200.429],[48.844,199.884],[48.337,162.836],[-0.024,162.291]]]},"junctions":[]},{"type":"Feature","id":"building_029","properties":{"class":"building"},"geometry":{"type":"Polygon","coordinates":[[[107.695,200.723],[107.825,226.023],[117.745,225.757],[117.536,200.457],[107.695,200.723]]]},"junctions":[]},{"type":"Feature","id":"building_003","properties":{"class":"building"},"geometry":{"type":"Polygon","coordinates":[[[756.89,474.192],[757.486,486.657],[777.76,484.818],[777.164,472.353],[756.89,474.192]]]},"junctions":[]},{"type":"Feature","id":"building_030","properties":{"class":"building"},"geometry":{"type":"Polygon","coordinates":[[[165.765,202.458],[166.143,227.753],[194.805,227.352],[194.427,202.057],[165.765,202.458]]]},"junctions":[]},{"type":"Feature","id":"building_031","properties":{"class":"building"},"geometry":{"type":"Polygon","coordinates":[[[207.566,211.103],[207.566,225.207],[236.254,225.207],[236.254,211.103],[207.566,211.103]]]},"junctions":[]},{"type":"Feature","id":"building_032","properties":{"class":"building"},"geometry":{"type":"Polygon","coordinates":[[[210.16,127.915],[210.5,145.831],[230.31,145.194],[229.97,124.509],[210.16,127.915]]]},"junctions":[]},{"type":"Feature","id":"building_033","properties":{"class":"building"},"geometry":{"type":"Polygon","coordinates":[[[200.922,153.399],[202.84,167.398],[217.148,166.266],[217.148,151.262],[200.922,153.399]]]},"junctions":[]},{"type":"Feature","id":"building_034","properties":{"class":"building"},"geometry":{"type":"Polygon","coordinates":[[[714.78,121.313],[715.294,133.236],[735.62,132.617],[735.106,120.694],[714.78,121.313]]]},"junctions":[]},{"type":"Feature","id":"building_035","properties":{"class":"building"},"geometry":{"type":"Polygon","coordinates":[[[644.41,122.773],[644.41,137.277],[664.93,137.277],[664.93,122.773],[644.41,122.773]]]},"junctions":[]},{"type":"Feature","id":"building_036","properties":{"class":"building"},"geometry":{"type":"Polygon","coordinates":[[[650.44,141.104],[650.624,152.636],[670.7,152.516],[670.49,141.104],[650.44,141.104]]]},"junctions":[]},{"type":"Feature","id":"building_037","properties":{"class":"building"},"geometry":{"type":"Polygon","coordinates":[[[642.447,191.961],[643.486,217.083],[668.253,216.309],[667.214,191.187],[642.447,191.961]]]},"junctions":[]},{"type":"Feature","id":"building_038","properties":{"class":"building"},"geometry":{"type":"Polygon","coordinates":[[[582.716,181.866],[582.716,210.364],[610.354,210.364],[610.354,181.866],[582.716,181.866]]]},"junctions":[]},{"type":"Feature","id":"building_039","properties":{"class":"building"},"geometry":{"type":"Polygon","coordinates":[[[543.557,191.069],[543.557,212.101],[570.363,212.101],[570.363,191.069],[543.557,191.069]]]},"junctions":[]},{"type":"Feature","id":"building_004","properties":{"class":"building"},"geometry":{"type":"Polygon","coordinates":[[[720.752,415.216],[720.407,442.511],[746.643,442.834],[746.953,415.539],[720.752,415.216]]]},"junctions":[]},{"type":"Feature","id":"building_040","properties":{"class":"building"},"geometry":{"type":"Polygon","coordinates":[[[503.977,188.148],[503.977,212.962],[529.763,212.962],[529.763,188.148],[503.977,188.148]]]},"junctions":[]},{"type":"Feature","id":"building_041","properties":{"class":"building"},"geometry":{"type":"Polygon","coordinates":[[[452.756,180.322],[454.245,222.962],[480.724,221.708],[479.235,179.068],[452.756,180.322]]]},"junctions":[]},{"type":"Feature","id":"building_042","properties":{"class":"building"},"geometry":{"type":"Polygon","coordinates":[[[391.056,172.115],[391.458,209.409],[419.184,209.165],[418.782,171.871],[391.056,172.115]]]},"junctions":[]},{"type":"Feature","id":"building_043","properties":{"class":"building"},"geometry":{"type":"Polygon","coordinates":[[[347.336,182.788],[347.908,217.968],[374.834,217.552],[374.262,182.372],[347.336,182.788]]]},"junctions":[]},{"type":"Feature","id":"building_044","properties":{"class":"building"},"geometry":{"type":"Polygon","coordinates":[[[298.781,192.088],[299.225,218.764],[336.729,218.052],[336.285,191.376],[298.781,192.088]]]},"junctions":[]},{"type":"Feature","id":"building_045","properties":{"class":"building"},"geometry":{"type":"Polygon","coordinates":[[[641.655,475.419],[640.939,497.211],[663.911,496.984],[663.345,475.419],[641.655,475.419]]]},"junctions":[]},{"type":"Feature","id":"building_046","properties":{"class":"building"},"geometry":{"type":"Polygon","coordinates":[[[600.105,473.547],[600.741,501.294],[630.705,501.003],[630.069,473.256],[600.105,473.547]]]},"junctions":[]},{"type":"Feature","id":"building_047","properties":{"class":"building"},"geometry":{"type":"Polygon","coordinates":[[[608.362,306.036],[609.048,323.146],[605.54,323.254],[606.532,361.697],[595.551,361.914],[596.084,388.662],[654.269,387.47],[653.888,361.697],[645.423,361.914],[644.661,323.796],[641.229,323.904],[640.695,305.278],[608.362,306.036]]]},"junctions":[]},{"type":"Feature","id":"building_048","properties":{"class":"building"},"geometry":{"type":"Polygon","coordinates":[[[414.698,303.011],[415.035,366.623],[438.853,366.399],[438.965,389.173],[457.952,388.949],[457.727,362.808],[444.021,362.921],[443.796,302.787],[414.698,303.011]]]},"junctions":[]},{"type":"Feature","id":"building_049","properties":{"class":"building"},"geometry":{"type":"Polygon","coordinates":[[[1002.719,714.651],[1003.3,740.493],[1024.011,739.838],[1024.011,713.927],[1002.719,714.651]]]},"junctions":[]},{"type":"Feature","id":"building_005","properties":{"class":"building"},"geometry":{"type":"Polygon","coordinates":[[[989.703,54.637],[989.703,80.704],[1024.017,80.943],[1024.017,54.876],[989.703,54.637]]]},"junctions":[]},{"type":"Feature","id":"building_050","properties":{"class":"building"},"geometry":{"type":"Polygon","coordinates":[[[918.689,708.802],[918.689,744.968],[941.041,744.968],[941.041,708.802],[918.689,708.802]]]},"junctions":[]},{"type":"Feature","id":"building_051","properties":{"class":"building"},"geometry":{"type":"Polygon","coordinates":[[[879.007,710.129],[879.381,747.059],[905.173,746.671],[904.799,709.741],[879.007,710.129]]]},"junctions":[]},{"type":"Feature","id":"building_052","properties":{"class":"building"},"geometry":{"type":"Polygon","coordinates":[[[841.007,726.693],[841.145,747.422],[854.216,747.183],[854.251,751.338],[867.563,751.004],[867.356,737.44],[861.286,737.583],[861.114,725.547],[866.942,725.404],[866.736,714.562],[850.629,714.896],[850.802,726.407],[841.007,726.693]]]},"junctions":[]},{"type":"Feature","id":"building_053","properties":{"class":"building"},"geometry":{"type":"Polygon","coordinates":[[[799.287,712.395],[800.685,752.31],[824.913,751.625],[823.515,711.71],[799.287,712.395]]]},"junctions":[]},{"type":"Feature","id":"building_054","properties":{"class":"building"},"geometry":{"type":"Polygon","coordinates":[[[764.388,712.855],[764.388,727.342],[769.827,727.342],[769.827,753.625],[789.172,753.625],[789.172,712.855],[783.668,712.855],[783.668,704.265],[769.827,704.265],[769.827,712.855],[764.388,712.855]]]},"junctions":[]},{"type":"Feature","id":"building_055","properties":{"class":"building"},"geometry":{"type":"Polygon","coordinates":[[[742.694,705.564],[738.489,756.138],[756.016,758.046],[760.221,707.472],[742.694,705.564]]]},"junctions":[]},{"type":"Feature","id":"building_056","properties":{"class":"building"},"geometry":{"type":"Polygon","coordinates":[[[738.334,626.302],[737.997,642.211],[763.586,643.268],[763.923,627.359],[738.334,626.302]]]},"junctions":[]},{"type":"Feature","id":"building_057","properties":{"class":"building"},"geometry":{"type":"Polygon","coordinates":[[[746.899,563.586],[747.387,592.115],[766.511,591.879],[766.349,586.173],[809.561,585.701],[808.992,564.884],[793.448,565.16],[793.529,561.815],[768.058,562.169],[768.139,563.35],[746.899,563.586]]]},"junctions":[]},{"type":"Feature","id":"building_058","properties":{"class":"building"},"geometry":{"type":"Polygon","coordinates":[[[850.342,565.498],[850.214,588.712],[883.046,588.712],[883.046,565.498],[850.342,565.498]]]},"junctions":[]},{"type":"Feature","id":"building_059","properties":{"class":"building"},"geometry":{"type":"Polygon","coordinates":[[[913.306,563.479],[913.306,585.851],[942.164,585.851],[942.164,563.479],[913.306,563.479]]]},"junctions":[]},{"type":"Feature","id":"building_006","properties":{"class":"building"},"geometry":{"type":"Polygon","coordinates":[[[940.077,64.886],[941.882,107.692],[966.803,106.901],[965.866,76.971],[955.106,77.197],[954.655,64.208],[940.077,64.886]]]},"junctions":[]},{"type":"Feature","id":"building_060","properties":{"class":"building"},"geometry":{"type":"Polygon","coordinates":[[[952.005,561.035],[949.826,587.803],[976.575,590.355],[978.754,563.587],[952.005,561.035]]]},"junctions":[]},{"type":"Feature","id":"building_061","properties":{"class":"building"},"geometry":{"type":"Polygon","coordinates":[[[642.349,633.895],[644.297,653.322],[664.411,650.084],[663.58,628.638],[642.349,633.895]]]},"junctions":[]},{"type":"Feature","id":"building_062","properties":{"class":"building"},"geometry":{"type":"Polygon","coordinates":[[[642.554,704.266],[644.28,756.816],[654.636,756.404],[652.91,703.854],[642.554,704.266]]]},"junctions":[]},{"type":"Feature","id":"building_063","properties":{"class":"building"},"geometry":{"type":"Polygon","coordinates":[[[609.933,714.739],[611.409,750.584],[634.117,749.381],[632.641,713.536],[609.933,714.739]]]},"junctions":[]},{"type":"Feature","id":"building_064","properties":{"class":"building"},"geometry":{"type":"Polygon","coordinates":[[[569.627,716.067],[570.28,757.711],[596.103,757.493],[595.45,715.849],[569.627,716.067]]]},"junctions":[]},{"type":"Feature","id":"building_065","properties":{"class":"building"},"geometry":{"type":"Polygon","coordinates":[[[532.449,713.116],[534.994,759.063],[554.471,757.964],[552.04,712.017],[532.449,713.116]]]},"junctions":[]},{"type":"Feature","id":"building_066","properties":{"class":"building"},"geometry":{"type":"Polygon","coordinates":[[[484.204,722.207],[484.415,753.446],[505.925,753.323],[505.84,739.557],[516.806,739.476],[516.679,722.084],[484.204,722.207]]]},"junctions":[]},{"type":"Feature","id":"building_067","properties":{"class":"building"},"geometry":{"type":"Polygon","coordinates":[[[435.386,717.523],[435.386,752.057],[462.974,752.057],[462.974,717.523],[435.386,717.523]]]},"junctions":[]},{"type":"Feature","id":"building_068","properties":{"class":"building"},"geometry":{"type":"Polygon","coordinates":[[[395.139,727.615],[394.626,756.729],[422.321,757.505],[422.834,728.391],[395.139,727.615]]]},"junctions":[]},{"type":"Feature","id":"building_069","properties":{"class":"building"},"geometry":{"type":"Polygon","coordinates":[[[351.729,725.793],[351.729,759.277],[374.121,759.277],[374.121,725.793],[351.729,725.793]]]},"junctions":[]},{"type":"Feature","id":"building_007","properties":{"class":"building"},"geometry":{"type":"Polygon","coordinates":[[[911.587,60.364],[911.587,92.986],[937.773,92.986],[937.773,60.364],[911.587,60.364]]]},"junctions":[]},{"type":"Feature","id":"building_070","properties":{"class":"building"},"geometry":{"type":"Polygon","coordinates":[[[315.084,744.39],[315.084,748.823],[310.545,748.823],[310.664,760.349],[341.205,760.349],[341.205,743.281],[315.084,744.39]]]},"junctions":[]},{"type":"Feature","id":"building_071","properties":{"class":"building"},"geometry":{"type":"Polygon","coordinates":[[[305.715,576.248],[307.085,615.67],[335.865,614.402],[334.495,574.98],[305.715,576.248]]]},"junctions":[]},{"type":"Feature","id":"building_072","properties":{"class":"building"},"geometry":{"type":"Polygon","coordinates":[[[349.99,573.873],[350.245,596.822],[369.62,596.397],[369.365,573.448],[349.99,573.873]]]},"junctions":[]},{"type":"Feature","id":"building_073","properties":{"class":"building"},"geometry":{"type":"Polygon","coordinates":[[[345.641,635.568],[345.17,659.877],[364.849,660.262],[365.32,635.953],[345.641,635.568]]]},"junctions":[]},{"type":"Feature","id":"building_074","properties":{"class":"building"},"geometry":{"type":"Polygon","coordinates":[[[398.373,618.221],[398.373,636.539],[411.897,636.539],[411.897,618.221],[398.373,618.221]]]},"junctions":[]},{"type":"Feature","id":"building_075","properties":{"class":"building"},"geometry":{"type":"Polygon","coordinates":[[[414.826,616.97],[414.826,636.51],[423.534,636.51],[423.534,616.97],[414.826,616.97]]]},"junctions":[]},{"type":"Feature","id":"building_076","properties":{"class":"building"},"geometry":{"type":"Polygon","coordinates":[[[380.529,575.499],[381.12,612.549],[402.211,612.11],[401.62,575.011],[380.529,575.499]]]},"junctions":[]},{"type":"Feature","id":"building_077","properties":{"class":"building"},"geometry":{"type":"Polygon","coordinates":[[[415.338,584.096],[415.951,611.258],[440.212,610.605],[439.437,575.322],[437.563,575.369],[437.693,583.723],[415.338,584.096]]]},"junctions":[]},{"type":"Feature","id":"building_078","properties":{"class":"building"},"geometry":{"type":"Polygon","coordinates":[[[446.835,579.001],[447.19,588.574],[452.05,588.507],[452.484,604.89],[449.205,604.957],[449.64,624.306],[474.806,623.699],[474.213,600.44],[472.159,600.507],[472.04,594.238],[477.255,594.103],[476.781,572.394],[454.144,572.933],[454.262,578.866],[446.835,579.001]]]},"junctions":[]},{"type":"Feature","id":"building_079","properties":{"class":"building"},"geometry":{"type":"Polygon","coordinates":[[[489.525,571.593],[490.402,609.349],[518.875,608.497],[517.998,570.741],[489.525,571.593]]]},"junctions":[]},{"type":"Feature","id":"building_008","properties":{"class":"building"},"geometry":{"type":"Polygon","coordinates":[[[828.397,52.084],[829.7,84.867],[873.993,82.736],[872.69,49.953],[828.397,52.084]]]},"junctions":[]},{"type":"Feature","id":"building_080","properties":{"class":"building"},"geometry":{"type":"Polygon","coordinates":[[[527.528,571.824],[527.528,604.526],[550.992,604.526],[550.992,571.824],[527.528,571.824]]]},"junctions":[]},{"type":"Feature","id":"building_081","properties":{"class":"building"},"geometry":{"type":"Polygon","coordinates":[[[470.954,700.05],[471.864,722.221],[483.476,721.87],[482.566,699.699],[470.954,700.05]]]},"junctions":[]},{"type":"Feature","id":"building_082","properties":{"class":"building"},"geometry":{"type":"Polygon","coordinates":[[[998.241,810.567],[998.364,835.803],[1017.179,835.245],[1016.638,810.567],[998.241,810.567]]]},"junctions":[]},{"type":"Feature","id":"building_083","properties":{"class":"building"},"geometry":{"type":"Polygon","coordinates":[[[959.539,811.12],[960.357,838.034],[981.251,837.39],[980.433,810.476],[959.539,811.12]]]},"junctions":[]},{"type":"Feature","id":"building_084","properties":{"class":"building"},"geometry":{"type":"Polygon","coordinates":[[[925.039,813.228],[925.37,823.027],[919.776,823.225],[920.217,851.039],[948.114,850.247],[947.673,823.621],[940.275,823.819],[939.981,812.931],[925.039,813.228]]]},"junctions":[]},{"type":"Feature","id":"building_085","properties":{"class":"building"},"geometry":{"type":"Polygon","coordinates":[[[887.249,824.117],[887.718,840.288],[908.481,839.633],[908.012,823.462],[887.249,824.117]]]},"junctions":[]},{"type":"Feature","id":"building_086","properties":{"class":"building"},"geometry":{"type":"Polygon","coordinates":[[[844.528,820.838],[845.026,858.709],[868.482,858.462],[867.984,820.591],[844.528,820.838]]]},"junctions":[]},{"type":"Feature","id":"building_087","properties":{"class":"building"},"geometry":{"type":"Polygon","coordinates":[[[806.739,813.326],[807.681,861.584],[829.421,861.014],[828.479,812.756],[806.739,813.326]]]},"junctions":[]},{"type":"Feature","id":"building_088","properties":{"class":"building"},"geometry":{"type":"Polygon","coordinates":[[[769.148,826.304],[769.369,858.496],[793.462,858.203],[792.925,826.304],[769.148,826.304]]]},"junctions":[]},{"type":"Feature","id":"building_089","properties":{"class":"building"},"geometry":{"type":"Polygon","coordinates":[[[734.74,822.126],[734.74,850.601],[755.25,850.824],[755.25,822.126],[734.74,822.126]]]},"junctions":[]},{"type":"Feature","id":"building_009","properties":{"class":"building"},"geometry":{"type":"Polygon","coordinates":[[[786.472,51.773],[786.872,68.92],[775.388,69.145],[775.731,85.887],[805.555,85.302],[805.212,69.325],[819.382,69.055],[818.925,51.233],[786.472,51.773]]]},"junctions":[]},{"type":"Feature","id":"building_090","properties":{"class":"building"},"geometry":{"type":"Polygon","coordinates":[[[741.422,900.522],[743.55,906.706],[757.488,901.498],[755.36,895.314],[741.422,900.522]]]},"junctions":[]},{"type":"Feature","id":"building_091","properties":{"class":"building"},"geometry":{"type":"Polygon","coordinates":[[[646.309,815.151],[647.467,843.495],[669.171,842.739],[668.013,814.395],[646.309,815.151]]]},"junctions":[]},{"type":"Feature","id":"building_092","properties":{"class":"building"},"geometry":{"type":"Polygon","coordinates":[[[613.057,818.09],[613.429,870.736],[639.083,870.53],[638.711,817.884],[613.057,818.09]]]},"junctions":[]},{"type":"Feature","id":"building_093","properties":{"class":"building"},"geometry":{"type":"Polygon","coordinates":[[[572.033,819.802],[580.153,864.232],[585.897,863.648],[577.777,819.218],[572.033,819.802]]]},"junctions":[]},{"type":"Feature","id":"building_094","properties":{"class":"building"},"geometry":{"type":"Polygon","coordinates":[[[531.696,815.159],[532.189,853.179],[558.794,852.881],[558.301,814.861],[531.696,815.159]]]},"junctions":[]},{"type":"Feature","id":"building_095","properties":{"class":"building"},"geometry":{"type":"Polygon","coordinates":[[[495.749,829.379],[496.519,863.497],[518.561,862.911],[517.791,828.793],[495.749,829.379]]]},"junctions":[]},{"type":"Feature","id":"building_096","properties":{"class":"building"},"geometry":{"type":"Polygon","coordinates":[[[340.196,831.925],[340.196,849.98],[367.454,849.708],[367.064,828.98],[354.639,829.17],[354.745,832.089],[340.196,831.925]]]},"junctions":[]},{"type":"Feature","id":"building_097","properties":{"class":"building"},"geometry":{"type":"Polygon","coordinates":[[[381.337,830.588],[383.427,871.492],[408.163,869.072],[406.073,828.168],[381.337,830.588]]]},"junctions":[]},{"type":"Feature","id":"building_098","properties":{"class":"building"},"geometry":{"type":"Polygon","coordinates":[[[371.596,871.652],[371.809,887.418],[379.794,887.09],[379.368,871.816],[371.596,871.652]]]},"junctions":[]},{"type":"Feature","id":"building_099","properties":{"class":"building"},"geometry":{"type":"Polygon","coordinates":[[[352.902,870.155],[352.902,880.375],[369.168,880.375],[369.168,870.155],[352.902,870.155]]]},"junctions":[]},{"type":"Feature","id":"road_network","properties":{"class":"road","topologyMode":"stitched-graph"},"geometry":{"type":"MultiLineString","coordinates":[[[687,0],[687,27]],[[959,21],[831,23],[703,28],[687,27]],[[1023,22],[895,25],[767,27],[687,27]],[[687,27],[639,26],[511,31],[383,33],[260,35]],[[687,27],[575,30],[447,32],[319,35],[260,35]],[[687,27],[690,127],[691,258]],[[260,35],[191,37],[64,38]],[[260,35],[127,39],[0,41]],[[260,35],[268,127],[273,259]],[[267,64],[270,192],[273,259]],[[689,64],[690,143]],[[69,128],[71,255]],[[576,142],[690,143]],[[127,143],[0,147]],[[690,143],[767,145]],[[690,143],[690,191],[690,245]],[[831,147],[704,148]],[[959,244],[912,247]],[[690,245],[767,246],[861,247]],[[690,245],[691,258]],[[832,246],[877,245],[912,247]],[[861,247],[895,247],[912,247]],[[861,247],[861,260]],[[912,247],[1023,248]],[[912,247],[912,319]],[[511,251],[384,260]],[[320,255],[447,260]],[[831,257],[704,260]],[[691,258],[575,258],[447,260]],[[691,258],[767,260],[861,260]],[[691,258],[639,261],[511,262],[384,260]],[[691,258],[694,319],[696,447],[697,533]],[[691,258],[696,383],[697,511],[697,533]],[[273,259],[191,257],[65,265]],[[273,259],[384,260]],[[273,259],[255,262],[127,264],[65,265]],[[273,259],[273,265],[274,319]],[[273,259],[278,383]],[[895,259],[861,260]],[[907,259],[910,383]],[[447,260],[320,268]],[[861,260],[860,320]],[[861,260],[863,383],[868,430],[895,428]],[[0,264],[65,265]],[[65,265],[65,319],[68,447],[72,575],[73,703],[76,806],[74,831],[64,895]],[[65,265],[67,383],[72,511],[71,639],[71,767],[75,860],[81,895]],[[274,319],[277,411]],[[274,319],[278,447]],[[860,320],[862,353],[865,447],[860,320]],[[278,383],[277,411]],[[278,383],[280,511]],[[500,383],[499,312],[559,312],[559,383]],[[277,411],[279,436],[280,511]],[[277,411],[278,447]],[[857,426],[879,429],[908,427]],[[278,447],[281,539]],[[280,511],[281,539]],[[280,511],[281,639]],[[1023,526],[895,530],[767,531],[697,533]],[[959,529],[831,530],[697,533]],[[697,533],[639,534],[511,536],[383,537],[281,539]],[[697,533],[575,535],[447,538]],[[697,533],[697,575],[700,703],[702,786]],[[697,533],[698,639],[702,767],[702,786]],[[447,538],[409,539],[320,540],[447,538]],[[281,539],[281,575],[281,703],[291,796]],[[281,539],[281,639]],[[281,639],[286,767],[291,796]],[[1023,776],[895,780],[767,785],[702,786]],[[959,781],[831,782],[702,786]],[[702,786],[575,787],[447,788],[319,793],[291,796]],[[702,786],[639,787],[512,788],[383,790],[291,796]],[[702,786],[700,831],[702,959]],[[702,786],[700,895],[706,1023]],[[291,796],[299,831],[303,847]],[[291,796],[303,847]],[[291,796],[307,861],[322,895]],[[0,829],[81,895]],[[0,842],[64,895]],[[78,844],[81,895]],[[303,847],[314,882]],[[303,847],[324,909]],[[511,851],[384,855]],[[75,886],[162,957]],[[64,895],[127,937]],[[81,895],[127,937]],[[81,895],[162,957]],[[324,909],[334,924],[355,958]],[[324,909],[355,958]],[[335,913],[355,958]],[[127,937],[162,957]],[[162,957],[191,983]],[[162,957],[195,993]],[[355,958],[375,981]],[[355,958],[402,1011],[415,1023]],[[195,993],[255,1020],[280,1023]],[[195,993],[227,1023]],[[384,993],[405,1023]]]},"junctions":[[687,27],[260,35],[690,143],[690,245],[861,247],[912,247],[691,258],[273,259],[384,260],[447,260],[861,260],[65,265],[274,319],[860,320],[278,383],[277,411],[278,447],[280,511],[697,533],[447,538],[281,539],[281,639],[702,786],[291,796],[303,847],[64,895],[81,895],[324,909],[127,937],[162,957],[355,958],[195,993]]}]}