{"type":"FeatureCollection","coordinateSystem":{"type":"image-pixel","origin":"top-left","x":"right","y":"down","georeferenced":false},"features":[{"type":"Feature","id":"road_001","properties":{"class":"road"},"geometry":{"type":"MultiLineString","coordinates":[[[0.0,5.888],[14.08,5.888],[98.048,14.08],[140.032,14.08],[154.112,15.872]],[[137.984,0.0],[140.032,14.08],[142.08,54.016],[142.08,130.048],[132.096,186.112]],[[154.112,0.0],[154.112,15.872],[155.904,46.08],[155.904,108.032],[160.0,135.936],[172.032,160.0]],[[179.968,0.0],[182.016,120.064]],[[155.904,108.032],[177.92,130.048],[207.872,142.08]],[[142.08,130.048],[162.048,167.936]],[[201.984,0.0],[204.032,27.904],[206.08,115.968]],[[226.048,0.0],[228.096,81.92],[221.952,113.92],[207.872,142.08]],[[228.096,81.92],[246.016,120.064]],[[246.016,0.0],[241.92,68.096],[253.952,113.92],[246.016,120.064],[228.096,132.096],[207.872,142.08],[192.0,152.064],[172.032,160.0],[162.048,167.936],[145.92,176.128],[132.096,186.112],[71.936,224.0],[44.032,246.016],[27.904,253.952]],[[241.92,68.096],[253.952,76.032]]]},"junctions":[[132.096,186.112],[140.032,14.08],[142.08,130.048],[154.112,15.872],[155.904,108.032],[162.048,167.936],[172.032,160.0],[207.872,142.08],[228.096,81.92],[241.92,68.096],[246.016,120.064]]}]}