{"type":"FeatureCollection","coordinateSystem":{"type":"image-pixel","origin":"top-left","x":"right","y":"down","georeferenced":false},"features":[{"type":"Feature","id":"road_001","properties":{"class":"road"},"geometry":{"type":"MultiLineString","coordinates":[[[0.0,7.936],[143.872,12.032],[147.968,12.032]],[[143.872,0.0],[143.872,12.032],[147.968,51.968],[147.968,93.952],[150.016,133.888],[150.016,172.032]],[[150.016,133.888],[176.128,130.048],[196.096,128.0],[216.064,123.904],[233.984,113.92],[253.952,103.936]],[[176.128,0.0],[177.92,61.952],[182.016,101.888],[196.096,128.0]],[[176.128,130.048],[192.0,147.968],[209.92,160.0],[253.952,140.032]],[[236.032,0.0],[238.08,54.016],[241.92,93.952],[253.952,103.936]],[[241.92,93.952],[253.952,93.952]],[[216.064,123.904],[226.048,135.936],[238.08,142.08],[253.952,140.032]],[[17.92,253.952],[37.888,241.92],[71.936,218.112],[135.936,176.128],[150.016,172.032],[179.968,155.904],[216.064,133.888],[253.952,110.08]],[[238.08,142.08],[253.952,133.888]]]},"junctions":[[143.872,12.032],[150.016,133.888],[150.016,172.032],[176.128,130.048],[196.096,128.0],[216.064,123.904],[238.08,142.08],[241.92,93.952],[253.952,103.936],[253.952,140.032]]}]}