{"type":"FeatureCollection","coordinateSystem":{"type":"image-pixel","origin":"top-left","x":"right","y":"down","georeferenced":false},"features":[{"type":"Feature","id":"building_111948","properties":{"class":"building"},"geometry":{"type":"Polygon","coordinates":[[[74.239,501.595],[73.509,511.505],[94.503,511.505],[95.121,503.127],[74.239,501.595]]]},"junctions":[]},{"type":"Feature","id":"building_111949","properties":{"class":"building"},"geometry":{"type":"Polygon","coordinates":[[[493.393,490.67],[477.313,511.51],[511.517,511.51],[511.517,505.15],[493.393,490.67]]]},"junctions":[]},{"type":"Feature","id":"building_111950","properties":{"class":"building"},"geometry":{"type":"Polygon","coordinates":[[[227.585,478.383],[226.184,511.517],[296.872,511.517],[298.086,482.643],[227.585,478.383]]]},"junctions":[]},{"type":"Feature","id":"building_111951","properties":{"class":"building"},"geometry":{"type":"Polygon","coordinates":[[[-0.037,469.015],[-0.037,484.973],[3.406,506.354],[33.438,501.617],[34.107,504.733],[45.106,502.552],[44.628,499.871],[73.607,495.321],[67.773,458.356],[-0.037,469.015]]]},"junctions":[]},{"type":"Feature","id":"building_111952","properties":{"class":"building"},"geometry":{"type":"Polygon","coordinates":[[[310.115,454.124],[309.595,484.829],[339.925,485.316],[340.445,454.611],[310.115,454.124]]]},"junctions":[]},{"type":"Feature","id":"building_111953","properties":{"class":"building"},"geometry":{"type":"Polygon","coordinates":[[[421.514,450.119],[402.463,487.524],[410.135,491.432],[400.567,510.175],[403.153,511.531],[447.116,511.531],[451.771,502.04],[453.668,503.156],[457.633,495.899],[455.392,494.623],[466.943,471.095],[429.79,452.911],[429.272,453.948],[421.514,450.119]]]},"junctions":[]},{"type":"Feature","id":"building_111954","properties":{"class":"building"},"geometry":{"type":"Polygon","coordinates":[[[265.502,447.262],[265.246,463.468],[293.188,463.878],[293.444,447.672],[265.502,447.262]]]},"junctions":[]},{"type":"Feature","id":"building_111955","properties":{"class":"building"},"geometry":{"type":"Polygon","coordinates":[[[-0.002,434.918],[-0.002,467.456],[3.842,467.626],[4.972,435.215],[-0.002,434.918]]]},"junctions":[]},{"type":"Feature","id":"building_111956","properties":{"class":"building"},"geometry":{"type":"Polygon","coordinates":[[[441.406,420.159],[441.204,442.645],[472.114,442.941],[472.316,420.454],[441.406,420.159]]]},"junctions":[]},{"type":"Feature","id":"building_111957","properties":{"class":"building"},"geometry":{"type":"Polygon","coordinates":[[[155.722,413.135],[155.111,427.378],[153.959,427.339],[153.301,442.522],[170.153,443.265],[171.399,413.878],[155.722,413.135]]]},"junctions":[]},{"type":"Feature","id":"building_111958","properties":{"class":"building"},"geometry":{"type":"Polygon","coordinates":[[[228.626,392.877],[228.059,418.724],[249.324,419.203],[249.891,393.356],[228.626,392.877]]]},"junctions":[]},{"type":"Feature","id":"building_111959","properties":{"class":"building"},"geometry":{"type":"Polygon","coordinates":[[[-0.033,386.629],[-0.033,427.13],[28.386,428.191],[28.473,432.023],[38.264,431.846],[38.264,428.603],[65.21,429.606],[66.683,389.99],[-0.033,386.629]]]},"junctions":[]},{"type":"Feature","id":"building_111960","properties":{"class":"building"},"geometry":{"type":"Polygon","coordinates":[[[253.414,380.199],[250.935,436.675],[270.9,437.492],[270.9,443.041],[279.122,443.041],[279.122,437.9],[298.696,438.716],[301.175,382.076],[253.414,380.199]]]},"junctions":[]},{"type":"Feature","id":"building_111961","properties":{"class":"building"},"geometry":{"type":"Polygon","coordinates":[[[314.722,371.144],[314.014,402.144],[345.378,402.886],[346.086,372.752],[314.722,371.144]]]},"junctions":[]},{"type":"Feature","id":"building_111962","properties":{"class":"building"},"geometry":{"type":"Polygon","coordinates":[[[77.917,363.393],[76.264,395.139],[107.253,396.787],[108.906,365.475],[77.917,363.393]]]},"junctions":[]},{"type":"Feature","id":"building_111963","properties":{"class":"building"},"geometry":{"type":"Polygon","coordinates":[[[419.17,369.306],[418.047,410.584],[446.731,411.286],[446.645,414.936],[456.839,415.217],[456.926,411.567],[483.45,412.269],[484.573,371.061],[482.5,370.991],[482.672,361.795],[459.518,361.163],[459.345,370.851],[419.17,369.306]]]},"junctions":[]},{"type":"Feature","id":"building_111964","properties":{"class":"building"},"geometry":{"type":"Polygon","coordinates":[[[62.908,343.953],[62.41,356.862],[82.082,357.607],[82.58,344.698],[62.908,343.953]]]},"junctions":[]},{"type":"Feature","id":"building_111965","properties":{"class":"building"},"geometry":{"type":"Polygon","coordinates":[[[387.901,341.827],[387.619,356.089],[386.77,356.029],[384.169,385.919],[403.34,387.583],[405.941,357.693],[404.499,357.515],[404.98,341.946],[387.901,341.827]]]},"junctions":[]},{"type":"Feature","id":"building_111966","properties":{"class":"building"},"geometry":{"type":"Polygon","coordinates":[[[426.009,310.914],[426.009,343.316],[467.961,343.316],[467.961,310.914],[426.009,310.914]]]},"junctions":[]},{"type":"Feature","id":"building_111967","properties":{"class":"building"},"geometry":{"type":"Polygon","coordinates":[[[6.453,303.778],[8.786,344.053],[81.307,337.922],[77.905,297.767],[6.453,303.778]]]},"junctions":[]},{"type":"Feature","id":"building_111968","properties":{"class":"building"},"geometry":{"type":"Polygon","coordinates":[[[242.93,295.794],[241.98,326.878],[261.93,327.496],[262.88,296.412],[242.93,295.794]]]},"junctions":[]},{"type":"Feature","id":"building_111969","properties":{"class":"building"},"geometry":{"type":"Polygon","coordinates":[[[263.761,294.869],[263.084,317.0],[273.489,317.321],[274.166,295.19],[263.761,294.869]]]},"junctions":[]},{"type":"Feature","id":"building_111970","properties":{"class":"building"},"geometry":{"type":"Polygon","coordinates":[[[121.902,285.303],[120.529,316.962],[161.503,318.697],[162.821,287.689],[121.902,285.303]]]},"junctions":[]},{"type":"Feature","id":"building_111971","properties":{"class":"building"},"geometry":{"type":"Polygon","coordinates":[[[276.007,299.197],[274.085,341.63],[336.593,344.39],[338.423,302.983],[344.281,303.062],[344.555,284.212],[305.842,283.66],[305.751,292.414],[297.605,292.257],[297.514,300.144],[276.007,299.197]]]},"junctions":[]},{"type":"Feature","id":"building_111972","properties":{"class":"building"},"geometry":{"type":"Polygon","coordinates":[[[191.264,283.087],[188.407,346.335],[231.624,348.283],[234.243,285.035],[191.264,283.087]]]},"junctions":[]},{"type":"Feature","id":"building_111973","properties":{"class":"building"},"geometry":{"type":"Polygon","coordinates":[[[347.369,276.324],[346.824,307.441],[378.581,307.976],[379.126,276.859],[347.369,276.324]]]},"junctions":[]},{"type":"Feature","id":"building_111974","properties":{"class":"building"},"geometry":{"type":"Polygon","coordinates":[[[499.23,259.518],[498.173,322.984],[511.507,323.232],[511.507,259.766],[499.23,259.518]]]},"junctions":[]},{"type":"Feature","id":"building_111975","properties":{"class":"building"},"geometry":{"type":"Polygon","coordinates":[[[413.521,228.013],[411.785,261.333],[423.873,261.997],[423.037,300.252],[459.687,301.107],[461.295,229.058],[413.521,228.013]]]},"junctions":[]},{"type":"Feature","id":"building_111976","properties":{"class":"building"},"geometry":{"type":"Polygon","coordinates":[[[362.153,221.364],[361.708,252.697],[385.757,253.026],[386.202,221.693],[362.153,221.364]]]},"junctions":[]},{"type":"Feature","id":"building_111977","properties":{"class":"building"},"geometry":{"type":"Polygon","coordinates":[[[19.842,228.042],[18.329,268.426],[78.337,270.718],[79.611,217.086],[51.358,215.582],[50.8,229.187],[19.842,228.042]]]},"junctions":[]},{"type":"Feature","id":"building_111978","properties":{"class":"building"},"geometry":{"type":"Polygon","coordinates":[[[119.83,204.454],[118.474,234.794],[149.76,236.196],[151.116,205.856],[119.83,204.454]]]},"junctions":[]},{"type":"Feature","id":"building_111979","properties":{"class":"building"},"geometry":{"type":"Polygon","coordinates":[[[475.824,190.647],[474.473,235.295],[506.686,236.303],[508.037,191.655],[475.824,190.647]]]},"junctions":[]},{"type":"Feature","id":"building_111980","properties":{"class":"building"},"geometry":{"type":"Polygon","coordinates":[[[236.971,168.382],[216.1,231.191],[254.827,244.068],[275.62,181.455],[236.971,168.382]]]},"junctions":[]},{"type":"Feature","id":"building_111981","properties":{"class":"building"},"geometry":{"type":"Polygon","coordinates":[[[330.484,156.108],[315.202,182.812],[323.652,187.588],[303.875,219.067],[336.777,239.692],[352.149,213.531],[354.307,214.725],[359.431,206.258],[357.183,204.956],[373.095,177.927],[341.721,158.822],[340.013,161.536],[330.484,156.108]]]},"junctions":[]},{"type":"Feature","id":"building_111982","properties":{"class":"building"},"geometry":{"type":"Polygon","coordinates":[[[15.895,149.08],[13.639,186.156],[86.048,189.445],[86.155,187.51],[95.287,187.962],[96.361,166.619],[87.122,166.168],[88.196,141.085],[60.479,139.795],[59.942,151.208],[15.895,149.08]]]},"junctions":[]},{"type":"Feature","id":"building_111983","properties":{"class":"building"},"geometry":{"type":"Polygon","coordinates":[[[250.793,130.345],[250.584,160.657],[282.649,160.855],[282.816,130.543],[250.793,130.345]]]},"junctions":[]},{"type":"Feature","id":"building_111984","properties":{"class":"building"},"geometry":{"type":"Polygon","coordinates":[[[110.902,123.844],[109.484,154.479],[154.861,156.606],[155.05,152.309],[181.331,153.543],[182.276,127.162],[110.902,123.844]]]},"junctions":[]},{"type":"Feature","id":"building_111985","properties":{"class":"building"},"geometry":{"type":"Polygon","coordinates":[[[414.513,139.883],[433.684,176.883],[489.447,149.368],[470.081,111.087],[414.513,139.883]]]},"junctions":[]},{"type":"Feature","id":"building_111986","properties":{"class":"building"},"geometry":{"type":"Polygon","coordinates":[[[462.854,86.891],[462.854,105.449],[495.236,105.449],[495.236,86.891],[462.854,86.891]]]},"junctions":[]},{"type":"Feature","id":"building_111987","properties":{"class":"building"},"geometry":{"type":"Polygon","coordinates":[[[109.105,65.643],[108.084,96.234],[138.424,97.201],[138.331,98.476],[179.155,99.487],[179.526,90.433],[163.196,89.817],[163.66,74.522],[142.228,73.818],[142.506,66.654],[109.105,65.643]]]},"junctions":[]},{"type":"Feature","id":"building_111988","properties":{"class":"building"},"geometry":{"type":"Polygon","coordinates":[[[254.542,56.409],[259.932,97.346],[331.408,87.941],[325.818,45.244],[301.061,48.492],[301.36,50.793],[254.542,56.409]]]},"junctions":[]},{"type":"Feature","id":"building_111989","properties":{"class":"building"},"geometry":{"type":"Polygon","coordinates":[[[459.438,54.242],[476.6,82.502],[503.782,65.988],[486.62,37.728],[459.438,54.242]]]},"junctions":[]},{"type":"Feature","id":"building_111990","properties":{"class":"building"},"geometry":{"type":"Polygon","coordinates":[[[219.429,31.182],[218.625,65.77],[248.791,66.458],[249.595,32.648],[219.429,31.182]]]},"junctions":[]},{"type":"Feature","id":"building_111991","properties":{"class":"building"},"geometry":{"type":"Polygon","coordinates":[[[378.392,-0.014],[371.589,18.05],[391.226,25.427],[412.135,27.694],[414.181,8.586],[395.485,6.283],[378.503,-0.014],[378.392,-0.014]]]},"junctions":[]},{"type":"Feature","id":"building_111992","properties":{"class":"building"},"geometry":{"type":"Polygon","coordinates":[[[14.797,5.493],[12.736,56.706],[47.688,58.047],[48.674,31.928],[62.117,32.481],[61.221,60.02],[81.207,60.73],[81.744,9.044],[78.697,8.886],[78.697,-0.03],[59.966,-0.03],[59.966,7.861],[14.797,5.493]]]},"junctions":[]},{"type":"Feature","id":"building_111993","properties":{"class":"building"},"geometry":{"type":"Polygon","coordinates":[[[91.89,-0.028],[91.27,19.541],[109.662,20.05],[109.145,55.115],[170.003,55.988],[170.83,2.955],[140.143,2.518],[140.039,15.686],[114.208,14.885],[114.621,-0.028],[91.89,-0.028]]]},"junctions":[]},{"type":"Feature","id":"building_111994","properties":{"class":"building"},"geometry":{"type":"Polygon","coordinates":[[[227.364,-0.008],[226.764,14.728],[259.149,16.018],[259.792,-0.008],[227.364,-0.008]]]},"junctions":[]},{"type":"Feature","id":"building_111995","properties":{"class":"building"},"geometry":{"type":"Polygon","coordinates":[[[486.213,-0.02],[485.947,4.683],[505.005,5.687],[503.312,40.248],[511.513,40.67],[511.513,-0.02],[486.213,-0.02]]]},"junctions":[]},{"type":"Feature","id":"building_111996","properties":{"class":"building"},"geometry":{"type":"Polygon","coordinates":[[[269.706,-0.009],[268.84,16.109],[328.831,18.109],[329.461,-0.009],[269.706,-0.009]]]},"junctions":[]}]}