{"type":"FeatureCollection","coordinateSystem":{"type":"image-pixel","origin":"top-left","x":"right","y":"down","georeferenced":false},"features":[{"type":"Feature","id":"building_111948","properties":{"class":"building"},"geometry":{"type":"Polygon","coordinates":[[[73.509,501.595],[73.509,511.505],[95.121,511.505],[95.121,501.595],[73.509,501.595]]]},"junctions":[]},{"type":"Feature","id":"building_111949","properties":{"class":"building"},"geometry":{"type":"Polygon","coordinates":[[[493.26,490.67],[477.313,511.51],[511.517,511.51],[511.517,505.827],[493.26,490.67]]]},"junctions":[]},{"type":"Feature","id":"building_111950","properties":{"class":"building"},"geometry":{"type":"Polygon","coordinates":[[[227.772,478.383],[226.184,511.517],[296.592,511.517],[298.086,481.439],[227.772,478.383]]]},"junctions":[]},{"type":"Feature","id":"building_111951","properties":{"class":"building"},"geometry":{"type":"Polygon","coordinates":[[[-0.037,469.639],[-0.037,486.531],[3.502,506.354],[33.533,501.991],[34.011,504.858],[45.871,503.113],[45.393,500.245],[73.607,496.069],[67.964,458.356],[-0.037,469.639]]]},"junctions":[]},{"type":"Feature","id":"building_111952","properties":{"class":"building"},"geometry":{"type":"Polygon","coordinates":[[[310.636,454.124],[309.595,484.424],[339.404,485.316],[340.445,455.016],[310.636,454.124]]]},"junctions":[]},{"type":"Feature","id":"building_111953","properties":{"class":"building"},"geometry":{"type":"Polygon","coordinates":[[[421.773,450.119],[402.894,488.242],[410.911,492.23],[400.567,511.531],[446.685,511.531],[452.116,500.764],[455.133,502.279],[458.581,495.5],[455.478,493.905],[466.943,471.015],[421.773,450.119]]]},"junctions":[]},{"type":"Feature","id":"building_111954","properties":{"class":"building"},"geometry":{"type":"Polygon","coordinates":[[[265.722,447.262],[265.246,463.123],[292.968,463.878],[293.444,448.017],[265.722,447.262]]]},"junctions":[]},{"type":"Feature","id":"building_111955","properties":{"class":"building"},"geometry":{"type":"Polygon","coordinates":[[[-0.002,434.918],[-0.002,467.584],[4.972,467.626],[4.721,434.96],[-0.002,434.918]]]},"junctions":[]},{"type":"Feature","id":"building_111956","properties":{"class":"building"},"geometry":{"type":"Polygon","coordinates":[[[441.568,420.159],[441.204,442.409],[471.952,442.941],[472.316,420.691],[441.568,420.159]]]},"junctions":[]},{"type":"Feature","id":"building_111957","properties":{"class":"building"},"geometry":{"type":"Polygon","coordinates":[[[155.769,413.135],[155.44,427.378],[153.701,427.378],[153.301,442.835],[168.837,443.265],[168.931,439.665],[170.435,439.704],[171.399,413.565],[155.769,413.135]]]},"junctions":[]},{"type":"Feature","id":"building_111958","properties":{"class":"building"},"geometry":{"type":"Polygon","coordinates":[[[229.363,392.877],[228.059,418.451],[248.587,419.203],[249.891,393.629],[229.363,392.877]]]},"junctions":[]},{"type":"Feature","id":"building_111959","properties":{"class":"building"},"geometry":{"type":"Polygon","coordinates":[[[-0.033,386.629],[-0.033,428.544],[27.606,429.488],[27.52,431.551],[37.831,432.023],[37.917,430.136],[65.644,431.138],[66.683,389.282],[-0.033,386.629]]]},"junctions":[]},{"type":"Feature","id":"building_111960","properties":{"class":"building"},"geometry":{"type":"Polygon","coordinates":[[[253.219,380.199],[250.935,437.655],[271.488,438.389],[271.292,442.47],[279.905,443.041],[280.1,438.389],[298.826,439.287],[301.175,382.973],[253.219,380.199]]]},"junctions":[]},{"type":"Feature","id":"building_111961","properties":{"class":"building"},"geometry":{"type":"Polygon","coordinates":[[[315.014,371.144],[314.014,401.732],[345.086,402.886],[346.086,372.298],[315.014,371.144]]]},"junctions":[]},{"type":"Feature","id":"building_111962","properties":{"class":"building"},"geometry":{"type":"Polygon","coordinates":[[[77.578,363.393],[76.264,395.312],[107.592,396.787],[108.906,364.868],[77.578,363.393]]]},"junctions":[]},{"type":"Feature","id":"building_111963","properties":{"class":"building"},"geometry":{"type":"Polygon","coordinates":[[[419.084,369.025],[418.047,410.303],[446.99,410.865],[446.904,414.796],[457.099,415.006],[457.185,411.145],[483.536,411.707],[484.573,371.553],[482.5,371.553],[482.759,361.514],[459.172,361.163],[458.913,370.078],[419.084,369.025]]]},"junctions":[]},{"type":"Feature","id":"building_111964","properties":{"class":"building"},"geometry":{"type":"Polygon","coordinates":[[[62.41,343.953],[62.41,357.607],[82.58,357.607],[82.58,343.953],[62.41,343.953]]]},"junctions":[]},{"type":"Feature","id":"building_111965","properties":{"class":"building"},"geometry":{"type":"Polygon","coordinates":[[[387.76,341.827],[384.169,385.86],[402.35,387.583],[405.941,343.55],[387.76,341.827]]]},"junctions":[]},{"type":"Feature","id":"building_111966","properties":{"class":"building"},"geometry":{"type":"Polygon","coordinates":[[[426.663,310.914],[426.009,342.559],[467.307,343.316],[467.961,311.671],[426.663,310.914]]]},"junctions":[]},{"type":"Feature","id":"building_111967","properties":{"class":"building"},"geometry":{"type":"Polygon","coordinates":[[[6.453,304.379],[8.98,344.053],[81.307,339.304],[78.78,297.767],[51.657,299.57],[51.852,302.155],[6.453,304.379]]]},"junctions":[]},{"type":"Feature","id":"building_111968","properties":{"class":"building"},"geometry":{"type":"Polygon","coordinates":[[[242.685,295.794],[241.98,326.755],[262.175,327.496],[262.88,296.535],[242.685,295.794]]]},"junctions":[]},{"type":"Feature","id":"building_111969","properties":{"class":"building"},"geometry":{"type":"Polygon","coordinates":[[[263.934,294.869],[263.084,316.855],[273.316,317.321],[274.166,295.335],[263.934,294.869]]]},"junctions":[]},{"type":"Feature","id":"building_111970","properties":{"class":"building"},"geometry":{"type":"Polygon","coordinates":[[[121.902,285.303],[120.529,316.832],[161.448,318.697],[162.821,287.168],[121.902,285.303]]]},"junctions":[]},{"type":"Feature","id":"building_111971","properties":{"class":"building"},"geometry":{"type":"Polygon","coordinates":[[[276.19,299.434],[274.085,341.393],[336.776,344.39],[338.423,309.687],[344.098,309.924],[344.555,301.642],[343.915,284.291],[304.652,283.66],[304.195,300.538],[276.19,299.434]]]},"junctions":[]},{"type":"Feature","id":"building_111972","properties":{"class":"building"},"geometry":{"type":"Polygon","coordinates":[[[190.61,283.087],[188.407,346.166],[232.04,348.283],[234.243,285.204],[190.61,283.087]]]},"junctions":[]},{"type":"Feature","id":"building_111973","properties":{"class":"building"},"geometry":{"type":"Polygon","coordinates":[[[347.789,276.324],[346.824,306.825],[378.161,307.976],[379.126,277.475],[347.789,276.324]]]},"junctions":[]},{"type":"Feature","id":"building_111974","properties":{"class":"building"},"geometry":{"type":"Polygon","coordinates":[[[500.095,259.518],[498.173,322.735],[511.507,323.232],[511.507,259.932],[500.095,259.518]]]},"junctions":[]},{"type":"Feature","id":"building_111975","properties":{"class":"building"},"geometry":{"type":"Polygon","coordinates":[[[413.393,228.013],[411.785,260.858],[423.423,261.427],[421.751,299.683],[458.466,301.107],[461.295,230.102],[413.393,228.013]]]},"junctions":[]},{"type":"Feature","id":"building_111976","properties":{"class":"building"},"geometry":{"type":"Polygon","coordinates":[[[362.344,221.364],[361.708,252.491],[385.566,253.026],[386.202,221.899],[362.344,221.364]]]},"junctions":[]},{"type":"Feature","id":"building_111977","properties":{"class":"building"},"geometry":{"type":"Polygon","coordinates":[[[20.001,227.326],[18.329,267.925],[77.462,270.718],[79.611,217.229],[50.084,215.582],[49.448,228.972],[20.001,227.326]]]},"junctions":[]},{"type":"Feature","id":"building_111978","properties":{"class":"building"},"geometry":{"type":"Polygon","coordinates":[[[119.618,204.454],[118.474,234.671],[149.972,236.196],[151.116,205.979],[119.618,204.454]]]},"junctions":[]},{"type":"Feature","id":"building_111979","properties":{"class":"building"},"geometry":{"type":"Polygon","coordinates":[[[475.824,190.647],[474.473,235.176],[506.686,236.303],[508.037,191.774],[475.824,190.647]]]},"junctions":[]},{"type":"Feature","id":"building_111980","properties":{"class":"building"},"geometry":{"type":"Polygon","coordinates":[[[236.12,168.382],[216.1,232.076],[255.6,244.068],[275.62,180.374],[236.12,168.382]]]},"junctions":[]},{"type":"Feature","id":"building_111981","properties":{"class":"building"},"geometry":{"type":"Polygon","coordinates":[[[329.046,156.108],[314.393,182.377],[322.933,187.479],[303.875,220.261],[336.148,239.692],[373.095,178.144],[342.171,159.256],[340.642,161.644],[329.046,156.108]]]},"junctions":[]},{"type":"Feature","id":"building_111982","properties":{"class":"building"},"geometry":{"type":"Polygon","coordinates":[[[15.572,148.887],[13.639,184.222],[85.618,189.445],[85.726,186.737],[94.965,187.446],[96.361,165.652],[87.015,164.942],[88.304,141.665],[59.942,139.795],[59.405,151.208],[15.572,148.887]]]},"junctions":[]},{"type":"Feature","id":"building_111983","properties":{"class":"building"},"geometry":{"type":"Polygon","coordinates":[[[251.337,130.345],[250.584,159.944],[282.063,160.855],[282.816,131.256],[251.337,130.345]]]},"junctions":[]},{"type":"Feature","id":"building_111984","properties":{"class":"building"},"geometry":{"type":"Polygon","coordinates":[[[110.713,123.844],[109.484,154.096],[155.334,156.606],[155.617,151.16],[181.331,152.607],[182.276,127.716],[110.713,123.844]]]},"junctions":[]},{"type":"Feature","id":"building_111985","properties":{"class":"building"},"geometry":{"type":"Polygon","coordinates":[[[414.513,139.285],[433.879,176.883],[489.447,148.685],[470.081,111.087],[414.513,139.285]]]},"junctions":[]},{"type":"Feature","id":"building_111986","properties":{"class":"building"},"geometry":{"type":"Polygon","coordinates":[[[462.854,86.891],[462.854,105.449],[495.236,105.449],[495.236,86.891],[462.854,86.891]]]},"junctions":[]},{"type":"Feature","id":"building_111987","properties":{"class":"building"},"geometry":{"type":"Polygon","coordinates":[[[108.548,65.643],[108.084,98.036],[162.825,99.487],[162.918,98.3],[179.247,98.828],[179.526,90.608],[162.918,90.081],[163.567,67.181],[148.166,66.654],[147.98,73.643],[142.321,73.467],[142.506,66.654],[108.548,65.643]]]},"junctions":[]},{"type":"Feature","id":"building_111988","properties":{"class":"building"},"geometry":{"type":"Polygon","coordinates":[[[254.542,55.935],[260.132,97.346],[331.408,88.888],[326.217,45.244],[301.56,48.154],[302.059,51.537],[254.542,55.935]]]},"junctions":[]},{"type":"Feature","id":"building_111989","properties":{"class":"building"},"geometry":{"type":"Polygon","coordinates":[[[459.438,55.172],[476.888,82.502],[503.782,65.058],[486.332,37.728],[459.438,55.172]]]},"junctions":[]},{"type":"Feature","id":"building_111990","properties":{"class":"building"},"geometry":{"type":"Polygon","coordinates":[[[219.791,31.182],[218.625,65.496],[248.429,66.458],[249.595,32.144],[219.791,31.182]]]},"junctions":[]},{"type":"Feature","id":"building_111991","properties":{"class":"building"},"geometry":{"type":"Polygon","coordinates":[[[378.724,-0.014],[371.589,18.23],[407.156,27.694],[414.181,8.694],[391.502,2.649],[392.111,0.85],[387.077,-0.014],[378.724,-0.014]]]},"junctions":[]},{"type":"Feature","id":"building_111992","properties":{"class":"building"},"geometry":{"type":"Polygon","coordinates":[[[14.707,5.73],[12.736,57.89],[47.509,59.31],[48.315,32.559],[61.4,33.112],[60.773,59.783],[80.311,60.73],[81.744,8.965],[77.801,8.808],[78.07,-0.03],[61.221,-0.03],[61.4,7.229],[14.707,5.73]]]},"junctions":[]},{"type":"Feature","id":"building_111993","properties":{"class":"building"},"geometry":{"type":"Polygon","coordinates":[[[91.994,-0.028],[91.27,17.723],[110.179,18.596],[108.835,53.442],[168.867,55.988],[170.83,2.3],[140.762,1.063],[140.349,15.031],[111.832,13.867],[112.142,0.554],[91.994,-0.028]]]},"junctions":[]},{"type":"Feature","id":"building_111994","properties":{"class":"building"},"geometry":{"type":"Polygon","coordinates":[[[227.107,-0.008],[226.764,15.477],[259.449,16.018],[259.792,-0.008],[227.107,-0.008]]]},"junctions":[]},{"type":"Feature","id":"building_111995","properties":{"class":"building"},"geometry":{"type":"Polygon","coordinates":[[[486.213,-0.02],[485.947,5.264],[504.872,6.004],[503.478,40.406],[511.513,40.67],[511.513,-0.02],[486.213,-0.02]]]},"junctions":[]},{"type":"Feature","id":"building_111996","properties":{"class":"building"},"geometry":{"type":"Polygon","coordinates":[[[269.155,-0.009],[268.84,17.591],[328.831,18.109],[329.461,-0.009],[269.155,-0.009]]]},"junctions":[]}]}