{"type":"FeatureCollection","coordinateSystem":{"type":"image-pixel","origin":"top-left","x":"right","y":"down","georeferenced":false},"features":[{"type":"Feature","id":"road_001","properties":{"class":"road"},"geometry":{"type":"MultiLineString","coordinates":[[[0.0,56.064],[36.096,56.064],[76.032,56.064],[105.984,54.016],[165.888,54.016],[176.128,54.016],[253.952,54.016]],[[36.096,56.064],[37.888,164.096]],[[76.032,56.064],[76.032,164.096]],[[164.096,0.0],[165.888,54.016]],[[0.0,164.096],[12.032,164.096],[37.888,164.096],[76.032,164.096],[83.968,164.096],[174.08,164.096]],[[12.032,164.096],[12.032,248.064]],[[176.128,54.016],[176.128,96.0],[174.08,135.936],[174.08,164.096],[174.08,206.08],[172.032,253.952]],[[83.968,164.096],[83.968,250.112]],[[174.08,135.936],[238.08,135.936]],[[211.968,157.952],[211.968,199.936],[211.968,207.872],[211.968,248.064]],[[174.08,206.08],[192.0,207.872],[211.968,207.872],[253.952,207.872]],[[211.968,199.936],[253.952,201.984]]]},"junctions":[[12.032,164.096],[36.096,56.064],[37.888,164.096],[76.032,56.064],[76.032,164.096],[83.968,164.096],[165.888,54.016],[174.08,135.936],[174.08,164.096],[174.08,206.08],[176.128,54.016],[211.968,199.936],[211.968,207.872]]}]}