{"type":"FeatureCollection","coordinateSystem":{"type":"image-pixel","origin":"top-left","x":"right","y":"down","georeferenced":false},"features":[{"type":"Feature","id":"road_001","properties":{"class":"road"},"geometry":{"type":"MultiLineString","coordinates":[[[0.0,51.968],[27.904,54.016],[174.08,54.016],[253.952,54.016]],[[27.904,54.016],[27.904,90.112],[27.904,125.952],[27.904,165.888]],[[27.904,90.112],[76.032,90.112],[81.92,90.112]],[[76.032,54.016],[76.032,90.112],[76.032,125.952],[76.032,165.888]],[[27.904,125.952],[76.032,125.952]],[[81.92,90.112],[81.92,125.952],[81.92,165.888]],[[174.08,0.0],[174.08,54.016],[174.08,165.888],[174.08,194.048],[174.08,206.08],[174.08,253.952]],[[0.0,165.888],[27.904,165.888],[76.032,165.888],[81.92,165.888],[120.064,164.096],[174.08,165.888]],[[174.08,194.048],[184.064,194.048],[204.032,194.048]],[[204.032,194.048],[204.032,206.08]],[[204.032,206.08],[253.952,206.08]],[[204.032,206.08],[204.032,253.952]]]},"junctions":[[27.904,54.016],[27.904,90.112],[27.904,125.952],[27.904,165.888],[76.032,54.016],[76.032,90.112],[76.032,125.952],[76.032,165.888],[81.92,90.112],[81.92,165.888],[174.08,54.016],[174.08,165.888],[174.08,194.048],[204.032,194.048],[204.032,206.08]]}]}