{"type":"FeatureCollection","coordinateSystem":{"type":"image-pixel","origin":"top-left","x":"right","y":"down","georeferenced":false},"features":[{"type":"Feature","id":"building_140810","properties":{"class":"building"},"geometry":{"type":"Polygon","coordinates":[[[168.859,505.962],[170.041,511.511],[251.631,511.511],[247.439,490.359],[168.859,505.962]]]},"junctions":[]},{"type":"Feature","id":"building_140811","properties":{"class":"building"},"geometry":{"type":"Polygon","coordinates":[[[85.257,494.43],[88.477,511.512],[131.173,511.512],[126.462,486.648],[85.257,494.43]]]},"junctions":[]},{"type":"Feature","id":"building_140812","properties":{"class":"building"},"geometry":{"type":"Polygon","coordinates":[[[415.385,488.688],[417.439,499.495],[393.814,504.051],[395.308,511.52],[465.716,511.52],[457.872,470.73],[435.088,475.127],[436.955,484.503],[415.385,488.688]]]},"junctions":[]},{"type":"Feature","id":"building_140813","properties":{"class":"building"},"geometry":{"type":"Polygon","coordinates":[[[18.22,460.059],[24.877,492.089],[57.35,485.341],[50.693,453.311],[18.22,460.059]]]},"junctions":[]},{"type":"Feature","id":"building_140814","properties":{"class":"building"},"geometry":{"type":"Polygon","coordinates":[[[502.275,452.971],[506.533,476.683],[512.005,475.691],[512.005,451.218],[502.275,452.971]]]},"junctions":[]},{"type":"Feature","id":"building_140815","properties":{"class":"building"},"geometry":{"type":"Polygon","coordinates":[[[408.494,449.076],[411.726,466.993],[461.446,457.999],[458.145,440.047],[408.494,449.076]]]},"junctions":[]},{"type":"Feature","id":"building_140816","properties":{"class":"building"},"geometry":{"type":"Polygon","coordinates":[[[462.471,436.676],[467.779,466.911],[486.94,463.545],[488.71,473.531],[501.399,471.269],[494.321,431.049],[462.471,436.676]]]},"junctions":[]},{"type":"Feature","id":"building_140817","properties":{"class":"building"},"geometry":{"type":"Polygon","coordinates":[[[474.733,419.029],[476.589,430.417],[489.027,428.021],[485.853,416.113],[474.733,419.029]]]},"junctions":[]},{"type":"Feature","id":"building_140818","properties":{"class":"building"},"geometry":{"type":"Polygon","coordinates":[[[143.633,416.53],[144.244,419.238],[134.353,421.184],[138.505,442.335],[136.917,442.673],[143.267,474.823],[228.377,458.071],[219.829,414.923],[180.877,422.537],[178.312,409.677],[143.633,416.53]]]},"junctions":[]},{"type":"Feature","id":"building_140819","properties":{"class":"building"},"geometry":{"type":"Polygon","coordinates":[[[72.292,413.722],[79.087,446.029],[109.138,439.708],[102.343,407.401],[72.292,413.722]]]},"junctions":[]},{"type":"Feature","id":"building_140820","properties":{"class":"building"},"geometry":{"type":"Polygon","coordinates":[[[18.237,380.935],[24.361,416.013],[31.818,414.669],[34.607,431.089],[51.16,428.178],[51.584,430.566],[60.255,429.074],[59.709,425.939],[64.923,425.043],[56.01,374.144],[45.4,376.01],[44.975,373.621],[27.21,376.756],[27.695,379.293],[18.237,380.935]]]},"junctions":[]},{"type":"Feature","id":"building_140821","properties":{"class":"building"},"geometry":{"type":"Polygon","coordinates":[[[370.889,372.372],[382.271,419.56],[376.539,420.416],[373.099,424.376],[376.539,441.496],[380.469,443.85],[386.529,442.673],[387.02,445.241],[433.941,436.039],[426.326,396.876],[431.976,395.806],[427.8,374.726],[421.986,375.796],[419.529,362.849],[370.889,372.372]]]},"junctions":[]},{"type":"Feature","id":"building_140822","properties":{"class":"building"},"geometry":{"type":"Polygon","coordinates":[[[12.961,367.004],[15.021,378.2],[35.518,374.425],[35.322,373.261],[50.719,370.443],[48.463,358.29],[32.428,361.238],[32.821,363.358],[12.961,367.004]]]},"junctions":[]},{"type":"Feature","id":"building_140823","properties":{"class":"building"},"geometry":{"type":"Polygon","coordinates":[[[110.11,352.219],[118.641,398.9],[189.25,385.971],[180.719,339.29],[110.11,352.219]]]},"junctions":[]},{"type":"Feature","id":"building_140824","properties":{"class":"building"},"geometry":{"type":"Polygon","coordinates":[[[436.422,341.315],[437.782,347.764],[427.714,349.977],[429.483,358.159],[439.347,356.041],[442.408,370.239],[480.096,362.057],[473.837,333.181],[436.422,341.315]]]},"junctions":[]},{"type":"Feature","id":"building_140825","properties":{"class":"building"},"geometry":{"type":"Polygon","coordinates":[[[56.012,310.162],[55.091,345.34],[91.478,346.278],[92.399,311.1],[56.012,310.162]]]},"junctions":[]},{"type":"Feature","id":"building_140826","properties":{"class":"building"},"geometry":{"type":"Polygon","coordinates":[[[-0.02,306.243],[-0.02,335.588],[5.146,334.596],[4.021,328.216],[39.36,321.27],[34.961,299.202],[-0.02,306.243]]]},"junctions":[]},{"type":"Feature","id":"building_140827","properties":{"class":"building"},"geometry":{"type":"Polygon","coordinates":[[[493.181,290.471],[498.878,322.758],[512.009,320.445],[512.009,287.141],[493.181,290.471]]]},"junctions":[]},{"type":"Feature","id":"building_140828","properties":{"class":"building"},"geometry":{"type":"Polygon","coordinates":[[[378.917,294.245],[386.451,333.585],[475.617,316.529],[474.658,311.118],[484.383,309.284],[479.178,282.507],[476.439,283.057],[474.247,271.503],[466.166,272.97],[464.248,262.975],[425.76,270.403],[428.5,284.8],[378.917,294.245]]]},"junctions":[]},{"type":"Feature","id":"building_140829","properties":{"class":"building"},"geometry":{"type":"Polygon","coordinates":[[[40.773,266.68],[44.588,288.834],[74.927,283.65],[71.112,261.496],[40.773,266.68]]]},"junctions":[]},{"type":"Feature","id":"building_140830","properties":{"class":"building"},"geometry":{"type":"Polygon","coordinates":[[[93.99,256.363],[93.081,305.426],[169.556,306.885],[170.869,237.394],[130.359,236.665],[130.056,257.001],[93.99,256.363]]]},"junctions":[]},{"type":"Feature","id":"building_140831","properties":{"class":"building"},"geometry":{"type":"Polygon","coordinates":[[[481.665,236.271],[486.434,258.744],[512.015,253.342],[512.015,229.856],[481.665,236.271]]]},"junctions":[]},{"type":"Feature","id":"building_140832","properties":{"class":"building"},"geometry":{"type":"Polygon","coordinates":[[[-0.016,228.886],[-0.016,265.72],[32.196,259.241],[26.088,228.311],[17.596,229.983],[16.718,225.49],[-0.016,228.886]]]},"junctions":[]},{"type":"Feature","id":"building_140833","properties":{"class":"building"},"geometry":{"type":"Polygon","coordinates":[[[33.959,230.959],[40.233,262.929],[75.251,256.071],[68.977,224.101],[33.959,230.959]]]},"junctions":[]},{"type":"Feature","id":"building_140835","properties":{"class":"building"},"geometry":{"type":"Polygon","coordinates":[[[423.895,180.536],[427.323,193.171],[400.701,200.469],[412.298,242.842],[478.349,224.76],[462.113,158.968],[437.508,165.068],[440.433,176.07],[423.895,180.536]]]},"junctions":[]},{"type":"Feature","id":"building_140836","properties":{"class":"building"},"geometry":{"type":"Polygon","coordinates":[[[152.567,170.26],[162.694,184.122],[154.689,189.942],[174.399,216.899],[199.263,198.749],[169.426,157.931],[152.567,170.26]]]},"junctions":[]},{"type":"Feature","id":"building_140837","properties":{"class":"building"},"geometry":{"type":"Polygon","coordinates":[[[134.204,153.268],[135.693,164.687],[146.946,162.528],[145.291,151.283],[134.204,153.268]]]},"junctions":[]},{"type":"Feature","id":"building_140838","properties":{"class":"building"},"geometry":{"type":"Polygon","coordinates":[[[325.103,136.041],[325.646,184.341],[307.81,184.035],[308.043,212.423],[326.111,212.525],[326.111,214.363],[367.055,214.669],[367.52,136.347],[325.103,136.041]]]},"junctions":[]},{"type":"Feature","id":"building_140839","properties":{"class":"building"},"geometry":{"type":"Polygon","coordinates":[[[266.902,138.181],[271.357,178.642],[303.788,175.042],[299.333,134.638],[266.902,138.181]]]},"junctions":[]},{"type":"Feature","id":"building_140840","properties":{"class":"building"},"geometry":{"type":"Polygon","coordinates":[[[197.718,147.499],[201.454,181.276],[203.862,180.934],[204.859,189.949],[201.371,190.405],[202.7,202.045],[205.938,201.703],[207.516,216.423],[217.396,215.282],[217.812,218.934],[261.652,214.027],[258.165,182.303],[260.406,182.075],[259.078,170.207],[257.417,170.321],[253.1,131.066],[226.364,134.033],[227.526,144.189],[197.718,147.499]]]},"junctions":[]},{"type":"Feature","id":"building_140841","properties":{"class":"building"},"geometry":{"type":"Polygon","coordinates":[[[83.68,146.275],[85.744,156.977],[62.252,161.604],[70.214,201.517],[137.938,188.02],[125.848,127.283],[103.634,131.718],[105.698,141.937],[83.68,146.275]]]},"junctions":[]},{"type":"Feature","id":"building_140842","properties":{"class":"building"},"geometry":{"type":"Polygon","coordinates":[[[374.167,97.157],[374.405,125.374],[400.313,125.153],[400.075,96.936],[374.167,97.157]]]},"junctions":[]},{"type":"Feature","id":"building_140843","properties":{"class":"building"},"geometry":{"type":"Polygon","coordinates":[[[456.04,93.803],[456.87,101.319],[464.289,140.994],[495.99,135.018],[488.208,93.556],[456.04,93.803]]]},"junctions":[]},{"type":"Feature","id":"building_140844","properties":{"class":"building"},"geometry":{"type":"Polygon","coordinates":[[[4.195,104.406],[14.497,149.058],[53.775,139.982],[42.957,93.152],[26.667,96.928],[27.182,99.178],[4.195,104.406]]]},"junctions":[]},{"type":"Feature","id":"building_140845","properties":{"class":"building"},"geometry":{"type":"Polygon","coordinates":[[[495.072,95.152],[500.131,126.017],[512.008,124.049],[512.008,92.354],[495.072,95.152]]]},"junctions":[]},{"type":"Feature","id":"building_140846","properties":{"class":"building"},"geometry":{"type":"Polygon","coordinates":[[[240.363,75.277],[242.268,94.82],[253.577,93.708],[251.758,73.92],[240.363,75.277]]]},"junctions":[]},{"type":"Feature","id":"building_140847","properties":{"class":"building"},"geometry":{"type":"Polygon","coordinates":[[[253.661,55.201],[254.305,60.986],[253.145,61.159],[256.044,92.398],[288.903,88.812],[289.934,96.332],[302.755,94.539],[300.758,80.481],[289.032,82.101],[286.39,58.036],[285.424,58.151],[284.715,51.788],[253.661,55.201]]]},"junctions":[]},{"type":"Feature","id":"building_140848","properties":{"class":"building"},"geometry":{"type":"Polygon","coordinates":[[[171.42,51.572],[178.064,84.614],[180.363,84.179],[183.787,101.498],[210.77,96.063],[200.702,45.702],[171.42,51.572]]]},"junctions":[]},{"type":"Feature","id":"building_140849","properties":{"class":"building"},"geometry":{"type":"Polygon","coordinates":[[[79.662,50.585],[84.545,79.458],[97.751,89.102],[115.468,86.056],[108.632,45.678],[79.662,50.585]]]},"junctions":[]},{"type":"Feature","id":"building_140850","properties":{"class":"building"},"geometry":{"type":"Polygon","coordinates":[[[408.131,35.009],[408.934,69.536],[438.143,68.952],[438.645,90.558],[485.419,89.536],[484.515,50.265],[440.251,51.214],[439.849,34.352],[408.131,35.009]]]},"junctions":[]},{"type":"Feature","id":"building_140851","properties":{"class":"building"},"geometry":{"type":"Polygon","coordinates":[[[330.313,31.642],[331.256,59.898],[327.556,60.052],[327.919,70.294],[331.473,70.14],[331.509,70.5],[355.484,69.676],[355.012,55.883],[353.308,55.935],[352.437,30.87],[330.313,31.642]]]},"junctions":[]},{"type":"Feature","id":"building_140852","properties":{"class":"building"},"geometry":{"type":"Polygon","coordinates":[[[21.182,32.177],[23.814,47.172],[20.795,47.692],[20.253,44.412],[-0.03,48.057],[-0.03,48.682],[2.602,66.54],[26.446,62.375],[26.988,65.238],[59.58,59.563],[53.774,26.45],[21.182,32.177]]]},"junctions":[]},{"type":"Feature","id":"building_140853","properties":{"class":"building"},"geometry":{"type":"Polygon","coordinates":[[[305.902,25.878],[306.115,48.772],[322.348,48.622],[322.113,25.728],[305.902,25.878]]]},"junctions":[]},{"type":"Feature","id":"building_140854","properties":{"class":"building"},"geometry":{"type":"Polygon","coordinates":[[[-0.007,-0.022],[-0.007,44.392],[13.317,41.681],[5.236,-0.022],[-0.007,-0.022]]]},"junctions":[]},{"type":"Feature","id":"building_140855","properties":{"class":"building"},"geometry":{"type":"Polygon","coordinates":[[[95.112,-0.026],[98.263,16.026],[110.954,13.577],[118.481,52.346],[162.504,44.252],[153.839,-0.026],[95.112,-0.026]]]},"junctions":[]},{"type":"Feature","id":"building_140856","properties":{"class":"building"},"geometry":{"type":"Polygon","coordinates":[[[193.358,-0.019],[196.967,37.389],[242.104,31.948],[239.002,-0.019],[193.358,-0.019]]]},"junctions":[]},{"type":"Feature","id":"building_140857","properties":{"class":"building"},"geometry":{"type":"Polygon","coordinates":[[[422.38,-0.013],[422.852,25.623],[483.07,24.624],[482.597,-0.013],[422.38,-0.013]]]},"junctions":[]},{"type":"Feature","id":"building_140858","properties":{"class":"building"},"geometry":{"type":"Polygon","coordinates":[[[360.528,-0.014],[361.122,28.934],[402.101,28.107],[401.507,-0.014],[360.528,-0.014]]]},"junctions":[]},{"type":"Feature","id":"building_140859","properties":{"class":"building"},"geometry":{"type":"Polygon","coordinates":[[[265.162,-0.01],[265.233,19.84],[320.187,19.634],[320.116,-0.01],[265.162,-0.01]]]},"junctions":[]}]}