{"type":"FeatureCollection","coordinateSystem":{"type":"image-pixel","origin":"top-left","x":"right","y":"down","georeferenced":false},"features":[{"type":"Feature","id":"building_071204","properties":{"class":"building"},"geometry":{"type":"Polygon","coordinates":[[[327.43,486.92],[317.996,493.436],[330.905,512.014],[361.688,512.014],[365.784,509.185],[347.91,483.346],[332.395,494.106],[327.43,486.92]]]},"junctions":[]},{"type":"Feature","id":"building_071205","properties":{"class":"building"},"geometry":{"type":"Polygon","coordinates":[[[244.932,475.814],[272.76,512.035],[280.037,512.035],[300.686,496.12],[304.423,500.968],[312.683,494.656],[309.536,490.632],[320.648,482.217],[289.477,441.605],[244.932,475.814]]]},"junctions":[]},{"type":"Feature","id":"building_071206","properties":{"class":"building"},"geometry":{"type":"Polygon","coordinates":[[[401.896,453.132],[422.979,481.554],[449.224,462.088],[428.141,433.666],[401.896,453.132]]]},"junctions":[]},{"type":"Feature","id":"building_071207","properties":{"class":"building"},"geometry":{"type":"Polygon","coordinates":[[[436.677,434.439],[456.767,460.943],[482.853,441.171],[462.823,414.667],[436.677,434.439]]]},"junctions":[]},{"type":"Feature","id":"building_071208","properties":{"class":"building"},"geometry":{"type":"Polygon","coordinates":[[[330.249,433.705],[378.701,497.563],[412.971,471.066],[364.519,412.197],[353.454,421.399],[350.124,417.408],[330.249,433.705]]]},"junctions":[]},{"type":"Feature","id":"building_071209","properties":{"class":"building"},"geometry":{"type":"Polygon","coordinates":[[[-0.04,350.297],[-0.04,410.407],[47.044,452.341],[79.64,415.35],[25.934,367.995],[41.352,350.456],[17.759,329.569],[-0.04,350.297]]]},"junctions":[]},{"type":"Feature","id":"building_071210","properties":{"class":"building"},"geometry":{"type":"Polygon","coordinates":[[[408.33,329.452],[473.28,414.746],[509.16,387.388],[444.21,302.094],[408.33,329.452]]]},"junctions":[]},{"type":"Feature","id":"building_071211","properties":{"class":"building"},"geometry":{"type":"Polygon","coordinates":[[[466.857,304.816],[508.972,360.527],[512.023,358.198],[512.023,297.731],[505.042,302.972],[492.021,285.793],[466.857,304.816]]]},"junctions":[]},{"type":"Feature","id":"building_071212","properties":{"class":"building"},"geometry":{"type":"Polygon","coordinates":[[[141.001,264.389],[187.035,323.517],[219.249,298.435],[181.649,250.083],[164.882,263.149],[156.549,252.372],[141.001,264.389]]]},"junctions":[]},{"type":"Feature","id":"building_071213","properties":{"class":"building"},"geometry":{"type":"Polygon","coordinates":[[[154.647,203.892],[163.47,215.184],[162.09,216.263],[176.855,235.104],[200.863,216.263],[177.155,186.256],[154.647,203.892]]]},"junctions":[]},{"type":"Feature","id":"building_071214","properties":{"class":"building"},"geometry":{"type":"Polygon","coordinates":[[[17.219,225.549],[28.033,240.035],[4.669,257.359],[33.774,296.487],[60.876,276.326],[52.866,265.573],[65.416,256.165],[66.751,257.957],[77.031,250.34],[74.895,247.353],[107.471,223.16],[76.497,181.493],[17.219,225.549]]]},"junctions":[]},{"type":"Feature","id":"building_071215","properties":{"class":"building"},"geometry":{"type":"Polygon","coordinates":[[[194.261,193.472],[264.263,288.795],[309.612,256.122],[311.439,254.775],[290.894,228.334],[285.264,232.376],[252.85,189.43],[259.241,184.714],[240.067,159.115],[194.261,193.472]]]},"junctions":[]},{"type":"Feature","id":"building_071216","properties":{"class":"building"},"geometry":{"type":"Polygon","coordinates":[[[-0.021,114.373],[-0.021,160.238],[18.73,143.264],[23.908,149.115],[41.951,133.225],[16.713,104.622],[2.214,117.479],[-0.021,114.373]]]},"junctions":[]},{"type":"Feature","id":"building_071217","properties":{"class":"building"},"geometry":{"type":"Polygon","coordinates":[[[164.926,93.765],[168.952,98.706],[146.431,116.775],[162.913,137.668],[134.102,160.537],[157.88,190.464],[230.978,132.445],[215.0,112.399],[218.774,109.293],[200.406,86.142],[196.38,89.389],[190.34,81.766],[183.421,87.271],[179.395,82.189],[164.926,93.765]]]},"junctions":[]},{"type":"Feature","id":"building_071218","properties":{"class":"building"},"geometry":{"type":"Polygon","coordinates":[[[355.529,64.134],[376.64,92.8],[385.846,85.942],[418.227,129.908],[409.021,136.59],[428.862,163.498],[477.751,127.446],[404.577,28.082],[355.529,64.134]]]},"junctions":[]},{"type":"Feature","id":"building_071219","properties":{"class":"building"},"geometry":{"type":"Polygon","coordinates":[[[420.294,29.699],[483.567,114.029],[512.046,92.628],[512.046,73.52],[472.009,20.145],[452.705,34.667],[438.645,15.941],[420.294,29.699]]]},"junctions":[]},{"type":"Feature","id":"building_071220","properties":{"class":"building"},"geometry":{"type":"Polygon","coordinates":[[[17.239,-0.022],[1.015,20.362],[32.103,44.442],[70.805,-0.022],[17.239,-0.022]]]},"junctions":[]},{"type":"Feature","id":"building_071221","properties":{"class":"building"},"geometry":{"type":"Polygon","coordinates":[[[80.213,9.303],[90.153,22.026],[52.378,51.419],[59.337,60.34],[42.295,73.647],[72.686,112.546],[151.645,50.834],[111.455,-0.056],[92.852,-0.056],[80.213,9.303]]]},"junctions":[]}]}